{
"type": "FeatureCollection",
"name": "rivers",
"crs": { "type": "name", "properties": { "name": "urn:ogc:def:crs:OGC:1.3:CRS84" } },
"features": [
{ "type": "Feature", "properties": { "name": "Crabtree Creek" }, "geometry": { "type": "LineString", "coordinates": [ [ -78.74546, 35.8399713 ], [ -78.7450701, 35.8400663 ], [ -78.7448926, 35.8400985 ], [ -78.7446597, 35.8401407 ], [ -78.7443299, 35.840416 ], [ -78.7441024, 35.8408368 ], [ -78.7438958, 35.8408643 ], [ -78.7436383, 35.8408643 ], [ -78.7432778, 35.8409409 ], [ -78.7428487, 35.8410452 ], [ -78.7424281, 35.8411427 ], [ -78.7420333, 35.8409339 ], [ -78.7416985, 35.8407669 ], [ -78.7414067, 35.8405652 ], [ -78.7410462, 35.8403842 ], [ -78.7407029, 35.8401268 ], [ -78.7403939, 35.839758 ], [ -78.7400678, 35.839591 ], [ -78.7396558, 35.8395423 ], [ -78.7391065, 35.8395284 ], [ -78.7386516, 35.8397789 ], [ -78.7380937, 35.8401407 ], [ -78.7377589, 35.8405582 ], [ -78.7373898, 35.8409409 ], [ -78.737098, 35.8412609 ], [ -78.736995, 35.8415671 ], [ -78.7368234, 35.8420472 ], [ -78.736626, 35.8424646 ], [ -78.7364656, 35.8430728 ], [ -78.7363294, 35.8433661 ], [ -78.7360306, 35.8436118 ], [ -78.7357055, 35.8437927 ], [ -78.7352527, 35.8440162 ], [ -78.7348829, 35.8443898 ], [ -78.7346141, 35.8448535 ], [ -78.7341801, 35.8452458 ], [ -78.7338848, 35.845488 ], [ -78.7335103, 35.8458808 ], [ -78.7331756, 35.846333 ], [ -78.7329267, 35.8466322 ], [ -78.7328666, 35.8468966 ], [ -78.7326434, 35.8470079 ], [ -78.7323859, 35.8468548 ], [ -78.73224, 35.8463817 ], [ -78.7323173, 35.8455329 ], [ -78.7323001, 35.8449902 ], [ -78.7321971, 35.8447328 ], [ -78.7317164, 35.8438979 ], [ -78.7313903, 35.8433065 ], [ -78.7309611, 35.8426734 ], [ -78.7306264, 35.8420541 ], [ -78.7302319, 35.8414019 ], [ -78.7301691, 35.8412349 ], [ -78.730049, 35.8409157 ], [ -78.7298625, 35.8404747 ], [ -78.7295442, 35.8402728 ], [ -78.7292384, 35.8402825 ], [ -78.7289702, 35.8405335 ], [ -78.7289635, 35.840682 ], [ -78.729361, 35.8409559 ], [ -78.7298572, 35.8412347 ], [ -78.7298062, 35.8418178 ], [ -78.7294162, 35.8421098 ], [ -78.7288154, 35.8424438 ], [ -78.7282514, 35.842643 ], [ -78.7277796, 35.8428063 ], [ -78.7274451, 35.8435307 ], [ -78.7271382, 35.8441202 ], [ -78.7267359, 35.8444809 ], [ -78.7261203, 35.8448024 ], [ -78.7257081, 35.8449026 ], [ -78.7254336, 35.8449694 ], [ -78.7249444, 35.8452894 ], [ -78.7247548, 35.8453539 ], [ -78.7246982, 35.8453741 ], [ -78.7240854, 35.8455928 ], [ -78.7235294, 35.8458639 ], [ -78.7228413, 35.8459279 ], [ -78.7223652, 35.8457745 ], [ -78.7218644, 35.8455216 ], [ -78.7213731, 35.8452799 ], [ -78.7211576, 35.845207 ], [ -78.7207902, 35.8450946 ], [ -78.7202548, 35.8449999 ], [ -78.7197027, 35.8450082 ], [ -78.7189933, 35.8450498 ], [ -78.7185414, 35.8448928 ], [ -78.7182839, 35.8446563 ], [ -78.7180113, 35.8444386 ], [ -78.7176146, 35.8442128 ], [ -78.7170646, 35.8438523 ], [ -78.7165287, 35.8437698 ], [ -78.7159959, 35.8440062 ], [ -78.7158181, 35.8444117 ], [ -78.7156374, 35.844801 ], [ -78.7155828, 35.8454169 ], [ -78.715315, 35.8456306 ], [ -78.7150224, 35.8457416 ], [ -78.7146692, 35.8457189 ], [ -78.7143615, 35.8456025 ], [ -78.7137864, 35.8453868 ], [ -78.7131925, 35.845281 ], [ -78.7126758, 35.8450444 ], [ -78.7122672, 35.8448928 ], [ -78.7117266, 35.8446158 ], [ -78.7112896, 35.8442691 ], [ -78.7109291, 35.8439693 ], [ -78.7105678, 35.8436126 ], [ -78.7104164, 35.8432739 ], [ -78.710294, 35.8429004 ], [ -78.7101575, 35.8425896 ], [ -78.7099687, 35.8423485 ], [ -78.7095982, 35.8420357 ], [ -78.7086499, 35.8414838 ], [ -78.7079522, 35.8410887 ], [ -78.7078077, 35.8410069 ], [ -78.7076096, 35.8408726 ], [ -78.7074145, 35.8407928 ], [ -78.7072022, 35.84079 ], [ -78.7067707, 35.8408316 ], [ -78.7064088, 35.8409288 ], [ -78.7056482, 35.8411331 ], [ -78.705299, 35.8411742 ], [ -78.7046798, 35.841247 ], [ -78.7040385, 35.8414053 ], [ -78.7030123, 35.8416586 ], [ -78.7018354, 35.8418601 ], [ -78.7013316, 35.8419175 ], [ -78.7008861, 35.841908 ], [ -78.7006932, 35.8418631 ], [ -78.7005197, 35.8418163 ], [ -78.7003804, 35.8417805 ], [ -78.7000788, 35.841794 ], [ -78.6998733, 35.8418871 ], [ -78.6993583, 35.8421724 ], [ -78.6991736, 35.8424289 ], [ -78.6977978, 35.8443397 ], [ -78.697198, 35.8450114 ], [ -78.6970453, 35.8451206 ], [ -78.6968183, 35.8452829 ], [ -78.6963755, 35.8455264 ], [ -78.6960455, 35.8456408 ], [ -78.6960421, 35.845642 ], [ -78.6953368, 35.8456409 ], [ -78.6946719, 35.8455886 ], [ -78.6938175, 35.8453661 ], [ -78.693558, 35.845251 ], [ -78.6931212, 35.8450612 ], [ -78.6925002, 35.8448538 ], [ -78.6924198, 35.8448377 ], [ -78.6919193, 35.8447372 ], [ -78.690618, 35.84471 ], [ -78.6898661, 35.8445728 ], [ -78.6891854, 35.8446082 ], [ -78.688494, 35.8446791 ], [ -78.6881033, 35.8446211 ], [ -78.687946, 35.8444786 ], [ -78.6876054, 35.8444786 ], [ -78.6866897, 35.8442319 ], [ -78.6861646, 35.8441128 ], [ -78.6857086, 35.844115 ], [ -78.6854546, 35.8439781 ], [ -78.6852638, 35.8438501 ], [ -78.6850417, 35.8434457 ], [ -78.6848237, 35.8430093 ], [ -78.6846564, 35.842761 ], [ -78.6845107, 35.8423739 ], [ -78.684486, 35.842057 ], [ -78.6843207, 35.8416367 ], [ -78.6837886, 35.8412122 ], [ -78.682381, 35.8401477 ], [ -78.680235, 35.8386724 ], [ -78.6801348, 35.8386358 ], [ -78.679703, 35.8384778 ], [ -78.6794415, 35.8382819 ], [ -78.6792825, 35.8380881 ], [ -78.6791108, 35.8378237 ], [ -78.6782268, 35.8374828 ], [ -78.6770509, 35.8368565 ], [ -78.6768388, 35.8368385 ], [ -78.6761306, 35.8367783 ], [ -78.675986, 35.8367367 ], [ -78.6757992, 35.8366639 ], [ -78.675566, 35.8365643 ], [ -78.6751428, 35.8365639 ], [ -78.6748169, 35.8367885 ], [ -78.6745569, 35.8370761 ], [ -78.6739773, 35.837962 ], [ -78.6738471, 35.8380465 ], [ -78.6737121, 35.8381068 ], [ -78.6735651, 35.8381397 ], [ -78.6733821, 35.8381484 ], [ -78.6732643, 35.8381363 ], [ -78.672669, 35.8380751 ], [ -78.6723903, 35.8380464 ], [ -78.672121, 35.8380619 ], [ -78.6720916, 35.8380636 ], [ -78.671631, 35.8380902 ], [ -78.6715691, 35.8380863 ], [ -78.671532, 35.8380881 ], [ -78.6712055, 35.8381491 ], [ -78.6709967, 35.8383454 ], [ -78.6706935, 35.8386408 ], [ -78.6704383, 35.8389295 ], [ -78.6701384, 35.8391841 ], [ -78.6697889, 35.8393356 ], [ -78.6695066, 35.8394015 ], [ -78.6694426, 35.8394164 ], [ -78.6689285, 35.8394937 ], [ -78.6686434, 35.8394937 ], [ -78.668473, 35.8393435 ], [ -78.6682221, 35.8389713 ], [ -78.6678694, 35.8387229 ], [ -78.6672805, 35.8385265 ], [ -78.6663622, 35.8382134 ], [ -78.6654039, 35.8380663 ], [ -78.6646021, 35.8381139 ], [ -78.6640069, 35.8381492 ] ] } },
{ "type": "Feature", "properties": { "name": "Crabtree Creek" }, "geometry": { "type": "LineString", "coordinates": [ [ -78.7832546, 35.8372156 ], [ -78.7828513, 35.8368623 ], [ -78.7825969, 35.8365573 ], [ -78.7823635, 35.8365455 ], [ -78.7820065, 35.8365516 ], [ -78.7816228, 35.8365895 ], [ -78.7813781, 35.8367591 ], [ -78.7810348, 35.8370653 ], [ -78.7809489, 35.837274 ], [ -78.7806914, 35.8379211 ], [ -78.7805983, 35.8381928 ], [ -78.7805198, 35.8384221 ], [ -78.7803395, 35.8389996 ], [ -78.779876, 35.8397163 ], [ -78.7797473, 35.8398415 ], [ -78.7796905, 35.8398737 ], [ -78.7794898, 35.8399876 ], [ -78.7794516, 35.8400035 ], [ -78.7792307, 35.8400952 ], [ -78.7791988, 35.8401084 ], [ -78.7790143, 35.8401014 ], [ -78.7786026, 35.8400858 ], [ -78.7780653, 35.8400064 ], [ -78.7776013, 35.8398877 ], [ -78.7763796, 35.8391736 ], [ -78.7758155, 35.8389603 ], [ -78.7753665, 35.8386505 ], [ -78.7749618, 35.838477 ], [ -78.7744481, 35.8384893 ], [ -78.7739533, 35.8384335 ], [ -78.773619, 35.8382621 ], [ -78.7731812, 35.8380116 ], [ -78.7729495, 35.8380603 ], [ -78.7727263, 35.8381647 ], [ -78.7724088, 35.8383177 ], [ -78.7720311, 35.8385891 ], [ -78.7717994, 35.8390831 ], [ -78.7717565, 35.8393545 ], [ -78.7719882, 35.839605 ], [ -78.772518, 35.8400929 ], [ -78.7728106, 35.8404967 ], [ -78.7728372, 35.8408009 ], [ -78.7727308, 35.8410603 ], [ -78.7725619, 35.8411612 ], [ -78.7723252, 35.8412432 ], [ -78.7717388, 35.8414295 ], [ -78.7712584, 35.841585 ], [ -78.7707522, 35.8418523 ], [ -78.7700993, 35.8422477 ], [ -78.7700742, 35.8422629 ], [ -78.7695592, 35.8422489 ], [ -78.76913, 35.8421307 ], [ -78.768864, 35.8418593 ], [ -78.7685636, 35.8416575 ], [ -78.7683146, 35.8416575 ], [ -78.7680511, 35.841828 ], [ -78.7679363, 35.8420603 ], [ -78.7680314, 35.8423603 ], [ -78.76836, 35.8426423 ], [ -78.7687533, 35.8428554 ], [ -78.7692717, 35.8431467 ], [ -78.7695898, 35.8434818 ], [ -78.7695005, 35.8439558 ], [ -78.7691805, 35.8443943 ], [ -78.7687266, 35.8446771 ], [ -78.7682546, 35.8448232 ], [ -78.7677482, 35.8447398 ], [ -78.7674993, 35.844371 ], [ -78.7671988, 35.8436961 ], [ -78.7668572, 35.843275 ], [ -78.7662547, 35.8428195 ], [ -78.7655297, 35.8424064 ], [ -78.7641318, 35.84161 ], [ -78.763697, 35.8413583 ], [ -78.7634229, 35.8411629 ], [ -78.7630769, 35.8411049 ], [ -78.7628068, 35.841209 ], [ -78.7625619, 35.8414147 ], [ -78.7625297, 35.8414558 ], [ -78.7622464, 35.8416158 ], [ -78.7619546, 35.8418245 ], [ -78.7615598, 35.8420472 ], [ -78.761246, 35.8422512 ], [ -78.7607588, 35.8424617 ], [ -78.7602377, 35.842514 ], [ -78.7595068, 35.8427431 ], [ -78.7589669, 35.842893 ], [ -78.7587125, 35.8430051 ], [ -78.7583197, 35.8431781 ], [ -78.7579254, 35.843696 ], [ -78.7576084, 35.8445533 ], [ -78.7572627, 35.8448666 ], [ -78.7569419, 35.8448453 ], [ -78.7564891, 35.8445574 ], [ -78.7560436, 35.8442191 ], [ -78.7555001, 35.8439118 ], [ -78.7551053, 35.8438909 ], [ -78.7546933, 35.8436196 ], [ -78.7544015, 35.8434317 ], [ -78.7536977, 35.8434292 ], [ -78.7529006, 35.8432879 ], [ -78.7523931, 35.8434248 ], [ -78.751921, 35.8436683 ], [ -78.7514747, 35.8441205 ], [ -78.7512086, 35.8445936 ], [ -78.7509425, 35.8449972 ], [ -78.7507194, 35.8451642 ], [ -78.7504361, 35.8450807 ], [ -78.7502044, 35.8449833 ], [ -78.7498954, 35.8450041 ], [ -78.749698, 35.8449694 ], [ -78.7495521, 35.844698 ], [ -78.7494748, 35.8444823 ], [ -78.7492946, 35.8438214 ], [ -78.7489255, 35.8433761 ], [ -78.7485822, 35.8432021 ], [ -78.7482045, 35.843223 ], [ -78.7478011, 35.843383 ], [ -78.7472003, 35.8434457 ], [ -78.746651, 35.8433552 ], [ -78.7459472, 35.8431465 ], [ -78.7450374, 35.8427221 ], [ -78.7445395, 35.8425968 ], [ -78.7441276, 35.8421933 ], [ -78.7440619, 35.8415726 ], [ -78.7440418, 35.8412775 ], [ -78.7439245, 35.8409455 ], [ -78.7438958, 35.8408643 ] ] } },
{ "type": "Feature", "properties": { "name": "Crabtree Creek" }, "geometry": { "type": "LineString", "coordinates": [ [ -78.6622556, 35.8373365 ], [ -78.6617649, 35.8369017 ], [ -78.6612857, 35.8360995 ], [ -78.6599923, 35.8348393 ], [ -78.6580823, 35.8339342 ] ] } },
{ "type": "Feature", "properties": { "name": "Crabtree Creek" }, "geometry": { "type": "LineString", "coordinates": [ [ -78.6289702, 35.8171888 ], [ -78.6283172, 35.816918 ], [ -78.6275689, 35.8163113 ], [ -78.6270815, 35.8161232 ], [ -78.6259862, 35.8159303 ], [ -78.6253283, 35.8158144 ] ] } },
{ "type": "Feature", "properties": { "name": "Crabtree Creek" }, "geometry": { "type": "LineString", "coordinates": [ [ -78.5963506, 35.7972747 ], [ -78.596452, 35.7970948 ], [ -78.596477, 35.7969327 ], [ -78.5964535, 35.7967837 ], [ -78.5963785, 35.7966883 ], [ -78.5962228, 35.7966073 ], [ -78.5959807, 35.7965984 ], [ -78.5957355, 35.7964611 ], [ -78.5956898, 35.7963751 ], [ -78.5956658, 35.7962211 ], [ -78.5957099, 35.7960481 ], [ -78.5958159, 35.7958947 ], [ -78.5958439, 35.7957455 ], [ -78.5958095, 35.7955838 ], [ -78.5956271, 35.7954141 ], [ -78.5954179, 35.795314 ], [ -78.5952991, 35.7952381 ], [ -78.5952248, 35.7950573 ], [ -78.5951448, 35.7946817 ], [ -78.5950156, 35.7944829 ], [ -78.5949655, 35.7943218 ], [ -78.5950111, 35.7940476 ], [ -78.5951448, 35.793926 ], [ -78.5952315, 35.7937449 ], [ -78.5954416, 35.7935196 ], [ -78.595859, 35.7932454 ], [ -78.5959413, 35.7930833 ], [ -78.5959501, 35.7928986 ], [ -78.5956959, 35.7923169 ], [ -78.5954893, 35.7919871 ], [ -78.5951198, 35.7917257 ], [ -78.5947818, 35.7916005 ], [ -78.5945585, 35.7915648 ], [ -78.5943189, 35.791554 ], [ -78.5941235, 35.7916017 ], [ -78.5937987, 35.7917877 ], [ -78.5923836, 35.7922466 ], [ -78.5920309, 35.7923372 ], [ -78.5917899, 35.7923383 ], [ -78.5916738, 35.7923109 ], [ -78.5915842, 35.7922418 ], [ -78.5915122, 35.7920797 ], [ -78.5914828, 35.7916685 ], [ -78.5913888, 35.7912787 ], [ -78.5910995, 35.7906094 ], [ -78.5910891, 35.790338 ], [ -78.591032, 35.79022 ], [ -78.5909073, 35.7900902 ], [ -78.5906569, 35.7899216 ], [ -78.5902901, 35.7897488 ], [ -78.5899254, 35.7896232 ], [ -78.5895565, 35.7895388 ], [ -78.589309, 35.7896623 ], [ -78.5891945, 35.7898028 ], [ -78.5892986, 35.7908432 ], [ -78.5892443, 35.7912247 ], [ -78.5891238, 35.7914476 ], [ -78.588946, 35.7915537 ], [ -78.5887755, 35.7915775 ], [ -78.5886477, 35.7915358 ], [ -78.5885374, 35.7914524 ], [ -78.5882215, 35.7912616 ], [ -78.5878048, 35.7911501 ], [ -78.5855385, 35.790827 ], [ -78.5828886, 35.7898264 ], [ -78.5820587, 35.7898687 ], [ -78.5807772, 35.7903632 ], [ -78.5802301, 35.7904933 ], [ -78.579069, 35.7903992 ], [ -78.5783694, 35.7901446 ], [ -78.5783192, 35.7898209 ], [ -78.5784676, 35.7890451 ], [ -78.5784747, 35.7876931 ], [ -78.5779662, 35.7841586 ], [ -78.5779422, 35.7837253 ], [ -78.5780902, 35.7834601 ], [ -78.5783317, 35.783276 ], [ -78.5789408, 35.7831429 ], [ -78.5793294, 35.7828738 ], [ -78.5794722, 35.7825431 ], [ -78.5795, 35.781973 ], [ -78.5792249, 35.7817017 ], [ -78.5786174, 35.7815193 ], [ -78.5767227, 35.7813148 ], [ -78.576324, 35.7813708 ], [ -78.5761628, 35.7815045 ], [ -78.5761203, 35.781907 ], [ -78.5759838, 35.7820766 ], [ -78.575683, 35.782185 ], [ -78.5744942, 35.7821668 ], [ -78.5743, 35.78227 ], [ -78.573082, 35.782491 ], [ -78.570868, 35.782709 ], [ -78.57037, 35.7827235 ], [ -78.569855, 35.7827017 ], [ -78.5690342, 35.7825081 ], [ -78.5685327, 35.7825603 ], [ -78.5659981, 35.7832327 ], [ -78.5654213, 35.7835068 ], [ -78.5650807, 35.7835939 ], [ -78.5646172, 35.7835883 ], [ -78.5632903, 35.7836276 ], [ -78.5625258, 35.7834949 ], [ -78.5619604, 35.7832633 ], [ -78.5596743, 35.7805942 ], [ -78.5589438, 35.7797098 ], [ -78.5579621, 35.7788655 ], [ -78.5572754, 35.7780256 ], [ -78.5566817, 35.7776107 ], [ -78.5558257, 35.7774565 ], [ -78.5551954, 35.7774326 ], [ -78.5547374, 35.777332 ], [ -78.5542727, 35.7771671 ], [ -78.5536645, 35.7770817 ], [ -78.5535062, 35.7771274 ], [ -78.5533641, 35.7772689 ], [ -78.55323, 35.7777672 ], [ -78.5530315, 35.7780153 ], [ -78.5527284, 35.778198 ], [ -78.5525219, 35.7782089 ], [ -78.5523663, 35.778185 ], [ -78.551679, 35.7777237 ], [ -78.5508656, 35.7771894 ], [ -78.5503815, 35.7767764 ], [ -78.5500542, 35.7762592 ], [ -78.549835, 35.7753533 ], [ -78.5496043, 35.7750574 ], [ -78.5490759, 35.7747614 ], [ -78.5483537, 35.7742245 ], [ -78.547482, 35.7734585 ], [ -78.5469134, 35.7727861 ], [ -78.5466451, 35.7722028 ], [ -78.546427, 35.7718944 ], [ -78.5461033, 35.7716131 ], [ -78.5457788, 35.7715413 ], [ -78.5454611, 35.7715528 ], [ -78.5450238, 35.771242 ], [ -78.5440233, 35.7701278 ], [ -78.5434842, 35.7694836 ], [ -78.5429989, 35.768272 ], [ -78.5425012, 35.7676472 ], [ -78.5421475, 35.767127 ], [ -78.5418917, 35.7669127 ], [ -78.5415897, 35.7667386 ], [ -78.5398645, 35.7663265 ], [ -78.5397098, 35.7662199 ] ] } },
{ "type": "Feature", "properties": { "name": "Crabtree Creek" }, "geometry": { "type": "LineString", "coordinates": [ [ -78.6374329, 35.8243732 ], [ -78.6366554, 35.824574 ], [ -78.6362318, 35.8245246 ], [ -78.6357529, 35.8241511 ], [ -78.634799, 35.8218305 ], [ -78.6336635, 35.8207763 ], [ -78.6333527, 35.820425 ], [ -78.6332432, 35.8200584 ], [ -78.6328753, 35.8197851 ], [ -78.63219, 35.8195255 ], [ -78.6312411, 35.8189577 ], [ -78.6305146, 35.8185093 ], [ -78.6298937, 35.8179012 ] ] } },
{ "type": "Feature", "properties": { "name": "Crabtree Creek" }, "geometry": { "type": "LineString", "coordinates": [ [ -78.6157856, 35.8140214 ], [ -78.6152355, 35.8143195 ], [ -78.6145316, 35.8144083 ], [ -78.6121407, 35.81471 ], [ -78.6111576, 35.8146589 ], [ -78.6102052, 35.8144785 ] ] } },
{ "type": "Feature", "properties": { "name": "Crabtree Creek" }, "geometry": { "type": "LineString", "coordinates": [ [ -78.6472632, 35.824078 ], [ -78.6465245, 35.8236096 ], [ -78.6460918, 35.8234355 ], [ -78.6457015, 35.8234653 ], [ -78.645414, 35.8234254 ], [ -78.6450146, 35.8234764 ], [ -78.6447081, 35.8234831 ], [ -78.6442579, 35.8234992 ], [ -78.6434815, 35.8232343 ] ] } },
{ "type": "Feature", "properties": { "name": "Crabtree Creek" }, "geometry": { "type": "LineString", "coordinates": [ [ -78.6078383, 35.8038986 ], [ -78.6072663, 35.8038361 ], [ -78.6069819, 35.8038508 ], [ -78.6066287, 35.8039587 ], [ -78.6057712, 35.8044474 ], [ -78.6053751, 35.804679 ], [ -78.6051889, 35.8048245 ], [ -78.6050919, 35.8049627 ], [ -78.6050268, 35.8051661 ], [ -78.6048527, 35.8055108 ], [ -78.6046789, 35.8056829 ], [ -78.6042219, 35.8060535 ], [ -78.6039985, 35.8062512 ], [ -78.6038168, 35.8062978 ], [ -78.6035663, 35.8062786 ], [ -78.6031924, 35.8059607 ] ] } },
{ "type": "Feature", "properties": { "name": "Crabtree Creek" }, "geometry": { "type": "LineString", "coordinates": [ [ -78.6580823, 35.8339342 ], [ -78.6570084, 35.8329764 ], [ -78.6558337, 35.832188 ] ] } },
{ "type": "Feature", "properties": { "name": "Crabtree Creek" }, "geometry": { "type": "LineString", "coordinates": [ [ -78.6031924, 35.8059607 ], [ -78.6023397, 35.804989 ], [ -78.6010003, 35.803515 ], [ -78.6002503, 35.8023683 ], [ -78.5987032, 35.8009437 ], [ -78.598399, 35.8003886 ], [ -78.5981474, 35.7998843 ], [ -78.5971794, 35.79887 ], [ -78.5960097, 35.797997 ], [ -78.5959068, 35.797848 ], [ -78.5958728, 35.797711 ], [ -78.59592, 35.7975513 ], [ -78.596072, 35.7974497 ], [ -78.5963506, 35.7972747 ] ] } },
{ "type": "Feature", "properties": { "name": "Crabtree Creek" }, "geometry": { "type": "LineString", "coordinates": [ [ -78.6640069, 35.8381492 ], [ -78.663188, 35.8377692 ], [ -78.6624343, 35.8374264 ], [ -78.6622556, 35.8373365 ] ] } },
{ "type": "Feature", "properties": { "name": "Crabtree Creek" }, "geometry": { "type": "LineString", "coordinates": [ [ -78.6558337, 35.832188 ], [ -78.6552604, 35.831846 ], [ -78.6551397, 35.8317751 ], [ -78.6550564, 35.8316965 ], [ -78.6549425, 35.8314729 ], [ -78.654911, 35.8312284 ], [ -78.6548848, 35.8307347 ], [ -78.6548044, 35.8302392 ], [ -78.6555313, 35.8291935 ], [ -78.655521, 35.8290433 ], [ -78.6554871, 35.8285508 ], [ -78.6551452, 35.8282224 ], [ -78.6548849, 35.8281671 ], [ -78.6536119, 35.8279298 ], [ -78.6534059, 35.8278914 ], [ -78.6514811, 35.8278637 ], [ -78.6513035, 35.827799 ], [ -78.6506746, 35.8275406 ], [ -78.6505842, 35.8275642 ] ] } },
{ "type": "Feature", "properties": { "name": "Crabtree Creek" }, "geometry": { "type": "LineString", "coordinates": [ [ -78.6505842, 35.8275642 ], [ -78.6505127, 35.8275206 ], [ -78.6501214, 35.8273319 ], [ -78.6498719, 35.8269696 ], [ -78.6496799, 35.8266441 ], [ -78.6495322, 35.8262894 ], [ -78.6492702, 35.8260263 ], [ -78.6490849, 35.8259177 ], [ -78.6484844, 35.8255326 ], [ -78.6479958, 35.8248495 ], [ -78.6476385, 35.824453 ], [ -78.6472632, 35.824078 ] ] } },
{ "type": "Feature", "properties": { "name": "Crabtree Creek" }, "geometry": { "type": "LineString", "coordinates": [ [ -78.6298937, 35.8179012 ], [ -78.6294265, 35.8173871 ], [ -78.6289702, 35.8171888 ] ] } },
{ "type": "Feature", "properties": { "name": "Crabtree Creek" }, "geometry": { "type": "LineString", "coordinates": [ [ -78.6422669, 35.8222891 ], [ -78.6422228, 35.8222525 ], [ -78.6421739, 35.8222168 ], [ -78.6421008, 35.822161 ], [ -78.6420856, 35.8221492 ], [ -78.6420463, 35.8221193 ], [ -78.6420022, 35.8220877 ], [ -78.6419581, 35.8220589 ], [ -78.6419277, 35.8220419 ], [ -78.6419125, 35.8220337 ], [ -78.6418649, 35.8220133 ], [ -78.6418262, 35.8219987 ], [ -78.6417882, 35.8219886 ], [ -78.6417316, 35.8219756 ], [ -78.6416839, 35.8219656 ], [ -78.6416196, 35.8219568 ], [ -78.6415594, 35.8219552 ], [ -78.6414937, 35.8219562 ], [ -78.6414287, 35.821954 ], [ -78.6414052, 35.8219523 ], [ -78.6413381, 35.8219474 ], [ -78.6412883, 35.8219446 ], [ -78.6412683, 35.8219434 ], [ -78.6411964, 35.821934 ], [ -78.6411397, 35.8219308 ], [ -78.6410912, 35.8219339 ], [ -78.641058, 35.8219287 ], [ -78.6410304, 35.8219268 ], [ -78.6409474, 35.8219178 ], [ -78.6408686, 35.8219111 ], [ -78.6408036, 35.821904 ], [ -78.640738, 35.8218941 ], [ -78.6407158, 35.8218911 ], [ -78.6406695, 35.8218843 ], [ -78.6405644, 35.8218754 ], [ -78.6404966, 35.8218758 ], [ -78.6403472, 35.8218776 ], [ -78.6402732, 35.821876 ], [ -78.6402082, 35.8218776 ], [ -78.6401584, 35.8218724 ], [ -78.6400844, 35.8218668 ], [ -78.6399544, 35.8218591 ], [ -78.6398756, 35.8218566 ], [ -78.6397794, 35.8218563 ], [ -78.6396141, 35.821849 ], [ -78.639516, 35.8218406 ], [ -78.6394475, 35.8218313 ], [ -78.6393708, 35.8218178 ], [ -78.6393155, 35.8218089 ], [ -78.6392395, 35.8217993 ], [ -78.6391745, 35.8217875 ], [ -78.6390439, 35.8217592 ], [ -78.6389879, 35.8217502 ], [ -78.6389223, 35.8217386 ], [ -78.6388635, 35.821726 ], [ -78.638811, 35.8217124 ], [ -78.6387578, 35.821697 ], [ -78.6386998, 35.8216816 ], [ -78.6386804, 35.8216752 ], [ -78.6386542, 35.8216658 ], [ -78.6386328, 35.8216582 ], [ -78.6386079, 35.8216492 ], [ -78.6385444, 35.8216288 ], [ -78.6384781, 35.8216097 ], [ -78.6382909, 35.821558 ], [ -78.6381465, 35.8215111 ], [ -78.6380733, 35.821484 ], [ -78.6380015, 35.8214546 ], [ -78.6379407, 35.8214377 ], [ -78.6378965, 35.8214239 ], [ -78.6378543, 35.8214184 ], [ -78.6378129, 35.8214149 ], [ -78.6377644, 35.8214196 ], [ -78.6377173, 35.8214335 ], [ -78.6376785, 35.8214545 ], [ -78.6376424, 35.8214803 ], [ -78.6376056, 35.821518 ], [ -78.6375763, 35.8215614 ], [ -78.6375596, 35.8216015 ], [ -78.6375469, 35.8216483 ], [ -78.6375439, 35.8216859 ], [ -78.6375432, 35.8217001 ], [ -78.6375407, 35.8218067 ], [ -78.6375539, 35.82193 ], [ -78.6375796, 35.8220811 ], [ -78.6375855, 35.8221366 ], [ -78.6375901, 35.8222018 ], [ -78.637602, 35.8223277 ], [ -78.6376135, 35.8223827 ], [ -78.6376236, 35.82244 ], [ -78.6376344, 35.8224913 ], [ -78.6376515, 35.8225327 ], [ -78.6376658, 35.8225772 ], [ -78.637685, 35.8226349 ], [ -78.6377109, 35.8227229 ], [ -78.6377239, 35.8227482 ], [ -78.6377369, 35.822776 ], [ -78.6377485, 35.8228083 ], [ -78.6377648, 35.8228789 ], [ -78.6377796, 35.8229606 ], [ -78.6378089, 35.82308 ], [ -78.6378292, 35.8231613 ], [ -78.6378561, 35.8233346 ], [ -78.6378689, 35.8234106 ], [ -78.6378459, 35.8236468 ], [ -78.6378462, 35.8239251 ], [ -78.6376473, 35.8241926 ], [ -78.6374329, 35.8243732 ] ] } },
{ "type": "Feature", "properties": { "name": "Crabtree Creek" }, "geometry": { "type": "LineString", "coordinates": [ [ -78.6085354, 35.8043791 ], [ -78.6084211, 35.8041849 ], [ -78.6078383, 35.8038986 ] ] } },
{ "type": "Feature", "properties": { "name": "Crabtree Creek" }, "geometry": { "type": "LineString", "coordinates": [ [ -78.6102052, 35.8144785 ], [ -78.6101408, 35.8142556 ], [ -78.6114359, 35.8116883 ], [ -78.6115556, 35.8114201 ], [ -78.6114943, 35.8110575 ], [ -78.6114625, 35.8107459 ], [ -78.6112661, 35.8104863 ], [ -78.6106832, 35.8100934 ], [ -78.6104889, 35.8099659 ], [ -78.610334, 35.8098125 ], [ -78.6094754, 35.8083616 ], [ -78.6085254, 35.8071723 ], [ -78.6087199, 35.805756 ], [ -78.6088013, 35.8052572 ], [ -78.6086168, 35.8047218 ], [ -78.6085354, 35.8043791 ] ] } },
{ "type": "Feature", "properties": { "name": "Crabtree Creek" }, "geometry": { "type": "LineString", "coordinates": [ [ -78.6253283, 35.8158144 ], [ -78.6246963, 35.8156507 ], [ -78.6244101, 35.8155172 ], [ -78.6241045, 35.8152305 ], [ -78.6227158, 35.8146565 ], [ -78.6223777, 35.8145168 ], [ -78.6215184, 35.8141724 ], [ -78.62099, 35.8140895 ], [ -78.6203003, 35.8141656 ], [ -78.6194697, 35.8137771 ], [ -78.6193935, 35.8137414 ], [ -78.6183528, 35.8135543 ], [ -78.618191, 35.8134929 ], [ -78.6177695, 35.813333 ], [ -78.6174042, 35.8131944 ], [ -78.6170413, 35.8131398 ], [ -78.6164522, 35.8133003 ], [ -78.615908, 35.8136854 ], [ -78.6157856, 35.8140214 ] ] } },
{ "type": "Feature", "properties": { "name": "Crabtree Creek" }, "geometry": { "type": "LineString", "coordinates": [ [ -78.6434815, 35.8232343 ], [ -78.6428121, 35.822702 ], [ -78.6424938, 35.8224488 ], [ -78.6424434, 35.822416 ], [ -78.6423993, 35.8223892 ], [ -78.6423572, 35.8223584 ], [ -78.6423151, 35.82233 ], [ -78.6422669, 35.8222891 ] ] } }
]
}
