{"type":"FeatureCollection","crs":{"type":"name","properties":{"name":"EPSG:4326"}},"features":[{"type":"Feature","geometry":{"type":"LineString","coordinates":[[-82.4939199999423,35.4677000000409],[-82.4938999997258,35.4685999998928]]},"properties":{"Id":713975,"CommonName":"Tree Top Dr","Reason":"The road is washed out South of White Rock Ct.","Condition":"Road Closed","BridgeInvolved":"no","StartDateET":"9/27/2024"}},{"type":"Feature","geometry":{"type":"LineString","coordinates":[[-82.608869999879,35.5648099997556],[-82.608239999991,35.5646100003812],[-82.6079200003141,35.5643599998948],[-82.6077599996636,35.5641899996708],[-82.607560000332,35.5639700000944],[-82.6076200002148,35.5636200000812],[-82.6077600001592,35.5628400001522]]},"properties":{"Id":715082,"CommonName":"South Bear Creek Road","Reason":"The road is closed near Sand Hill Road","Condition":"Road Closed","BridgeInvolved":"no","StartDateET":"10/4/2024"}},{"type":"Feature","geometry":{"type":"LineString","coordinates":[[-82.4817600003763,35.6336999997712],[-82.4816899999097,35.6342299997143],[-82.4819900000212,35.6347700002174],[-82.4820200003717,35.6351200002412],[-82.4814799997547,35.6355599996722],[-82.4810599997118,35.6358200001786]]},"properties":{"Id":715080,"CommonName":"Wendy Lane","Reason":"The road is closed near Ashley Road","Condition":"Road Closed","BridgeInvolved":"no","StartDateET":"10/4/2024"}},{"type":"Feature","geometry":{"type":"LineString","coordinates":[[-82.4817600003763,35.6336999997712],[-82.4816899999097,35.6342299997143],[-82.4819900000212,35.6347700002174],[-82.4820200003717,35.6351200002412],[-82.4814799997547,35.6355599996722],[-82.4810599997118,35.6358200001786]]},"properties":{"Id":715080,"CommonName":"Wendy Lane","Reason":"The road is closed near Ashley Road","Condition":"Road Closed","BridgeInvolved":"no","StartDateET":"10/4/2024"}},{"type":"Feature","geometry":{"type":"LineString","coordinates":[[-82.608869999879,35.5648099997556],[-82.608239999991,35.5646100003812],[-82.6079200003141,35.5643599998948],[-82.6077599996636,35.5641899996708],[-82.607560000332,35.5639700000944],[-82.6076200002148,35.5636200000812],[-82.6077600001592,35.5628400001522]]},"properties":{"Id":715082,"CommonName":"South Bear Creek Road","Reason":"The road is closed near Sand Hill Road","Condition":"Road Closed","BridgeInvolved":"no","StartDateET":"10/4/2024"}},{"type":"Feature","geometry":{"type":"LineString","coordinates":[[-82.608869999879,35.5648099997556],[-82.608239999991,35.5646100003812],[-82.6079200003141,35.5643599998948],[-82.6077599996636,35.5641899996708],[-82.607560000332,35.5639700000944],[-82.6076200002148,35.5636200000812],[-82.6077600001592,35.5628400001522]]},"properties":{"Id":715082,"CommonName":"South Bear Creek Road","Reason":"The road is closed near Sand Hill Road","Condition":"Road Closed","BridgeInvolved":"no","StartDateET":"10/4/2024"}},{"type":"Feature","geometry":{"type":"LineString","coordinates":[[-82.5730999998797,35.5893200002251],[-82.5727600001184,35.5892500002291],[-82.5723000002105,35.5893200003168],[-82.5705999996637,35.5898599998067]]},"properties":{"Id":715076,"CommonName":"Craven St","Reason":"The road is closed near Riverside Dr.","Condition":"Road Closed","BridgeInvolved":"no","StartDateET":"10/4/2024"}},{"type":"Feature","geometry":{"type":"LineString","coordinates":[[-82.4817600003763,35.6336999997712],[-82.4816899999097,35.6342299997143],[-82.4819900000212,35.6347700002174],[-82.4820200003717,35.6351200002412],[-82.4814799997547,35.6355599996722],[-82.4810599997118,35.6358200001786]]},"properties":{"Id":715080,"CommonName":"Wendy Lane","Reason":"The road is closed near Ashley Road","Condition":"Road Closed","BridgeInvolved":"no","StartDateET":"10/4/2024"}},{"type":"Feature","geometry":{"type":"LineString","coordinates":[[-82.608869999879,35.5648099997556],[-82.608239999991,35.5646100003812],[-82.6079200003141,35.5643599998948],[-82.6077599996636,35.5641899996708],[-82.607560000332,35.5639700000944],[-82.6076200002148,35.5636200000812],[-82.6077600001592,35.5628400001522]]},"properties":{"Id":715082,"CommonName":"South Bear Creek Road","Reason":"The road is closed near Sand Hill Road","Condition":"Road Closed","BridgeInvolved":"no","StartDateET":"10/4/2024"}},{"type":"Feature","geometry":{"type":"LineString","coordinates":[[-82.5351000000203,35.5488999997384],[-82.5342599996065,35.5495299997902],[-82.5333799996711,35.5502100004454],[-82.5328899996275,35.5505499999317],[-82.5325699998631,35.5510100002684],[-82.5324599998627,35.551219999933],[-82.5311999994557,35.551249999936],[-82.5296399998007,35.5509499996242],[-82.5283299996043,35.550479999982],[-82.5272500001023,35.550219999877],[-82.5267199999027,35.5501200004268],[-82.5265400002771,35.5499000003759],[-82.5263100004943,35.5496800000405],[-82.5253699998895,35.5494599997737]]},"properties":{"Id":713394,"CommonName":"West Chapel Road","Reason":"West Chapel Road is closed between US 25/Hendersonville Road and US 25-Alt/Sweeten Creek Road, due to flooding.","Condition":"Road Closed","BridgeInvolved":"no","StartDateET":"9/26/2024"}},{"type":"Feature","geometry":{"type":"LineString","coordinates":[[-82.4817600003763,35.6336999997712],[-82.4816899999097,35.6342299997143],[-82.4819900000212,35.6347700002174],[-82.4820200003717,35.6351200002412],[-82.4814799997547,35.6355599996722],[-82.4810599997118,35.6358200001786]]},"properties":{"Id":715080,"CommonName":"Wendy Lane","Reason":"The road is closed near Ashley Road","Condition":"Road Closed","BridgeInvolved":"no","StartDateET":"10/4/2024"}},{"type":"Feature","geometry":{"type":"LineString","coordinates":[[-82.608869999879,35.5648099997556],[-82.608239999991,35.5646100003812],[-82.6079200003141,35.5643599998948],[-82.6077599996636,35.5641899996708],[-82.607560000332,35.5639700000944],[-82.6076200002148,35.5636200000812],[-82.6077600001592,35.5628400001522]]},"properties":{"Id":715082,"CommonName":"South Bear Creek Road","Reason":"The road is closed near Sand Hill Road","Condition":"Road Closed","BridgeInvolved":"no","StartDateET":"10/4/2024"}},{"type":"Feature","geometry":{"type":"LineString","coordinates":[[-82.5547900001848,35.4085300003802],[-82.5535999999409,35.408519999578],[-82.553100000487,35.4085600002618],[-82.5526500000399,35.4084899996657],[-82.5521400001534,35.4082699996189],[-82.5515900001283,35.4079500000135],[-82.551069999985,35.4076300003254],[-82.5507499996986,35.4074700003608],[-82.5504699998359,35.4074700000969],[-82.5501200001444,35.407599999858],[-82.5498600005647,35.4077200003946],[-82.5485299997131,35.4087000003698],[-82.5482999998456,35.4086999995594],[-82.5477799999999,35.4085199996771],[-82.5471000004114,35.4082100002332],[-82.5458400000086,35.4075500003253],[-82.545110000557,35.4071700001973],[-82.5447499994642,35.4068899995774],[-82.5439499995485,35.4061800004487],[-82.5435400004758,35.4058900001629],[-82.54329999952,35.4057399996431],[-82.543100000503,35.4057000001023],[-82.5428000004644,35.4058500001271],[-82.5423099995483,35.4061300001594],[-82.5420200004392,35.4063899998761],[-82.541550000103,35.4067699996042],[-82.5411799996525,35.4068299998791],[-82.5399700000271,35.4069600000687],[-82.5388999998165,35.4070699997775],[-82.538089999616,35.4071299997013],[-82.5371600003515,35.4071400000758],[-82.5346600004931,35.4070799996765],[-82.5315800004045,35.4069299996112],[-82.5306400001001,35.40688000013],[-82.5301000002665,35.4068199997299],[-82.5296699995376,35.4066299996569],[-82.5292300002021,35.4064000003217],[-82.5285999997668,35.4061299998799],[-82.5281799998196,35.4061300002966],[-82.5277300005185,35.406250000132],[-82.527309999742,35.4065399999389],[-82.526909999804,35.4069300004133],[-82.526539999677,35.4070399997291],[-82.5255100000957,35.4072999999132],[-82.524640000257,35.4076099997298],[-82.5243599994435,35.4075599998012],[-82.523269999753,35.4072099997742],[-82.5225999995826,35.4070199997439],[-82.5214900001253,35.4070299996523],[-82.5203299996904,35.4069199998018],[-82.5195599995387,35.4067800001578],[-82.5189900003578,35.406589999931],[-82.5184200000076,35.4064399999754],[-82.5179100003183,35.406380000183],[-82.5173700004626,35.4061999998973],[-82.5167299997834,35.4059900002517],[-82.5158799994755,35.4058600001773],[-82.5156600002914,35.4059299999955]]},"properties":{"Id":713353,"CommonName":"Butler Bridge Road","Reason":"The road is closed between NC 280, Boylston Highway and I-26.","Condition":"Road Closed","BridgeInvolved":"no","StartDateET":"9/26/2024"}},{"type":"Feature","geometry":{"type":"LineString","coordinates":[[-82.4817600003763,35.6336999997712],[-82.4816899999097,35.6342299997143],[-82.4819900000212,35.6347700002174],[-82.4820200003717,35.6351200002412],[-82.4814799997547,35.6355599996722],[-82.4810599997118,35.6358200001786]]},"properties":{"Id":715080,"CommonName":"Wendy Lane","Reason":"The road is closed near Ashley Road","Condition":"Road Closed","BridgeInvolved":"no","StartDateET":"10/4/2024"}},{"type":"Feature","geometry":{"type":"LineString","coordinates":[[-82.608869999879,35.5648099997556],[-82.608239999991,35.5646100003812],[-82.6079200003141,35.5643599998948],[-82.6077599996636,35.5641899996708],[-82.607560000332,35.5639700000944],[-82.6076200002148,35.5636200000812],[-82.6077600001592,35.5628400001522]]},"properties":{"Id":715082,"CommonName":"South Bear Creek Road","Reason":"The road is closed near Sand Hill Road","Condition":"Road Closed","BridgeInvolved":"no","StartDateET":"10/4/2024"}},{"type":"Feature","geometry":{"type":"LineString","coordinates":[[-82.608869999879,35.5648099997556],[-82.608239999991,35.5646100003812],[-82.6079200003141,35.5643599998948],[-82.6077599996636,35.5641899996708],[-82.607560000332,35.5639700000944],[-82.6076200002148,35.5636200000812],[-82.6077600001592,35.5628400001522]]},"properties":{"Id":715082,"CommonName":"South Bear Creek Road","Reason":"The road is closed near Sand Hill Road","Condition":"Road Closed","BridgeInvolved":"no","StartDateET":"10/4/2024"}},{"type":"Feature","geometry":{"type":"LineString","coordinates":[[-82.608869999879,35.5648099997556],[-82.608239999991,35.5646100003812],[-82.6079200003141,35.5643599998948],[-82.6077599996636,35.5641899996708],[-82.607560000332,35.5639700000944],[-82.6076200002148,35.5636200000812],[-82.6077600001592,35.5628400001522]]},"properties":{"Id":715082,"CommonName":"South Bear Creek Road","Reason":"The road is closed near Sand Hill Road","Condition":"Road Closed","BridgeInvolved":"no","StartDateET":"10/4/2024"}},{"type":"Feature","geometry":{"type":"LineString","coordinates":[[-82.4817600003763,35.6336999997712],[-82.4816899999097,35.6342299997143],[-82.4819900000212,35.6347700002174],[-82.4820200003717,35.6351200002412],[-82.4814799997547,35.6355599996722],[-82.4810599997118,35.6358200001786]]},"properties":{"Id":715080,"CommonName":"Wendy Lane","Reason":"The road is closed near Ashley Road","Condition":"Road Closed","BridgeInvolved":"no","StartDateET":"10/4/2024"}},{"type":"Feature","geometry":{"type":"LineString","coordinates":[[-82.4817600003763,35.6336999997712],[-82.4816899999097,35.6342299997143],[-82.4819900000212,35.6347700002174],[-82.4820200003717,35.6351200002412],[-82.4814799997547,35.6355599996722],[-82.4810599997118,35.6358200001786]]},"properties":{"Id":715080,"CommonName":"Wendy Lane","Reason":"The road is closed near Ashley Road","Condition":"Road Closed","BridgeInvolved":"no","StartDateET":"10/4/2024"}},{"type":"Feature","geometry":{"type":"LineString","coordinates":[[-82.5020899996194,35.6024500000921],[-82.5017999994551,35.6037499999559],[-82.5016999997549,35.6044600000397],[-82.5016400003963,35.6050800002937],[-82.5021499999393,35.6072399998245],[-82.5021399996221,35.6076199998052],[-82.5019900001038,35.6079499997159],[-82.5015500001629,35.6084899996557],[-82.501109999721,35.608910000404],[-82.5011399998612,35.6091899999247],[-82.5016799999337,35.6108499999709]]},"properties":{"Id":714411,"CommonName":"New Haw Creek Rd","Reason":"The road is closed near Sleepy Hollow Dr due to weather-related damage.","Condition":"Road Closed","BridgeInvolved":"no","StartDateET":"10/1/2024"}},{"type":"Feature","geometry":{"type":"LineString","coordinates":[[-82.608869999879,35.5648099997556],[-82.608239999991,35.5646100003812],[-82.6079200003141,35.5643599998948],[-82.6077599996636,35.5641899996708],[-82.607560000332,35.5639700000944],[-82.6076200002148,35.5636200000812],[-82.6077600001592,35.5628400001522]]},"properties":{"Id":715082,"CommonName":"South Bear Creek Road","Reason":"The road is closed near Sand Hill Road","Condition":"Road Closed","BridgeInvolved":"no","StartDateET":"10/4/2024"}},{"type":"Feature","geometry":{"type":"LineString","coordinates":[[-82.4817600003763,35.6336999997712],[-82.4816899999097,35.6342299997143],[-82.4819900000212,35.6347700002174],[-82.4820200003717,35.6351200002412],[-82.4814799997547,35.6355599996722],[-82.4810599997118,35.6358200001786]]},"properties":{"Id":715080,"CommonName":"Wendy Lane","Reason":"The road is closed near Ashley Road","Condition":"Road Closed","BridgeInvolved":"no","StartDateET":"10/4/2024"}},{"type":"Feature","geometry":{"type":"LineString","coordinates":[[-82.4817600003763,35.6336999997712],[-82.4816899999097,35.6342299997143],[-82.4819900000212,35.6347700002174],[-82.4820200003717,35.6351200002412],[-82.4814799997547,35.6355599996722],[-82.4810599997118,35.6358200001786]]},"properties":{"Id":715080,"CommonName":"Wendy Lane","Reason":"The road is closed near Ashley Road","Condition":"Road Closed","BridgeInvolved":"no","StartDateET":"10/4/2024"}},{"type":"Feature","geometry":{"type":"LineString","coordinates":[[-82.5199900000117,35.5776100003543],[-82.5196099998553,35.5772499999469],[-82.5192400002982,35.5768899999885]]},"properties":{"Id":714368,"CommonName":"Wood Ave","Reason":"The bridge over Swannanoa River is closed due to storm-related damage. ","Condition":"Road Closed","BridgeInvolved":"no","StartDateET":"10/1/2024"}},{"type":"Feature","geometry":{"type":"LineString","coordinates":[[-82.608869999879,35.5648099997556],[-82.608239999991,35.5646100003812],[-82.6079200003141,35.5643599998948],[-82.6077599996636,35.5641899996708],[-82.607560000332,35.5639700000944],[-82.6076200002148,35.5636200000812],[-82.6077600001592,35.5628400001522]]},"properties":{"Id":715082,"CommonName":"South Bear Creek Road","Reason":"The road is closed near Sand Hill Road","Condition":"Road Closed","BridgeInvolved":"no","StartDateET":"10/4/2024"}},{"type":"Feature","geometry":{"type":"LineString","coordinates":[[-82.5557199995477,35.426370000017],[-82.5552600000949,35.4267400002757],[-82.554110000225,35.4276900003923],[-82.5529200002499,35.4286900001046],[-82.5525899998652,35.4289399999314],[-82.5520599997806,35.429279999834],[-82.5517700005321,35.4294600002815],[-82.5512599998421,35.4297000003241],[-82.5507400003848,35.4298400004161],[-82.5501699994893,35.4299000003981],[-82.5497500001045,35.4298999997558],[-82.5492099994924,35.4297899995898],[-82.5478100003958,35.4295599999193],[-82.5471199996186,35.4294099995896],[-82.5457300003357,35.4290199998368]]},"properties":{"Id":714669,"CommonName":"Old Fanning Bridge Rd","Reason":"The road is closed near Butler Farm Rd.","Condition":"Road Closed","BridgeInvolved":"no","StartDateET":"10/2/2024"}},{"type":"Feature","geometry":{"type":"LineString","coordinates":[[-82.608869999879,35.5648099997556],[-82.608239999991,35.5646100003812],[-82.6079200003141,35.5643599998948],[-82.6077599996636,35.5641899996708],[-82.607560000332,35.5639700000944],[-82.6076200002148,35.5636200000812],[-82.6077600001592,35.5628400001522]]},"properties":{"Id":715082,"CommonName":"South Bear Creek Road","Reason":"The road is closed near Sand Hill Road","Condition":"Road Closed","BridgeInvolved":"no","StartDateET":"10/4/2024"}},{"type":"Feature","geometry":{"type":"LineString","coordinates":[[-82.5967100003187,35.563900000314],[-82.5968000003344,35.563669999987],[-82.5969499995085,35.5634699996386],[-82.5970700002297,35.5632199999022],[-82.5970599999942,35.5630299998944],[-82.5968899995036,35.5626400001585],[-82.5966900005193,35.5621800001345],[-82.5966599999279,35.5618700004362],[-82.5969100001494,35.5613399995627],[-82.5972000001214,35.5606800002671],[-82.597279999633,35.5602099997818],[-82.596699999909,35.5587800002128],[-82.5953000001136,35.5574700001157],[-82.5940099995068,35.5562099999052],[-82.5911000002447,35.5546100000044]]},"properties":{"Id":713610,"CommonName":"Hominy Creek Road","Reason":"The road is closed near Shelburne Road.","Condition":"Road Closed","BridgeInvolved":"no","StartDateET":"9/27/2024"}},{"type":"Feature","geometry":{"type":"LineString","coordinates":[[-82.608869999879,35.5648099997556],[-82.608239999991,35.5646100003812],[-82.6079200003141,35.5643599998948],[-82.6077599996636,35.5641899996708],[-82.607560000332,35.5639700000944],[-82.6076200002148,35.5636200000812],[-82.6077600001592,35.5628400001522]]},"properties":{"Id":715082,"CommonName":"South Bear Creek Road","Reason":"The road is closed near Sand Hill Road","Condition":"Road Closed","BridgeInvolved":"no","StartDateET":"10/4/2024"}},{"type":"Feature","geometry":{"type":"LineString","coordinates":[[-82.4817600003763,35.6336999997712],[-82.4816899999097,35.6342299997143],[-82.4819900000212,35.6347700002174],[-82.4820200003717,35.6351200002412],[-82.4814799997547,35.6355599996722],[-82.4810599997118,35.6358200001786]]},"properties":{"Id":715080,"CommonName":"Wendy Lane","Reason":"The road is closed near Ashley Road","Condition":"Road Closed","BridgeInvolved":"no","StartDateET":"10/4/2024"}},{"type":"Feature","geometry":{"type":"LineString","coordinates":[[-82.608869999879,35.5648099997556],[-82.608239999991,35.5646100003812],[-82.6079200003141,35.5643599998948],[-82.6077599996636,35.5641899996708],[-82.607560000332,35.5639700000944],[-82.6076200002148,35.5636200000812],[-82.6077600001592,35.5628400001522]]},"properties":{"Id":715082,"CommonName":"South Bear Creek Road","Reason":"The road is closed near Sand Hill Road","Condition":"Road Closed","BridgeInvolved":"no","StartDateET":"10/4/2024"}},{"type":"Feature","geometry":{"type":"LineString","coordinates":[[-82.4817600003763,35.6336999997712],[-82.4816899999097,35.6342299997143],[-82.4819900000212,35.6347700002174],[-82.4820200003717,35.6351200002412],[-82.4814799997547,35.6355599996722],[-82.4810599997118,35.6358200001786]]},"properties":{"Id":715080,"CommonName":"Wendy Lane","Reason":"The road is closed near Ashley Road","Condition":"Road Closed","BridgeInvolved":"no","StartDateET":"10/4/2024"}},{"type":"Feature","geometry":{"type":"LineString","coordinates":[[-82.608869999879,35.5648099997556],[-82.608239999991,35.5646100003812],[-82.6079200003141,35.5643599998948],[-82.6077599996636,35.5641899996708],[-82.607560000332,35.5639700000944],[-82.6076200002148,35.5636200000812],[-82.6077600001592,35.5628400001522]]},"properties":{"Id":715082,"CommonName":"South Bear Creek Road","Reason":"The road is closed near Sand Hill Road","Condition":"Road Closed","BridgeInvolved":"no","StartDateET":"10/4/2024"}},{"type":"Feature","geometry":{"type":"LineString","coordinates":[[-82.608869999879,35.5648099997556],[-82.608239999991,35.5646100003812],[-82.6079200003141,35.5643599998948],[-82.6077599996636,35.5641899996708],[-82.607560000332,35.5639700000944],[-82.6076200002148,35.5636200000812],[-82.6077600001592,35.5628400001522]]},"properties":{"Id":715082,"CommonName":"South Bear Creek Road","Reason":"The road is closed near Sand Hill Road","Condition":"Road Closed","BridgeInvolved":"no","StartDateET":"10/4/2024"}},{"type":"Feature","geometry":{"type":"LineString","coordinates":[[-82.4817600003763,35.6336999997712],[-82.4816899999097,35.6342299997143],[-82.4819900000212,35.6347700002174],[-82.4820200003717,35.6351200002412],[-82.4814799997547,35.6355599996722],[-82.4810599997118,35.6358200001786]]},"properties":{"Id":715080,"CommonName":"Wendy Lane","Reason":"The road is closed near Ashley Road","Condition":"Road Closed","BridgeInvolved":"no","StartDateET":"10/4/2024"}},{"type":"Feature","geometry":{"type":"LineString","coordinates":[[-82.4817600003763,35.6336999997712],[-82.4816899999097,35.6342299997143],[-82.4819900000212,35.6347700002174],[-82.4820200003717,35.6351200002412],[-82.4814799997547,35.6355599996722],[-82.4810599997118,35.6358200001786]]},"properties":{"Id":715080,"CommonName":"Wendy Lane","Reason":"The road is closed near Ashley Road","Condition":"Road Closed","BridgeInvolved":"no","StartDateET":"10/4/2024"}},{"type":"Feature","geometry":{"type":"LineString","coordinates":[[-82.608869999879,35.5648099997556],[-82.608239999991,35.5646100003812],[-82.6079200003141,35.5643599998948],[-82.6077599996636,35.5641899996708],[-82.607560000332,35.5639700000944],[-82.6076200002148,35.5636200000812],[-82.6077600001592,35.5628400001522]]},"properties":{"Id":715082,"CommonName":"South Bear Creek Road","Reason":"The road is closed near Sand Hill Road","Condition":"Road Closed","BridgeInvolved":"no","StartDateET":"10/4/2024"}},{"type":"Feature","geometry":{"type":"LineString","coordinates":[[-82.4817600003763,35.6336999997712],[-82.4816899999097,35.6342299997143],[-82.4819900000212,35.6347700002174],[-82.4820200003717,35.6351200002412],[-82.4814799997547,35.6355599996722],[-82.4810599997118,35.6358200001786]]},"properties":{"Id":715080,"CommonName":"Wendy Lane","Reason":"The road is closed near Ashley Road","Condition":"Road Closed","BridgeInvolved":"no","StartDateET":"10/4/2024"}},{"type":"Feature","geometry":{"type":"LineString","coordinates":[[-82.4788499995839,35.5765599997064],[-82.4786600003935,35.5760800001877]]},"properties":{"Id":714367,"CommonName":"Hardesty Ln","Reason":"The bridge over Swannanoa River is closed due to storm-related damage. ","Condition":"Road Closed","BridgeInvolved":"no","StartDateET":"10/1/2024"}},{"type":"Feature","geometry":{"type":"LineString","coordinates":[[-82.4817600003763,35.6336999997712],[-82.4816899999097,35.6342299997143],[-82.4819900000212,35.6347700002174],[-82.4820200003717,35.6351200002412],[-82.4814799997547,35.6355599996722],[-82.4810599997118,35.6358200001786]]},"properties":{"Id":715080,"CommonName":"Wendy Lane","Reason":"The road is closed near Ashley Road","Condition":"Road Closed","BridgeInvolved":"no","StartDateET":"10/4/2024"}},{"type":"Feature","geometry":{"type":"LineString","coordinates":[[-82.608869999879,35.5648099997556],[-82.608239999991,35.5646100003812],[-82.6079200003141,35.5643599998948],[-82.6077599996636,35.5641899996708],[-82.607560000332,35.5639700000944],[-82.6076200002148,35.5636200000812],[-82.6077600001592,35.5628400001522]]},"properties":{"Id":715082,"CommonName":"South Bear Creek Road","Reason":"The road is closed near Sand Hill Road","Condition":"Road Closed","BridgeInvolved":"no","StartDateET":"10/4/2024"}},{"type":"Feature","geometry":{"type":"LineString","coordinates":[[-82.4817600003763,35.6336999997712],[-82.4816899999097,35.6342299997143],[-82.4819900000212,35.6347700002174],[-82.4820200003717,35.6351200002412],[-82.4814799997547,35.6355599996722],[-82.4810599997118,35.6358200001786]]},"properties":{"Id":715080,"CommonName":"Wendy Lane","Reason":"The road is closed near Ashley Road","Condition":"Road Closed","BridgeInvolved":"no","StartDateET":"10/4/2024"}},{"type":"Feature","geometry":{"type":"LineString","coordinates":[[-82.608869999879,35.5648099997556],[-82.608239999991,35.5646100003812],[-82.6079200003141,35.5643599998948],[-82.6077599996636,35.5641899996708],[-82.607560000332,35.5639700000944],[-82.6076200002148,35.5636200000812],[-82.6077600001592,35.5628400001522]]},"properties":{"Id":715082,"CommonName":"South Bear Creek Road","Reason":"The road is closed near Sand Hill Road","Condition":"Road Closed","BridgeInvolved":"no","StartDateET":"10/4/2024"}},{"type":"Feature","geometry":{"type":"LineString","coordinates":[[-82.608869999879,35.5648099997556],[-82.608239999991,35.5646100003812],[-82.6079200003141,35.5643599998948],[-82.6077599996636,35.5641899996708],[-82.607560000332,35.5639700000944],[-82.6076200002148,35.5636200000812],[-82.6077600001592,35.5628400001522]]},"properties":{"Id":715082,"CommonName":"South Bear Creek Road","Reason":"The road is closed near Sand Hill Road","Condition":"Road Closed","BridgeInvolved":"no","StartDateET":"10/4/2024"}},{"type":"Feature","geometry":{"type":"LineString","coordinates":[[-82.608869999879,35.5648099997556],[-82.608239999991,35.5646100003812],[-82.6079200003141,35.5643599998948],[-82.6077599996636,35.5641899996708],[-82.607560000332,35.5639700000944],[-82.6076200002148,35.5636200000812],[-82.6077600001592,35.5628400001522]]},"properties":{"Id":715082,"CommonName":"South Bear Creek Road","Reason":"The road is closed near Sand Hill Road","Condition":"Road Closed","BridgeInvolved":"no","StartDateET":"10/4/2024"}},{"type":"Feature","geometry":{"type":"LineString","coordinates":[[-82.4817600003763,35.6336999997712],[-82.4816899999097,35.6342299997143],[-82.4819900000212,35.6347700002174],[-82.4820200003717,35.6351200002412],[-82.4814799997547,35.6355599996722],[-82.4810599997118,35.6358200001786]]},"properties":{"Id":715080,"CommonName":"Wendy Lane","Reason":"The road is closed near Ashley Road","Condition":"Road Closed","BridgeInvolved":"no","StartDateET":"10/4/2024"}},{"type":"Feature","geometry":{"type":"LineString","coordinates":[[-82.4817600003763,35.6336999997712],[-82.4816899999097,35.6342299997143],[-82.4819900000212,35.6347700002174],[-82.4820200003717,35.6351200002412],[-82.4814799997547,35.6355599996722],[-82.4810599997118,35.6358200001786]]},"properties":{"Id":715080,"CommonName":"Wendy Lane","Reason":"The road is closed near Ashley Road","Condition":"Road Closed","BridgeInvolved":"no","StartDateET":"10/4/2024"}},{"type":"Feature","geometry":{"type":"LineString","coordinates":[[-82.4817600003763,35.6336999997712],[-82.4816899999097,35.6342299997143],[-82.4819900000212,35.6347700002174],[-82.4820200003717,35.6351200002412],[-82.4814799997547,35.6355599996722],[-82.4810599997118,35.6358200001786]]},"properties":{"Id":715080,"CommonName":"Wendy Lane","Reason":"The road is closed near Ashley Road","Condition":"Road Closed","BridgeInvolved":"no","StartDateET":"10/4/2024"}},{"type":"Feature","geometry":{"type":"LineString","coordinates":[[-82.608869999879,35.5648099997556],[-82.608239999991,35.5646100003812],[-82.6079200003141,35.5643599998948],[-82.6077599996636,35.5641899996708],[-82.607560000332,35.5639700000944],[-82.6076200002148,35.5636200000812],[-82.6077600001592,35.5628400001522]]},"properties":{"Id":715082,"CommonName":"South Bear Creek Road","Reason":"The road is closed near Sand Hill Road","Condition":"Road Closed","BridgeInvolved":"no","StartDateET":"10/4/2024"}},{"type":"Feature","geometry":{"type":"LineString","coordinates":[[-82.5026199996394,35.5745599997194],[-82.5020699996327,35.573659999639]]},"properties":{"Id":714371,"CommonName":"Fairview Road","Reason":"The bridge over Swannanoa River is closed due to storm-related damage. ","Condition":"Road Closed","BridgeInvolved":"no","StartDateET":"10/1/2024"}},{"type":"Feature","geometry":{"type":"LineString","coordinates":[[-82.4945199995231,35.5849499999478],[-82.4950800003587,35.5841700004214],[-82.4949799997769,35.5830300002663],[-82.4946099998787,35.5819200001376],[-82.4948699999319,35.5814799995564],[-82.4955500000954,35.5807499998861],[-82.4967800004716,35.5794599996374],[-82.4978499998612,35.5783400003949]]},"properties":{"Id":713311,"CommonName":"Swannanoa River Road","Reason":"The road is closed near Azalea Road.","Condition":"Road Closed","BridgeInvolved":"no","StartDateET":"9/26/2024"}},{"type":"Feature","geometry":{"type":"LineString","coordinates":[[-82.4995600004937,35.4203700001896],[-82.4993399995607,35.4212600004449],[-82.4993199999044,35.4218200004453],[-82.49940000008,35.4223400003686],[-82.4994700003748,35.4226099996709],[-82.499860000323,35.4239500003661],[-82.5006500002702,35.4251300001989],[-82.501009999714,35.4261199997266],[-82.5013100002922,35.4275699995845],[-82.5014799998514,35.4278500000072],[-82.5016899996954,35.4280100002625]]},"properties":{"Id":713282,"CommonName":"Howard Gap Road","Reason":"The road is impassable between Jackson Road and US 25.","Condition":"Road Impassable","BridgeInvolved":"no","StartDateET":"9/25/2024"}},{"type":"Feature","geometry":{"type":"LineString","coordinates":[[-82.4917599999879,35.5807999997593],[-82.49093999999,35.5801700001353]]},"properties":{"Id":714373,"CommonName":"Azalea Rd","Reason":"The bridge over Swannanoa River is closed due to storm-related damage.  ","Condition":"Road Closed","BridgeInvolved":"no","StartDateET":"10/1/2024"}},{"type":"Feature","geometry":{"type":"LineString","coordinates":[[-82.4817600003763,35.6336999997712],[-82.4816899999097,35.6342299997143],[-82.4819900000212,35.6347700002174],[-82.4820200003717,35.6351200002412],[-82.4814799997547,35.6355599996722],[-82.4810599997118,35.6358200001786]]},"properties":{"Id":715080,"CommonName":"Wendy Lane","Reason":"The road is closed near Ashley Road","Condition":"Road Closed","BridgeInvolved":"no","StartDateET":"10/4/2024"}},{"type":"Feature","geometry":{"type":"LineString","coordinates":[[-82.608869999879,35.5648099997556],[-82.608239999991,35.5646100003812],[-82.6079200003141,35.5643599998948],[-82.6077599996636,35.5641899996708],[-82.607560000332,35.5639700000944],[-82.6076200002148,35.5636200000812],[-82.6077600001592,35.5628400001522]]},"properties":{"Id":715082,"CommonName":"South Bear Creek Road","Reason":"The road is closed near Sand Hill Road","Condition":"Road Closed","BridgeInvolved":"no","StartDateET":"10/4/2024"}},{"type":"Feature","geometry":{"type":"LineString","coordinates":[[-82.608869999879,35.5648099997556],[-82.608239999991,35.5646100003812],[-82.6079200003141,35.5643599998948],[-82.6077599996636,35.5641899996708],[-82.607560000332,35.5639700000944],[-82.6076200002148,35.5636200000812],[-82.6077600001592,35.5628400001522]]},"properties":{"Id":715082,"CommonName":"South Bear Creek Road","Reason":"The road is closed near Sand Hill Road","Condition":"Road Closed","BridgeInvolved":"no","StartDateET":"10/4/2024"}},{"type":"Feature","geometry":{"type":"LineString","coordinates":[[-82.4817600003763,35.6336999997712],[-82.4816899999097,35.6342299997143],[-82.4819900000212,35.6347700002174],[-82.4820200003717,35.6351200002412],[-82.4814799997547,35.6355599996722],[-82.4810599997118,35.6358200001786]]},"properties":{"Id":715080,"CommonName":"Wendy Lane","Reason":"The road is closed near Ashley Road","Condition":"Road Closed","BridgeInvolved":"no","StartDateET":"10/4/2024"}},{"type":"Feature","geometry":{"type":"LineString","coordinates":[[-82.4656100001493,35.5837000004288],[-82.4650599995278,35.5837599996888]]},"properties":{"Id":714653,"CommonName":"Tunnel Road","Reason":"The road is closed between River Knoll Drive and Moffitt Branch Road.  ","Condition":"Road Closed","BridgeInvolved":"no","StartDateET":"10/2/2024"}},{"type":"Feature","geometry":{"type":"LineString","coordinates":[[-82.4817600003763,35.6336999997712],[-82.4816899999097,35.6342299997143],[-82.4819900000212,35.6347700002174],[-82.4820200003717,35.6351200002412],[-82.4814799997547,35.6355599996722],[-82.4810599997118,35.6358200001786]]},"properties":{"Id":715080,"CommonName":"Wendy Lane","Reason":"The road is closed near Ashley Road","Condition":"Road Closed","BridgeInvolved":"no","StartDateET":"10/4/2024"}},{"type":"Feature","geometry":{"type":"LineString","coordinates":[[-82.608869999879,35.5648099997556],[-82.608239999991,35.5646100003812],[-82.6079200003141,35.5643599998948],[-82.6077599996636,35.5641899996708],[-82.607560000332,35.5639700000944],[-82.6076200002148,35.5636200000812],[-82.6077600001592,35.5628400001522]]},"properties":{"Id":715082,"CommonName":"South Bear Creek Road","Reason":"The road is closed near Sand Hill Road","Condition":"Road Closed","BridgeInvolved":"no","StartDateET":"10/4/2024"}},{"type":"Feature","geometry":{"type":"LineString","coordinates":[[-82.4817600003763,35.6336999997712],[-82.4816899999097,35.6342299997143],[-82.4819900000212,35.6347700002174],[-82.4820200003717,35.6351200002412],[-82.4814799997547,35.6355599996722],[-82.4810599997118,35.6358200001786]]},"properties":{"Id":715080,"CommonName":"Wendy Lane","Reason":"The road is closed near Ashley Road","Condition":"Road Closed","BridgeInvolved":"no","StartDateET":"10/4/2024"}},{"type":"Feature","geometry":{"type":"LineString","coordinates":[[-82.608869999879,35.5648099997556],[-82.608239999991,35.5646100003812],[-82.6079200003141,35.5643599998948],[-82.6077599996636,35.5641899996708],[-82.607560000332,35.5639700000944],[-82.6076200002148,35.5636200000812],[-82.6077600001592,35.5628400001522]]},"properties":{"Id":715082,"CommonName":"South Bear Creek Road","Reason":"The road is closed near Sand Hill Road","Condition":"Road Closed","BridgeInvolved":"no","StartDateET":"10/4/2024"}},{"type":"Feature","geometry":{"type":"LineString","coordinates":[[-82.4817600003763,35.6336999997712],[-82.4816899999097,35.6342299997143],[-82.4819900000212,35.6347700002174],[-82.4820200003717,35.6351200002412],[-82.4814799997547,35.6355599996722],[-82.4810599997118,35.6358200001786]]},"properties":{"Id":715080,"CommonName":"Wendy Lane","Reason":"The road is closed near Ashley Road","Condition":"Road Closed","BridgeInvolved":"no","StartDateET":"10/4/2024"}},{"type":"Feature","geometry":{"type":"LineString","coordinates":[[-82.608869999879,35.5648099997556],[-82.608239999991,35.5646100003812],[-82.6079200003141,35.5643599998948],[-82.6077599996636,35.5641899996708],[-82.607560000332,35.5639700000944],[-82.6076200002148,35.5636200000812],[-82.6077600001592,35.5628400001522]]},"properties":{"Id":715082,"CommonName":"South Bear Creek Road","Reason":"The road is closed near Sand Hill Road","Condition":"Road Closed","BridgeInvolved":"no","StartDateET":"10/4/2024"}},{"type":"Feature","geometry":{"type":"LineString","coordinates":[[-82.4817600003763,35.6336999997712],[-82.4816899999097,35.6342299997143],[-82.4819900000212,35.6347700002174],[-82.4820200003717,35.6351200002412],[-82.4814799997547,35.6355599996722],[-82.4810599997118,35.6358200001786]]},"properties":{"Id":715080,"CommonName":"Wendy Lane","Reason":"The road is closed near Ashley Road","Condition":"Road Closed","BridgeInvolved":"no","StartDateET":"10/4/2024"}},{"type":"Feature","geometry":{"type":"LineString","coordinates":[[-82.608869999879,35.5648099997556],[-82.608239999991,35.5646100003812],[-82.6079200003141,35.5643599998948],[-82.6077599996636,35.5641899996708],[-82.607560000332,35.5639700000944],[-82.6076200002148,35.5636200000812],[-82.6077600001592,35.5628400001522]]},"properties":{"Id":715082,"CommonName":"South Bear Creek Road","Reason":"The road is closed near Sand Hill Road","Condition":"Road Closed","BridgeInvolved":"no","StartDateET":"10/4/2024"}},{"type":"Feature","geometry":{"type":"LineString","coordinates":[[-82.4817600003763,35.6336999997712],[-82.4816899999097,35.6342299997143],[-82.4819900000212,35.6347700002174],[-82.4820200003717,35.6351200002412],[-82.4814799997547,35.6355599996722],[-82.4810599997118,35.6358200001786]]},"properties":{"Id":715080,"CommonName":"Wendy Lane","Reason":"The road is closed near Ashley Road","Condition":"Road Closed","BridgeInvolved":"no","StartDateET":"10/4/2024"}},{"type":"Feature","geometry":{"type":"LineString","coordinates":[[-82.588050000075,35.5661799998076],[-82.587649999959,35.5663199999131],[-82.5873700003441,35.5664099996899],[-82.5870399999337,35.5664899996724],[-82.5866200003903,35.5665799998467],[-82.5861399999765,35.566669999742],[-82.5856000000799,35.5667500000565],[-82.584900000016,35.5668100003176]]},"properties":{"Id":713448,"CommonName":"","Reason":"The ramp is closed to Exit 1C, Amboy Rd.","Condition":"Ramp Closed","BridgeInvolved":"no","StartDateET":"9/26/2024"}},{"type":"Feature","geometry":{"type":"LineString","coordinates":[[-82.608869999879,35.5648099997556],[-82.608239999991,35.5646100003812],[-82.6079200003141,35.5643599998948],[-82.6077599996636,35.5641899996708],[-82.607560000332,35.5639700000944],[-82.6076200002148,35.5636200000812],[-82.6077600001592,35.5628400001522]]},"properties":{"Id":715082,"CommonName":"South Bear Creek Road","Reason":"The road is closed near Sand Hill Road","Condition":"Road Closed","BridgeInvolved":"no","StartDateET":"10/4/2024"}},{"type":"Feature","geometry":{"type":"LineString","coordinates":[[-82.5884999995403,35.5659700003588],[-82.5876400000298,35.5663499996455],[-82.5857200001547,35.5667500000115],[-82.5837099999915,35.5668700000122],[-82.5816700002706,35.5668799998131],[-82.5825899996663,35.5670799999317],[-82.5849900003733,35.5675500001479],[-82.5856699998629,35.5676000003888],[-82.5849699995704,35.5675400003187],[-82.5810899998585,35.5667900003428],[-82.5802300001427,35.566650000024],[-82.5784900000081,35.5664599999667],[-82.5759800003544,35.5663899995489],[-82.5742699996187,35.566559999868],[-82.5714099997295,35.5670399997482],[-82.5696100000339,35.5674500004379],[-82.566640000291,35.5679799998535],[-82.5655899995916,35.5682700002013],[-82.5646700002558,35.5686800004282],[-82.5641399995301,35.5688099999859],[-82.56287000043,35.5686899995724]]},"properties":{"Id":713307,"CommonName":"Amboy Road","Reason":"Amboy Road is closed between I-240 and Meadow Road, due to flooding.","Condition":"Road Closed","BridgeInvolved":"no","StartDateET":"9/26/2024"}},{"type":"Feature","geometry":{"type":"LineString","coordinates":[[-82.608869999879,35.5648099997556],[-82.608239999991,35.5646100003812],[-82.6079200003141,35.5643599998948],[-82.6077599996636,35.5641899996708],[-82.607560000332,35.5639700000944],[-82.6076200002148,35.5636200000812],[-82.6077600001592,35.5628400001522]]},"properties":{"Id":715082,"CommonName":"South Bear Creek Road","Reason":"The road is closed near Sand Hill Road","Condition":"Road Closed","BridgeInvolved":"no","StartDateET":"10/4/2024"}},{"type":"Feature","geometry":{"type":"LineString","coordinates":[[-82.4817600003763,35.6336999997712],[-82.4816899999097,35.6342299997143],[-82.4819900000212,35.6347700002174],[-82.4820200003717,35.6351200002412],[-82.4814799997547,35.6355599996722],[-82.4810599997118,35.6358200001786]]},"properties":{"Id":715080,"CommonName":"Wendy Lane","Reason":"The road is closed near Ashley Road","Condition":"Road Closed","BridgeInvolved":"no","StartDateET":"10/4/2024"}},{"type":"Feature","geometry":{"type":"LineString","coordinates":[[-82.608869999879,35.5648099997556],[-82.608239999991,35.5646100003812],[-82.6079200003141,35.5643599998948],[-82.6077599996636,35.5641899996708],[-82.607560000332,35.5639700000944],[-82.6076200002148,35.5636200000812],[-82.6077600001592,35.5628400001522]]},"properties":{"Id":715082,"CommonName":"South Bear Creek Road","Reason":"The road is closed near Sand Hill Road","Condition":"Road Closed","BridgeInvolved":"no","StartDateET":"10/4/2024"}},{"type":"Feature","geometry":{"type":"LineString","coordinates":[[-82.4846300001442,35.4740099996418],[-82.4828900003771,35.4715099998304],[-82.4822899997032,35.4698899996168],[-82.4821999998793,35.4679799998335],[-82.4820800003059,35.4658899995726],[-82.481989999795,35.464460000112],[-82.481669999841,35.4634300004446],[-82.4807500000048,35.4622600003348],[-82.4799699998333,35.4610199998574],[-82.4798699998763,35.459339999941],[-82.4800399997355,35.4576799998201],[-82.4796299997279,35.4567899999013],[-82.4788800004698,35.4557399997844]]},"properties":{"Id":713301,"CommonName":"Mills Gap Road","Reason":"The road is closed near Lower Christ School Road.","Condition":"Road Closed","BridgeInvolved":"no","StartDateET":"9/26/2024"}},{"type":"Feature","geometry":{"type":"LineString","coordinates":[[-82.4817600003763,35.6336999997712],[-82.4816899999097,35.6342299997143],[-82.4819900000212,35.6347700002174],[-82.4820200003717,35.6351200002412],[-82.4814799997547,35.6355599996722],[-82.4810599997118,35.6358200001786]]},"properties":{"Id":715080,"CommonName":"Wendy Lane","Reason":"The road is closed near Ashley Road","Condition":"Road Closed","BridgeInvolved":"no","StartDateET":"10/4/2024"}},{"type":"Feature","geometry":{"type":"LineString","coordinates":[[-82.4817600003763,35.6336999997712],[-82.4816899999097,35.6342299997143],[-82.4819900000212,35.6347700002174],[-82.4820200003717,35.6351200002412],[-82.4814799997547,35.6355599996722],[-82.4810599997118,35.6358200001786]]},"properties":{"Id":715080,"CommonName":"Wendy Lane","Reason":"The road is closed near Ashley Road","Condition":"Road Closed","BridgeInvolved":"no","StartDateET":"10/4/2024"}},{"type":"Feature","geometry":{"type":"LineString","coordinates":[[-82.608869999879,35.5648099997556],[-82.608239999991,35.5646100003812],[-82.6079200003141,35.5643599998948],[-82.6077599996636,35.5641899996708],[-82.607560000332,35.5639700000944],[-82.6076200002148,35.5636200000812],[-82.6077600001592,35.5628400001522]]},"properties":{"Id":715082,"CommonName":"South Bear Creek Road","Reason":"The road is closed near Sand Hill Road","Condition":"Road Closed","BridgeInvolved":"no","StartDateET":"10/4/2024"}},{"type":"Feature","geometry":{"type":"LineString","coordinates":[[-82.4817600003763,35.6336999997712],[-82.4816899999097,35.6342299997143],[-82.4819900000212,35.6347700002174],[-82.4820200003717,35.6351200002412],[-82.4814799997547,35.6355599996722],[-82.4810599997118,35.6358200001786]]},"properties":{"Id":715080,"CommonName":"Wendy Lane","Reason":"The road is closed near Ashley Road","Condition":"Road Closed","BridgeInvolved":"no","StartDateET":"10/4/2024"}},{"type":"Feature","geometry":{"type":"LineString","coordinates":[[-82.608869999879,35.5648099997556],[-82.608239999991,35.5646100003812],[-82.6079200003141,35.5643599998948],[-82.6077599996636,35.5641899996708],[-82.607560000332,35.5639700000944],[-82.6076200002148,35.5636200000812],[-82.6077600001592,35.5628400001522]]},"properties":{"Id":715082,"CommonName":"South Bear Creek Road","Reason":"The road is closed near Sand Hill Road","Condition":"Road Closed","BridgeInvolved":"no","StartDateET":"10/4/2024"}},{"type":"Feature","geometry":{"type":"LineString","coordinates":[[-82.5992700001375,35.5893499997704],[-82.5992400004673,35.5889699999506],[-82.5991399995356,35.5886300000214],[-82.5990300003914,35.5884400000567],[-82.5988299997477,35.5881200002355],[-82.5987200001064,35.5879600001376],[-82.5986800003984,35.5877099995421],[-82.5987199999735,35.5875999996271],[-82.5987299999382,35.5873799998465],[-82.5989000001823,35.5872599995969],[-82.5991800004118,35.5870899997938],[-82.599559999759,35.5869300004017],[-82.6001000002811,35.5867199997421],[-82.6009299997695,35.5863400001254]]},"properties":{"Id":713428,"CommonName":"Druid Road","Reason":"The road is closed between NC 63, New Leicester Highway and Laurel Loop.","Condition":"Road Closed","BridgeInvolved":"no","StartDateET":"9/26/2024"}},{"type":"Feature","geometry":{"type":"LineString","coordinates":[[-82.4817600003763,35.6336999997712],[-82.4816899999097,35.6342299997143],[-82.4819900000212,35.6347700002174],[-82.4820200003717,35.6351200002412],[-82.4814799997547,35.6355599996722],[-82.4810599997118,35.6358200001786]]},"properties":{"Id":715080,"CommonName":"Wendy Lane","Reason":"The road is closed near Ashley Road","Condition":"Road Closed","BridgeInvolved":"no","StartDateET":"10/4/2024"}},{"type":"Feature","geometry":{"type":"LineString","coordinates":[[-82.4817600003763,35.6336999997712],[-82.4816899999097,35.6342299997143],[-82.4819900000212,35.6347700002174],[-82.4820200003717,35.6351200002412],[-82.4814799997547,35.6355599996722],[-82.4810599997118,35.6358200001786]]},"properties":{"Id":715080,"CommonName":"Wendy Lane","Reason":"The road is closed near Ashley Road","Condition":"Road Closed","BridgeInvolved":"no","StartDateET":"10/4/2024"}},{"type":"Feature","geometry":{"type":"LineString","coordinates":[[-82.4817600003763,35.6336999997712],[-82.4816899999097,35.6342299997143],[-82.4819900000212,35.6347700002174],[-82.4820200003717,35.6351200002412],[-82.4814799997547,35.6355599996722],[-82.4810599997118,35.6358200001786]]},"properties":{"Id":715080,"CommonName":"Wendy Lane","Reason":"The road is closed near Ashley Road","Condition":"Road Closed","BridgeInvolved":"no","StartDateET":"10/4/2024"}},{"type":"Feature","geometry":{"type":"LineString","coordinates":[[-82.5626900004397,35.4489200000028],[-82.5622100001343,35.4494999996125],[-82.5617799999231,35.4498499997003],[-82.5609899997144,35.4502000003899],[-82.5603899994795,35.4503799998014],[-82.5597000002337,35.4505900003978],[-82.5588800002112,35.4507600000107],[-82.5584599998054,35.4509699996925],[-82.5579799995388,35.4512000004016],[-82.5572200004981,35.451509999747],[-82.5568200001147,35.4516700004067],[-82.5556099998239,35.4518300001058],[-82.5549199995439,35.4518400002923],[-82.5543199996421,35.451869999917],[-82.5537199998515,35.4519799997595],[-82.5527900003379,35.4522400004026],[-82.5521499999238,35.4524300001637],[-82.551320000159,35.4528699997069],[-82.5508299994809,35.4534000002281],[-82.550540000146,35.4541200002649],[-82.5501099995754,35.4548399999676]]},"properties":{"Id":713392,"CommonName":"Glenn Bridge Road","Reason":"The road is closed near Glenn Bridge Road SE.","Condition":"Road Closed","BridgeInvolved":"no","StartDateET":"9/26/2024"}},{"type":"Feature","geometry":{"type":"LineString","coordinates":[[-82.608869999879,35.5648099997556],[-82.608239999991,35.5646100003812],[-82.6079200003141,35.5643599998948],[-82.6077599996636,35.5641899996708],[-82.607560000332,35.5639700000944],[-82.6076200002148,35.5636200000812],[-82.6077600001592,35.5628400001522]]},"properties":{"Id":715082,"CommonName":"South Bear Creek Road","Reason":"The road is closed near Sand Hill Road","Condition":"Road Closed","BridgeInvolved":"no","StartDateET":"10/4/2024"}},{"type":"Feature","geometry":{"type":"LineString","coordinates":[[-82.608869999879,35.5648099997556],[-82.608239999991,35.5646100003812],[-82.6079200003141,35.5643599998948],[-82.6077599996636,35.5641899996708],[-82.607560000332,35.5639700000944],[-82.6076200002148,35.5636200000812],[-82.6077600001592,35.5628400001522]]},"properties":{"Id":715082,"CommonName":"South Bear Creek Road","Reason":"The road is closed near Sand Hill Road","Condition":"Road Closed","BridgeInvolved":"no","StartDateET":"10/4/2024"}},{"type":"Feature","geometry":{"type":"LineString","coordinates":[[-82.4817600003763,35.6336999997712],[-82.4816899999097,35.6342299997143],[-82.4819900000212,35.6347700002174],[-82.4820200003717,35.6351200002412],[-82.4814799997547,35.6355599996722],[-82.4810599997118,35.6358200001786]]},"properties":{"Id":715080,"CommonName":"Wendy Lane","Reason":"The road is closed near Ashley Road","Condition":"Road Closed","BridgeInvolved":"no","StartDateET":"10/4/2024"}},{"type":"Feature","geometry":{"type":"LineString","coordinates":[[-82.4817600003763,35.6336999997712],[-82.4816899999097,35.6342299997143],[-82.4819900000212,35.6347700002174],[-82.4820200003717,35.6351200002412],[-82.4814799997547,35.6355599996722],[-82.4810599997118,35.6358200001786]]},"properties":{"Id":715080,"CommonName":"Wendy Lane","Reason":"The road is closed near Ashley Road","Condition":"Road Closed","BridgeInvolved":"no","StartDateET":"10/4/2024"}},{"type":"Feature","geometry":{"type":"LineString","coordinates":[[-82.4933899995223,35.5821899998984],[-82.4931300003457,35.5814699997812]]},"properties":{"Id":714372,"CommonName":"Gashes Creek Rd","Reason":"The bridge over Swannanoa River is closed due to storm-related damage.  ","Condition":"Road Closed","BridgeInvolved":"no","StartDateET":"10/1/2024"}},{"type":"Feature","geometry":{"type":"LineString","coordinates":[[-82.4817600003763,35.6336999997712],[-82.4816899999097,35.6342299997143],[-82.4819900000212,35.6347700002174],[-82.4820200003717,35.6351200002412],[-82.4814799997547,35.6355599996722],[-82.4810599997118,35.6358200001786]]},"properties":{"Id":715080,"CommonName":"Wendy Lane","Reason":"The road is closed near Ashley Road","Condition":"Road Closed","BridgeInvolved":"no","StartDateET":"10/4/2024"}},{"type":"Feature","geometry":{"type":"LineString","coordinates":[[-82.4817600003763,35.6336999997712],[-82.4816899999097,35.6342299997143],[-82.4819900000212,35.6347700002174],[-82.4820200003717,35.6351200002412],[-82.4814799997547,35.6355599996722],[-82.4810599997118,35.6358200001786]]},"properties":{"Id":715080,"CommonName":"Wendy Lane","Reason":"The road is closed near Ashley Road","Condition":"Road Closed","BridgeInvolved":"no","StartDateET":"10/4/2024"}},{"type":"Feature","geometry":{"type":"LineString","coordinates":[[-82.608869999879,35.5648099997556],[-82.608239999991,35.5646100003812],[-82.6079200003141,35.5643599998948],[-82.6077599996636,35.5641899996708],[-82.607560000332,35.5639700000944],[-82.6076200002148,35.5636200000812],[-82.6077600001592,35.5628400001522]]},"properties":{"Id":715082,"CommonName":"South Bear Creek Road","Reason":"The road is closed near Sand Hill Road","Condition":"Road Closed","BridgeInvolved":"no","StartDateET":"10/4/2024"}},{"type":"Feature","geometry":{"type":"LineString","coordinates":[[-82.4817600003763,35.6336999997712],[-82.4816899999097,35.6342299997143],[-82.4819900000212,35.6347700002174],[-82.4820200003717,35.6351200002412],[-82.4814799997547,35.6355599996722],[-82.4810599997118,35.6358200001786]]},"properties":{"Id":715080,"CommonName":"Wendy Lane","Reason":"The road is closed near Ashley Road","Condition":"Road Closed","BridgeInvolved":"no","StartDateET":"10/4/2024"}},{"type":"Feature","geometry":{"type":"LineString","coordinates":[[-82.608869999879,35.5648099997556],[-82.608239999991,35.5646100003812],[-82.6079200003141,35.5643599998948],[-82.6077599996636,35.5641899996708],[-82.607560000332,35.5639700000944],[-82.6076200002148,35.5636200000812],[-82.6077600001592,35.5628400001522]]},"properties":{"Id":715082,"CommonName":"South Bear Creek Road","Reason":"The road is closed near Sand Hill Road","Condition":"Road Closed","BridgeInvolved":"no","StartDateET":"10/4/2024"}},{"type":"Feature","geometry":{"type":"LineString","coordinates":[[-82.4817600003763,35.6336999997712],[-82.4816899999097,35.6342299997143],[-82.4819900000212,35.6347700002174],[-82.4820200003717,35.6351200002412],[-82.4814799997547,35.6355599996722],[-82.4810599997118,35.6358200001786]]},"properties":{"Id":715080,"CommonName":"Wendy Lane","Reason":"The road is closed near Ashley Road","Condition":"Road Closed","BridgeInvolved":"no","StartDateET":"10/4/2024"}},{"type":"Feature","geometry":{"type":"LineString","coordinates":[[-82.5201700004247,35.5776199999034],[-82.5205100004856,35.5773299998366],[-82.5212000004747,35.5770299995908],[-82.5221900001516,35.5766700003276],[-82.5228099999336,35.5766299998288],[-82.5235200004104,35.576639999672],[-82.5243199995479,35.5767499997817],[-82.5249600000567,35.576789999562],[-82.5254800002075,35.5765999996668],[-82.5257400000583,35.5761099996083],[-82.526069999928,35.5753699996705],[-82.5262900002232,35.5748399998156],[-82.5271499995686,35.5739400004148],[-82.5281800003318,35.5733800001153],[-82.529600000479,35.5726000003632],[-82.5303600004703,35.5721500000169],[-82.5316299997354,35.5721199999853],[-82.533300000485,35.5721600004356],[-82.5341499998002,35.5722000001345],[-82.5358200000205,35.5716600003919],[-82.537499999524,35.5710299999499],[-82.5394799997835,35.570069999616],[-82.5404499996174,35.569850000284],[-82.5415499997461,35.5696999998631],[-82.5425499996497,35.5694000000912],[-82.543570000253,35.5691299996384],[-82.5443399999927,35.5690099998574]]},"properties":{"Id":713306,"CommonName":"Swannanoa River Road","Reason":"The road is closed between US 74 Alternate (South Tunnel Road) and Biltmore Avenue.","Condition":"Road Closed","BridgeInvolved":"no","StartDateET":"9/26/2024"}},{"type":"Feature","geometry":{"type":"LineString","coordinates":[[-82.608869999879,35.5648099997556],[-82.608239999991,35.5646100003812],[-82.6079200003141,35.5643599998948],[-82.6077599996636,35.5641899996708],[-82.607560000332,35.5639700000944],[-82.6076200002148,35.5636200000812],[-82.6077600001592,35.5628400001522]]},"properties":{"Id":715082,"CommonName":"South Bear Creek Road","Reason":"The road is closed near Sand Hill Road","Condition":"Road Closed","BridgeInvolved":"no","StartDateET":"10/4/2024"}},{"type":"Feature","geometry":{"type":"LineString","coordinates":[[-82.5055600001892,35.4586300000675],[-82.5047000003965,35.4582399998528],[-82.5036199996982,35.4577199998834],[-82.502949999765,35.4571400001362],[-82.5019700000693,35.4560800002292],[-82.501090000272,35.4551300003895],[-82.5002199995112,35.4548100000474],[-82.4970099997302,35.4541300001318],[-82.4962600004104,35.4540900000356],[-82.4956299998456,35.4542199998148],[-82.4950300003309,35.45414000033],[-82.4944299998875,35.4535900002357],[-82.4936099997905,35.4529199998105],[-82.4927700005247,35.452419999668],[-82.4921300001828,35.4520899999533],[-82.4908599998647,35.4519899995849],[-82.4881999995664,35.4518500004056]]},"properties":{"Id":713346,"CommonName":"Baldwin Road","Reason":"The road is closed between Christ School Road and Lower Christ School Road.","Condition":"Road Closed","BridgeInvolved":"no","StartDateET":"9/26/2024"}},{"type":"Feature","geometry":{"type":"LineString","coordinates":[[-82.608869999879,35.5648099997556],[-82.608239999991,35.5646100003812],[-82.6079200003141,35.5643599998948],[-82.6077599996636,35.5641899996708],[-82.607560000332,35.5639700000944],[-82.6076200002148,35.5636200000812],[-82.6077600001592,35.5628400001522]]},"properties":{"Id":715082,"CommonName":"South Bear Creek Road","Reason":"The road is closed near Sand Hill Road","Condition":"Road Closed","BridgeInvolved":"no","StartDateET":"10/4/2024"}},{"type":"Feature","geometry":{"type":"LineString","coordinates":[[-82.544579999637,35.5670700000282],[-82.5451300002577,35.5675899998651],[-82.5476299999044,35.5686999999266],[-82.5497099995141,35.5696399995761]]},"properties":{"Id":714900,"CommonName":"McDowell Street","Reason":"The road is closed at Lodge Street.","Condition":"Ramp Closed","BridgeInvolved":"no","StartDateET":"10/3/2024"}}]}