{
"type": "FeatureCollection",
"name": "pois",
"crs": { "type": "name", "properties": { "name": "urn:ogc:def:crs:OGC:1.3:CRS84" } },
"features": [
{ "type": "Feature", "properties": { "osm_id": "node/357766954", "name": "A C Reynolds High School", "amenity": "school", "wheelchair": null, "emergency": null, "address": null }, "geometry": { "type": "Point", "coordinates": [ -82.4773437, 35.5478923 ] } },
{ "type": "Feature", "properties": { "osm_id": "node/357770580", "name": "Christ School", "amenity": "school", "wheelchair": null, "emergency": null, "address": null }, "geometry": { "type": "Point", "coordinates": [ -82.4876201, 35.4648376 ] } },
{ "type": "Feature", "properties": { "osm_id": "node/357780742", "name": "Oak Forest Church", "amenity": "place_of_worship", "wheelchair": null, "emergency": null, "address": null }, "geometry": { "type": "Point", "coordinates": [ -82.473453, 35.4242827 ] } },
{ "type": "Feature", "properties": { "osm_id": "node/357781217", "name": "Old Salem Church", "amenity": "place_of_worship", "wheelchair": null, "emergency": null, "address": null }, "geometry": { "type": "Point", "coordinates": [ -82.4978982, 35.4378933 ] } },
{ "type": "Feature", "properties": { "osm_id": "node/357782332", "name": "Pisgah View Church", "amenity": "place_of_worship", "wheelchair": null, "emergency": null, "address": null }, "geometry": { "type": "Point", "coordinates": [ -82.639295, 35.5778877 ] } },
{ "type": "Feature", "properties": { "osm_id": "node/357784059", "name": "Rose Hill Church", "amenity": "place_of_worship", "wheelchair": null, "emergency": null, "address": null }, "geometry": { "type": "Point", "coordinates": [ -82.4769225, 35.5444712 ] } },
{ "type": "Feature", "properties": { "osm_id": "node/357789641", "name": "Woodland Terrace Church", "amenity": "place_of_worship", "wheelchair": null, "emergency": null, "address": null }, "geometry": { "type": "Point", "coordinates": [ -82.6326281, 35.5773323 ] } },
{ "type": "Feature", "properties": { "osm_id": "node/357798955", "name": "Sand Hill Primary School", "amenity": "school", "wheelchair": null, "emergency": null, "address": null }, "geometry": { "type": "Point", "coordinates": [ -82.6393329, 35.5539232 ] } },
{ "type": "Feature", "properties": { "osm_id": "node/357798958", "name": "A C Reynolds Middle School", "amenity": "school", "wheelchair": null, "emergency": null, "address": null }, "geometry": { "type": "Point", "coordinates": [ -82.486510900000013, 35.5537253 ] } },
{ "type": "Feature", "properties": { "osm_id": "node/357800578", "name": "Antioch Church", "amenity": "place_of_worship", "wheelchair": null, "emergency": null, "address": null }, "geometry": { "type": "Point", "coordinates": [ -82.5009578, 35.609002 ] } },
{ "type": "Feature", "properties": { "osm_id": "node/357800607", "name": "Asheville School", "amenity": "school", "wheelchair": null, "emergency": null, "address": null }, "geometry": { "type": "Point", "coordinates": [ -82.6229052, 35.5656661 ] } },
{ "type": "Feature", "properties": { "osm_id": "node/357800614", "name": "Aycock School", "amenity": "school", "wheelchair": null, "emergency": null, "address": null }, "geometry": { "type": "Point", "coordinates": [ -82.5820906, 35.578962 ] } },
{ "type": "Feature", "properties": { "osm_id": "node/357800723", "name": "Ben Lippen School", "amenity": "school", "wheelchair": null, "emergency": null, "address": null }, "geometry": { "type": "Point", "coordinates": [ -82.6165175, 35.6098323 ] } },
{ "type": "Feature", "properties": { "osm_id": "node/357800929", "name": "Brickton Church", "amenity": "place_of_worship", "wheelchair": null, "emergency": null, "address": null }, "geometry": { "type": "Point", "coordinates": [ -82.5028983, 35.4126158 ] } },
{ "type": "Feature", "properties": { "osm_id": "node/357800949", "name": "Brooklyn Church", "amenity": "place_of_worship", "wheelchair": null, "emergency": null, "address": null }, "geometry": { "type": "Point", "coordinates": [ -82.5298457, 35.5520576 ] } },
{ "type": "Feature", "properties": { "osm_id": "node/357801089", "name": "Calvary Church", "amenity": "place_of_worship", "wheelchair": null, "emergency": null, "address": null }, "geometry": { "type": "Point", "coordinates": [ -82.5042872, 35.4431709 ] } },
{ "type": "Feature", "properties": { "osm_id": "node/357801595", "name": "Eliada Home for Children", "amenity": "school", "wheelchair": null, "emergency": null, "address": null }, "geometry": { "type": "Point", "coordinates": [ -82.6187394, 35.6001102 ] } },
{ "type": "Feature", "properties": { "osm_id": "node/357801648", "name": "Fairmount Church", "amenity": "place_of_worship", "wheelchair": null, "emergency": null, "address": null }, "geometry": { "type": "Point", "coordinates": [ -82.5348465, 35.5692795 ] } },
{ "type": "Feature", "properties": { "osm_id": "node/357802505", "name": "Lutheridge Chapel", "amenity": "place_of_worship", "wheelchair": null, "emergency": null, "address": null }, "geometry": { "type": "Point", "coordinates": [ -82.5165613, 35.456442299999985 ] } },
{ "type": "Feature", "properties": { "osm_id": "node/357802721", "name": "Mount Gilead Church", "amenity": "place_of_worship", "wheelchair": null, "emergency": null, "address": null }, "geometry": { "type": "Point", "coordinates": [ -82.5723634, 35.4109277 ] } },
{ "type": "Feature", "properties": { "osm_id": "node/357802757", "name": "Mount Olive Church", "amenity": "place_of_worship", "wheelchair": null, "emergency": null, "address": null }, "geometry": { "type": "Point", "coordinates": [ -82.5142919, 35.6190015 ] } },
{ "type": "Feature", "properties": { "osm_id": "node/357802953", "name": "Oak Grove Church", "amenity": "place_of_worship", "wheelchair": null, "emergency": null, "address": null }, "geometry": { "type": "Point", "coordinates": [ -82.600124, 35.455668399999986 ] } },
{ "type": "Feature", "properties": { "osm_id": "node/357803472", "name": "Rock Hill Church", "amenity": "place_of_worship", "wheelchair": null, "emergency": null, "address": null }, "geometry": { "type": "Point", "coordinates": [ -82.525401, 35.54733550000001 ] } },
{ "type": "Feature", "properties": { "osm_id": "node/357803548", "name": "Saint Marks Church", "amenity": "place_of_worship", "wheelchair": null, "emergency": null, "address": null }, "geometry": { "type": "Point", "coordinates": [ -82.543458200000018, 35.578168 ] } },
{ "type": "Feature", "properties": { "osm_id": "node/357803821", "name": "Sweeten Creek Church", "amenity": "place_of_worship", "wheelchair": null, "emergency": null, "address": null }, "geometry": { "type": "Point", "coordinates": [ -82.5195671, 35.5409469 ] } },
{ "type": "Feature", "properties": { "osm_id": "node/357805225", "name": "Venable Elementary School", "amenity": "school", "wheelchair": null, "emergency": null, "address": null }, "geometry": { "type": "Point", "coordinates": [ -82.6062397, 35.6223324 ] } },
{ "type": "Feature", "properties": { "osm_id": "node/357805236", "name": "Lucy B Herring Elementary School", "amenity": "school", "wheelchair": null, "emergency": null, "address": null }, "geometry": { "type": "Point", "coordinates": [ -82.5421683, 35.5972117 ] } },
{ "type": "Feature", "properties": { "osm_id": "node/357810105", "name": "CarePartners Rehabilitation Hospital", "amenity": "hospital", "wheelchair": "yes", "emergency": "no", "address": "68 Sweeten Creek Road" }, "geometry": { "type": "Point", "coordinates": [ -82.5314618, 35.5620193 ] } },
{ "type": "Feature", "properties": { "osm_id": "node/357813192", "name": "Asheville-Buncombe Technical Community College", "amenity": "college", "wheelchair": "yes", "emergency": null, "address": null }, "geometry": { "type": "Point", "coordinates": [ -82.555557, 35.5707505 ] } },
{ "type": "Feature", "properties": { "osm_id": "node/3488038586", "name": "Station 10", "amenity": "fire_station", "wheelchair": null, "emergency": null, "address": "1903 Old Haywood Road" }, "geometry": { "type": "Point", "coordinates": [ -82.633702, 35.56470310000001 ] } },
{ "type": "Feature", "properties": { "osm_id": "node/3809905357", "name": "Asheville Middle School", "amenity": "school", "wheelchair": null, "emergency": null, "address": null }, "geometry": { "type": "Point", "coordinates": [ -82.5611292, 35.5865461 ] } },
{ "type": "Feature", "properties": { "osm_id": "node/4401697590", "name": "Fletcher United Methodist Church", "amenity": "place_of_worship", "wheelchair": null, "emergency": null, "address": "50 Library Road" }, "geometry": { "type": "Point", "coordinates": [ -82.503385, 35.4350984 ] } },
{ "type": "Feature", "properties": { "osm_id": "node/5826071743", "name": "Skyland Fire Rescue", "amenity": "fire_station", "wheelchair": null, "emergency": null, "address": null }, "geometry": { "type": "Point", "coordinates": [ -82.5240496, 35.4846403 ] } },
{ "type": "Feature", "properties": { "osm_id": "node/6419914647", "name": "Oakley - Asheville Fire Station 9", "amenity": "fire_station", "wheelchair": null, "emergency": null, "address": "749 Fairview Road" }, "geometry": { "type": "Point", "coordinates": [ -82.5135038, 35.5643133 ] } },
{ "type": "Feature", "properties": { "osm_id": "node/6543649168", "name": "Givens Estates Chapel", "amenity": "place_of_worship", "wheelchair": null, "emergency": null, "address": null }, "geometry": { "type": "Point", "coordinates": [ -82.5134878, 35.5064146 ] } },
{ "type": "Feature", "properties": { "osm_id": "node/6957805170", "name": "Old Buncombe County Genealogical Society & Library", "amenity": "library", "wheelchair": null, "emergency": null, "address": "128 Bingham Road" }, "geometry": { "type": "Point", "coordinates": [ -82.5867887, 35.6061634 ] } },
{ "type": "Feature", "properties": { "osm_id": "node/7041132913", "name": "Western Carolina University", "amenity": "university", "wheelchair": null, "emergency": null, "address": null }, "geometry": { "type": "Point", "coordinates": [ -82.554163, 35.4849993 ] } },
{ "type": "Feature", "properties": { "osm_id": "node/7907009906", "name": "Biltmore Forest Town Hall", "amenity": "townhall", "wheelchair": null, "emergency": null, "address": "355 Vanderbilt Road" }, "geometry": { "type": "Point", "coordinates": [ -82.536954, 35.5405062 ] } },
{ "type": "Feature", "properties": { "osm_id": "node/10204074817", "name": "Aaron Baptist Church", "amenity": "place_of_worship", "wheelchair": null, "emergency": null, "address": "266 View Street" }, "geometry": { "type": "Point", "coordinates": [ -82.6099538, 35.6075264 ] } },
{ "type": "Feature", "properties": { "osm_id": "node/10285187259", "name": "Blue Ridge Taekwondo of East Asheville", "amenity": "school", "wheelchair": null, "emergency": null, "address": "1298 Tunnel Road" }, "geometry": { "type": "Point", "coordinates": [ -82.4711532, 35.5846344 ] } },
{ "type": "Feature", "properties": { "osm_id": "node/10795376859", "name": "Asheville United Christian Church", "amenity": "place_of_worship", "wheelchair": null, "emergency": null, "address": "10 Roberts Street" }, "geometry": { "type": "Point", "coordinates": [ -82.5688416, 35.5904393 ] } },
{ "type": "Feature", "properties": { "osm_id": "node/10951112294", "name": "Arden Seventh Day Adventist Church", "amenity": "place_of_worship", "wheelchair": null, "emergency": null, "address": null }, "geometry": { "type": "Point", "coordinates": [ -82.5178253, 35.4582562 ] } },
{ "type": "Feature", "properties": { "osm_id": "node/11181679971", "name": "Parkway Baptist Church", "amenity": "place_of_worship", "wheelchair": null, "emergency": null, "address": null }, "geometry": { "type": "Point", "coordinates": [ -82.4949963, 35.5900452 ] } },
{ "type": "Feature", "properties": { "osm_id": "node/11229514748", "name": "Crossroads Church", "amenity": "place_of_worship", "wheelchair": null, "emergency": null, "address": "20 South Bear Creek Road" }, "geometry": { "type": "Point", "coordinates": [ -82.6066531, 35.5633451 ] } },
{ "type": "Feature", "properties": { "osm_id": "node/11459775914", "name": "Avery's Creek Community Center", "amenity": "community_centre", "wheelchair": null, "emergency": null, "address": null }, "geometry": { "type": "Point", "coordinates": [ -82.5743103, 35.4637721 ] } },
{ "type": "Feature", "properties": { "osm_id": "node/11459775915", "name": "Avery's Creek Fire Station", "amenity": "fire_station", "wheelchair": null, "emergency": null, "address": null }, "geometry": { "type": "Point", "coordinates": [ -82.5740501, 35.4637961 ] } },
{ "type": "Feature", "properties": { "osm_id": "node/11466238993", "name": "River of Life", "amenity": "place_of_worship", "wheelchair": null, "emergency": null, "address": null }, "geometry": { "type": "Point", "coordinates": [ -82.5964278, 35.5794875 ] } },
{ "type": "Feature", "properties": { "osm_id": "node/11466239035", "name": "Grace Baptist Church", "amenity": "place_of_worship", "wheelchair": null, "emergency": null, "address": null }, "geometry": { "type": "Point", "coordinates": [ -82.5923483, 35.5773179 ] } },
{ "type": "Feature", "properties": { "osm_id": "node/11466239039", "name": "Calvary Baptist Church", "amenity": "place_of_worship", "wheelchair": null, "emergency": null, "address": null }, "geometry": { "type": "Point", "coordinates": [ -82.5852404, 35.5788565 ] } },
{ "type": "Feature", "properties": { "osm_id": "node/11878760914", "name": "The Heights City Church", "amenity": "place_of_worship", "wheelchair": null, "emergency": null, "address": null }, "geometry": { "type": "Point", "coordinates": [ -82.5142904, 35.4587631 ] } },
{ "type": "Feature", "properties": { "osm_id": "node/12214152879", "name": "Fletcher First Baptist Church", "amenity": "place_of_worship", "wheelchair": null, "emergency": null, "address": null }, "geometry": { "type": "Point", "coordinates": [ -82.5018078, 35.4357887 ] } },
{ "type": "Feature", "properties": { "osm_id": "relation/8064560", "name": "Arden Presbyterian Church", "amenity": "place_of_worship", "wheelchair": null, "emergency": null, "address": "2215 Hendersonville Rd" }, "geometry": { "type": "Point", "coordinates": [ -82.524594939077176, 35.476458250423924 ] } },
{ "type": "Feature", "properties": { "osm_id": "relation/12147874", "name": "Biltmore Church", "amenity": "place_of_worship", "wheelchair": null, "emergency": null, "address": null }, "geometry": { "type": "Point", "coordinates": [ -82.567564903553446, 35.488499157254672 ] } },
{ "type": "Feature", "properties": { "osm_id": "relation/12147886", "name": "Grace Fellowship Baptist Church", "amenity": "place_of_worship", "wheelchair": null, "emergency": null, "address": null }, "geometry": { "type": "Point", "coordinates": [ -82.566623247115089, 35.477512750234681 ] } },
{ "type": "Feature", "properties": { "osm_id": "relation/17043379", "name": "Aston Park Health Care Center, Inc.", "amenity": "social_facility", "wheelchair": "yes", "emergency": null, "address": "380 Brevard Road" }, "geometry": { "type": "Point", "coordinates": [ -82.595619871322427, 35.561441588384362 ] } },
{ "type": "Feature", "properties": { "osm_id": "way/205858867", "name": "University of North Carolina - Asheville", "amenity": "university", "wheelchair": "limited", "emergency": null, "address": null }, "geometry": { "type": "Point", "coordinates": [ -82.567621011095582, 35.616378293463029 ] } },
{ "type": "Feature", "properties": { "osm_id": "way/237310442", "name": "Don C. Locke Library", "amenity": "library", "wheelchair": "yes", "emergency": null, "address": "15 Tech Drive" }, "geometry": { "type": "Point", "coordinates": [ -82.554967336390831, 35.570571659619709 ] } },
{ "type": "Feature", "properties": { "osm_id": "way/237757090", "name": "Pack Memorial Library", "amenity": "library", "wheelchair": null, "emergency": null, "address": "67 Haywood Street" }, "geometry": { "type": "Point", "coordinates": [ -82.554752904867129, 35.596751350735587 ] } },
{ "type": "Feature", "properties": { "osm_id": "way/265785269", "name": "Fire Station 8", "amenity": "fire_station", "wheelchair": null, "emergency": null, "address": "904 Tunnel Road" }, "geometry": { "type": "Point", "coordinates": [ -82.502882249361775, 35.587718550138881 ] } },
{ "type": "Feature", "properties": { "osm_id": "way/268938418", "name": "Oteen Baptist Church", "amenity": "place_of_worship", "wheelchair": null, "emergency": null, "address": "37 Oteen Church Road" }, "geometry": { "type": "Point", "coordinates": [ -82.486453050511443, 35.584863025930474 ] } },
{ "type": "Feature", "properties": { "osm_id": "way/268938420", "name": "Groce Methodist Church", "amenity": "place_of_worship", "wheelchair": null, "emergency": null, "address": null }, "geometry": { "type": "Point", "coordinates": [ -82.500541062069203, 35.58977891161193 ] } },
{ "type": "Feature", "properties": { "osm_id": "way/268951531", "name": "Azalea Church", "amenity": "place_of_worship", "wheelchair": null, "emergency": null, "address": null }, "geometry": { "type": "Point", "coordinates": [ -82.46566000059417, 35.582996314755398 ] } },
{ "type": "Feature", "properties": { "osm_id": "way/287712159", "name": "Asheville Fire Station", "amenity": "fire_station", "wheelchair": null, "emergency": null, "address": "7 Rocky Ridge Road" }, "geometry": { "type": "Point", "coordinates": [ -82.604798755295434, 35.53415290019047 ] } },
{ "type": "Feature", "properties": { "osm_id": "way/287713997", "name": "Sardis United Methodist Church", "amenity": "place_of_worship", "wheelchair": null, "emergency": null, "address": null }, "geometry": { "type": "Point", "coordinates": [ -82.607261266421361, 35.527259452534587 ] } },
{ "type": "Feature", "properties": { "osm_id": "way/311361797", "name": "Arthur R. Edington Education and Career Center", "amenity": "community_centre", "wheelchair": null, "emergency": null, "address": "133 Livingston Street" }, "geometry": { "type": "Point", "coordinates": [ -82.557171293566824, 35.577918178847455 ] } },
{ "type": "Feature", "properties": { "osm_id": "way/311363592", "name": "Dr. Wesley Grant Sr. Southside Center", "amenity": "community_centre", "wheelchair": null, "emergency": null, "address": "285 Livingston Street" }, "geometry": { "type": "Point", "coordinates": [ -82.562204123657054, 35.577986417611712 ] } },
{ "type": "Feature", "properties": { "osm_id": "way/328388337", "name": "Riverside Church", "amenity": "place_of_worship", "wheelchair": null, "emergency": null, "address": null }, "geometry": { "type": "Point", "coordinates": [ -82.575473824898182, 35.619647832431347 ] } },
{ "type": "Feature", "properties": { "osm_id": "way/330530050", "name": "Riceville Volunteer Fire Department", "amenity": "fire_station", "wheelchair": null, "emergency": null, "address": "2251 Riceville Road" }, "geometry": { "type": "Point", "coordinates": [ -82.47215936170312, 35.630699118967115 ] } },
{ "type": "Feature", "properties": { "osm_id": "way/339939140", "name": "First Church of Christ, Scientist", "amenity": "place_of_worship", "wheelchair": null, "emergency": null, "address": "64 North French Broad Avenue" }, "geometry": { "type": "Point", "coordinates": [ -82.558812704521145, 35.595742000008286 ] } },
{ "type": "Feature", "properties": { "osm_id": "way/380236113", "name": "Asheville City Hall", "amenity": "townhall", "wheelchair": null, "emergency": null, "address": null }, "geometry": { "type": "Point", "coordinates": [ -82.548430280715323, 35.595472800487329 ] } },
{ "type": "Feature", "properties": { "osm_id": "way/381235788", "name": "Basilica of Saint Lawrence", "amenity": "place_of_worship", "wheelchair": null, "emergency": null, "address": "97 Haywood Street" }, "geometry": { "type": "Point", "coordinates": [ -82.556287718962338, 35.597326947280372 ] } },
{ "type": "Feature", "properties": { "osm_id": "way/410396895", "name": "Veritas Christian Academy", "amenity": "school", "wheelchair": null, "emergency": null, "address": null }, "geometry": { "type": "Point", "coordinates": [ -82.499380085215194, 35.435798493188813 ] } },
{ "type": "Feature", "properties": { "osm_id": "way/439502958", "name": "Carolina Day School", "amenity": "school", "wheelchair": null, "emergency": null, "address": "1345 Hendersonville Road" }, "geometry": { "type": "Point", "coordinates": [ -82.531571441834501, 35.523223500836863 ] } },
{ "type": "Feature", "properties": { "osm_id": "way/439542368", "name": "Charles C Bell Elementary School", "amenity": "school", "wheelchair": null, "emergency": null, "address": "90 Maple Springs Road" }, "geometry": { "type": "Point", "coordinates": [ -82.493042903631746, 35.589299643266756 ] } },
{ "type": "Feature", "properties": { "osm_id": "way/439542369", "name": "Charles George Department of Veterans Affairs Medical Center", "amenity": "hospital", "wheelchair": null, "emergency": "no", "address": "1100 Tunnel Road" }, "geometry": { "type": "Point", "coordinates": [ -82.484114286606868, 35.589886126938765 ] } },
{ "type": "Feature", "properties": { "osm_id": "way/464619431", "name": "Mission Hospital", "amenity": "hospital", "wheelchair": null, "emergency": "yes", "address": "509 Biltmore Avenue" }, "geometry": { "type": "Point", "coordinates": [ -82.549229435487689, 35.576688621141734 ] } },
{ "type": "Feature", "properties": { "osm_id": "way/468621250", "name": "Asheville Fire Station #1", "amenity": "fire_station", "wheelchair": null, "emergency": null, "address": null }, "geometry": { "type": "Point", "coordinates": [ -82.550083359527505, 35.594657074937849 ] } },
{ "type": "Feature", "properties": { "osm_id": "way/469408845", "name": "North Asheville Recreation Center", "amenity": "community_centre", "wheelchair": null, "emergency": null, "address": null }, "geometry": { "type": "Point", "coordinates": [ -82.552997496581057, 35.622940095849188 ] } },
{ "type": "Feature", "properties": { "osm_id": "way/486273042", "name": "Cathedral of All Souls", "amenity": "place_of_worship", "wheelchair": null, "emergency": null, "address": "9 Swan Street" }, "geometry": { "type": "Point", "coordinates": [ -82.542807678318979, 35.565474295986093 ] } },
{ "type": "Feature", "properties": { "osm_id": "way/490236788", "name": "Central United Methodist Church of Asheville", "amenity": "place_of_worship", "wheelchair": null, "emergency": null, "address": "27 Church Street" }, "geometry": { "type": "Point", "coordinates": [ -82.553606132296622, 35.593487667637923 ] } },
{ "type": "Feature", "properties": { "osm_id": "way/490442439", "name": "Summit Church", "amenity": "place_of_worship", "wheelchair": null, "emergency": null, "address": "16 South French Broad Avenue" }, "geometry": { "type": "Point", "coordinates": [ -82.558458099484852, 35.593197400152071 ] } },
{ "type": "Feature", "properties": { "osm_id": "way/490448509", "name": "First Baptist Church", "amenity": "place_of_worship", "wheelchair": null, "emergency": null, "address": "5 Oak Street" }, "geometry": { "type": "Point", "coordinates": [ -82.547449234134831, 35.598920652571259 ] } },
{ "type": "Feature", "properties": { "osm_id": "way/490448531", "name": "First Presbyterian Church", "amenity": "place_of_worship", "wheelchair": null, "emergency": null, "address": null }, "geometry": { "type": "Point", "coordinates": [ -82.552713331169215, 35.593405916908566 ] } },
{ "type": "Feature", "properties": { "osm_id": "way/490448535", "name": "Trinity Episcopal Church", "amenity": "place_of_worship", "wheelchair": null, "emergency": null, "address": null }, "geometry": { "type": "Point", "coordinates": [ -82.552467521225864, 35.592637356521386 ] } },
{ "type": "Feature", "properties": { "osm_id": "way/490614757", "name": "Stephens-Lee Community Center", "amenity": "community_centre", "wheelchair": null, "emergency": null, "address": "30 George Washington Carver Avenue" }, "geometry": { "type": "Point", "coordinates": [ -82.547610638943752, 35.592741650358327 ] } },
{ "type": "Feature", "properties": { "osm_id": "way/550551140", "name": "Kingdom Hall of Jehovah’s Witnesses", "amenity": "place_of_worship", "wheelchair": null, "emergency": null, "address": "70 Cedar Hill Road" }, "geometry": { "type": "Point", "coordinates": [ -82.627072662013845, 35.586517396285444 ] } },
{ "type": "Feature", "properties": { "osm_id": "way/551293496", "name": "Kingdom Hall of Jehovah’s Witnesses", "amenity": "place_of_worship", "wheelchair": null, "emergency": null, "address": "40 Brookdale Road" }, "geometry": { "type": "Point", "coordinates": [ -82.579963795053899, 35.634576399820446 ] } },
{ "type": "Feature", "properties": { "osm_id": "way/551364178", "name": "Kingdom Hall of Jehovah’s Witnesses", "amenity": "place_of_worship", "wheelchair": null, "emergency": null, "address": "25 Forest Lake Drive" }, "geometry": { "type": "Point", "coordinates": [ -82.515397211538811, 35.53534476284868 ] } },
{ "type": "Feature", "properties": { "osm_id": "way/552188625", "name": "Kenilworth Presbyterian Church", "amenity": "place_of_worship", "wheelchair": null, "emergency": null, "address": "123 Kenilworth Road" }, "geometry": { "type": "Point", "coordinates": [ -82.538000284835448, 35.576708827649618 ] } },
{ "type": "Feature", "properties": { "osm_id": "way/591933079", "name": "Sprouts Early Learning Academy", "amenity": "school", "wheelchair": null, "emergency": null, "address": "15 Brian Boulevard" }, "geometry": { "type": "Point", "coordinates": [ -82.530682974504003, 35.444897899806115 ] } },
{ "type": "Feature", "properties": { "osm_id": "way/599502654", "name": "Beverly Hills Baptist church", "amenity": "place_of_worship", "wheelchair": null, "emergency": null, "address": "777 Tunnel Road" }, "geometry": { "type": "Point", "coordinates": [ -82.507478254541624, 35.586107533963855 ] } },
{ "type": "Feature", "properties": { "osm_id": "way/600869297", "name": "Trinity Presbyterian Church", "amenity": "place_of_worship", "wheelchair": null, "emergency": null, "address": "17 Shawnee Trail" }, "geometry": { "type": "Point", "coordinates": [ -82.519399601952387, 35.584356943064584 ] } },
{ "type": "Feature", "properties": { "osm_id": "way/602884521", "name": "Land of Sky UCC", "amenity": "place_of_worship", "wheelchair": null, "emergency": null, "address": "15 Overbrook Place" }, "geometry": { "type": "Point", "coordinates": [ -82.510892753065406, 35.585016790320878 ] } },
{ "type": "Feature", "properties": { "osm_id": "way/604166084", "name": "Saint Johns Church", "amenity": "place_of_worship", "wheelchair": null, "emergency": null, "address": null }, "geometry": { "type": "Point", "coordinates": [ -82.507911593442856, 35.597658124600976 ] } },
{ "type": "Feature", "properties": { "osm_id": "way/604173898", "name": "Asheville Gospel Chapel", "amenity": "place_of_worship", "wheelchair": null, "emergency": null, "address": null }, "geometry": { "type": "Point", "coordinates": [ -82.504948766274836, 35.599410323830121 ] } },
{ "type": "Feature", "properties": { "osm_id": "way/604395396", "name": "The Church at Asheville", "amenity": "place_of_worship", "wheelchair": null, "emergency": null, "address": null }, "geometry": { "type": "Point", "coordinates": [ -82.527844607306022, 35.5981389079884 ] } },
{ "type": "Feature", "properties": { "osm_id": "way/604395415", "name": "Midway Family Church", "amenity": "place_of_worship", "wheelchair": null, "emergency": null, "address": "191;221 Chunns Cove Road" }, "geometry": { "type": "Point", "coordinates": [ -82.53141397070705, 35.601376249822899 ] } },
{ "type": "Feature", "properties": { "osm_id": "way/604395418", "name": "Saint Lukes Church", "amenity": "place_of_worship", "wheelchair": null, "emergency": null, "address": "219 Chunns Cove Road" }, "geometry": { "type": "Point", "coordinates": [ -82.531246400004861, 35.602190300023892 ] } },
{ "type": "Feature", "properties": { "osm_id": "way/604894023", "name": "Hope Church", "amenity": "place_of_worship", "wheelchair": null, "emergency": null, "address": "14 Mineral Springs Road" }, "geometry": { "type": "Point", "coordinates": [ -82.533115900180434, 35.590740985891514 ] } },
{ "type": "Feature", "properties": { "osm_id": "way/605077844", "name": "Nazareth First Baptist Church", "amenity": "place_of_worship", "wheelchair": null, "emergency": null, "address": "146 Pine Street" }, "geometry": { "type": "Point", "coordinates": [ -82.544127959008563, 35.593966650058874 ] } },
{ "type": "Feature", "properties": { "osm_id": "way/606553374", "name": "Brookstone Baptist Church", "amenity": "place_of_worship", "wheelchair": null, "emergency": null, "address": null }, "geometry": { "type": "Point", "coordinates": [ -82.55373549117779, 35.608734624137924 ] } },
{ "type": "Feature", "properties": { "osm_id": "way/648374727", "name": "Manna Food Bank", "amenity": "social_facility", "wheelchair": null, "emergency": null, "address": "99 Broadpointe Drive" }, "geometry": { "type": "Point", "coordinates": [ -82.549859728883845, 35.417270001637128 ] } },
{ "type": "Feature", "properties": { "osm_id": "way/652063138", "name": "Beth Ha-Tephila Congregation", "amenity": "place_of_worship", "wheelchair": null, "emergency": null, "address": null }, "geometry": { "type": "Point", "coordinates": [ -82.551118216779571, 35.604748947530403 ] } },
{ "type": "Feature", "properties": { "osm_id": "way/655738893", "name": "Boiling Springs Church", "amenity": "place_of_worship", "wheelchair": null, "emergency": null, "address": null }, "geometry": { "type": "Point", "coordinates": [ -82.529691672359533, 35.43195544985705 ] } },
{ "type": "Feature", "properties": { "osm_id": "way/655792409", "name": "Mount Carmel Baptist Church", "amenity": "place_of_worship", "wheelchair": null, "emergency": null, "address": null }, "geometry": { "type": "Point", "coordinates": [ -82.5281223479451, 35.464150550087744 ] } },
{ "type": "Feature", "properties": { "osm_id": "way/665145655", "name": "Isaac Dickson Elementary School", "amenity": "school", "wheelchair": null, "emergency": null, "address": null }, "geometry": { "type": "Point", "coordinates": [ -82.564719627794972, 35.595292218779178 ] } },
{ "type": "Feature", "properties": { "osm_id": "way/684425195", "name": "Revol Church", "amenity": "place_of_worship", "wheelchair": null, "emergency": null, "address": "399 Beaverdam Road" }, "geometry": { "type": "Point", "coordinates": [ -82.535764862537988, 35.642919655206818 ] } },
{ "type": "Feature", "properties": { "osm_id": "way/684487528", "name": "Diocese of Charlotte", "amenity": "place_of_worship", "wheelchair": null, "emergency": null, "address": null }, "geometry": { "type": "Point", "coordinates": [ -82.55318824010665, 35.632265186119298 ] } },
{ "type": "Feature", "properties": { "osm_id": "way/684487530", "name": "Grace Episcopal Church of Asheville", "amenity": "place_of_worship", "wheelchair": null, "emergency": null, "address": null }, "geometry": { "type": "Point", "coordinates": [ -82.552121465837104, 35.628753485446865 ] } },
{ "type": "Feature", "properties": { "osm_id": "way/684487534", "name": "Asbury Memorial United Methodist Church", "amenity": "place_of_worship", "wheelchair": null, "emergency": null, "address": null }, "geometry": { "type": "Point", "coordinates": [ -82.550010173707406, 35.63395675446516 ] } },
{ "type": "Feature", "properties": { "osm_id": "way/684487535", "name": "Grace Convenant Presbyterian Church", "amenity": "place_of_worship", "wheelchair": null, "emergency": null, "address": null }, "geometry": { "type": "Point", "coordinates": [ -82.552928115432564, 35.624820436870749 ] } },
{ "type": "Feature", "properties": { "osm_id": "way/684689954", "name": "Brooks-Howell Home", "amenity": "social_facility", "wheelchair": null, "emergency": null, "address": null }, "geometry": { "type": "Point", "coordinates": [ -82.556262420759253, 35.609055730137236 ] } },
{ "type": "Feature", "properties": { "osm_id": "way/684826269", "name": "Richland Baptist Church", "amenity": "place_of_worship", "wheelchair": null, "emergency": null, "address": null }, "geometry": { "type": "Point", "coordinates": [ -82.573317970938206, 35.623613292117874 ] } },
{ "type": "Feature", "properties": { "osm_id": "way/684994146", "name": "Victory Church", "amenity": "place_of_worship", "wheelchair": null, "emergency": null, "address": null }, "geometry": { "type": "Point", "coordinates": [ -82.613386507436815, 35.628983299956545 ] } },
{ "type": "Feature", "properties": { "osm_id": "way/684994147", "name": "New Hope Church", "amenity": "place_of_worship", "wheelchair": null, "emergency": null, "address": null }, "geometry": { "type": "Point", "coordinates": [ -82.608872303127157, 35.627501285962587 ] } },
{ "type": "Feature", "properties": { "osm_id": "way/684994148", "name": "New Liberty Baptist Church", "amenity": "place_of_worship", "wheelchair": null, "emergency": null, "address": null }, "geometry": { "type": "Point", "coordinates": [ -82.609031850011732, 35.639775500126873 ] } },
{ "type": "Feature", "properties": { "osm_id": "way/685006892", "name": "Harmony Hill Church", "amenity": "place_of_worship", "wheelchair": null, "emergency": null, "address": null }, "geometry": { "type": "Point", "coordinates": [ -82.599114061535616, 35.5926485498739 ] } },
{ "type": "Feature", "properties": { "osm_id": "way/685006902", "name": "Temple Church", "amenity": "place_of_worship", "wheelchair": null, "emergency": null, "address": "76 Hawkins Lane" }, "geometry": { "type": "Point", "coordinates": [ -82.590163852949701, 35.588038572668246 ] } },
{ "type": "Feature", "properties": { "osm_id": "way/685020696", "name": "Asheville First Church of the Nazarene", "amenity": "place_of_worship", "wheelchair": null, "emergency": null, "address": null }, "geometry": { "type": "Point", "coordinates": [ -82.592405718853115, 35.591982846732542 ] } },
{ "type": "Feature", "properties": { "osm_id": "way/685151930", "name": "Oakley - South Asheville Public Library", "amenity": "library", "wheelchair": null, "emergency": null, "address": "749 Fairview Road" }, "geometry": { "type": "Point", "coordinates": [ -82.513517177503346, 35.564267146039718 ] } },
{ "type": "Feature", "properties": { "osm_id": "way/685996519", "name": "Hill Street Baptist Church", "amenity": "place_of_worship", "wheelchair": null, "emergency": null, "address": "135 Hill Street" }, "geometry": { "type": "Point", "coordinates": [ -82.564674127091848, 35.594085618229698 ] } },
{ "type": "Feature", "properties": { "osm_id": "way/686369552", "name": "Acton United Methodist Church", "amenity": "place_of_worship", "wheelchair": null, "emergency": null, "address": null }, "geometry": { "type": "Point", "coordinates": [ -82.639734592735124, 35.555900250324854 ] } },
{ "type": "Feature", "properties": { "osm_id": "way/687762471", "name": "Averys Creek United Methodist Church", "amenity": "place_of_worship", "wheelchair": null, "emergency": null, "address": null }, "geometry": { "type": "Point", "coordinates": [ -82.576288009388165, 35.464867582574264 ] } },
{ "type": "Feature", "properties": { "osm_id": "way/687762477", "name": "Averys Creek FWB Church", "amenity": "place_of_worship", "wheelchair": null, "emergency": null, "address": null }, "geometry": { "type": "Point", "coordinates": [ -82.586589096920605, 35.462172788521457 ] } },
{ "type": "Feature", "properties": { "osm_id": "way/687878138", "name": "Connection Point Church of God", "amenity": "place_of_worship", "wheelchair": null, "emergency": null, "address": null }, "geometry": { "type": "Point", "coordinates": [ -82.587777484804818, 35.63377991848251 ] } },
{ "type": "Feature", "properties": { "osm_id": "way/687878139", "name": "Woodfin Elementary School", "amenity": "school", "wheelchair": null, "emergency": null, "address": null }, "geometry": { "type": "Point", "coordinates": [ -82.58536551468238, 35.63251115707218 ] } },
{ "type": "Feature", "properties": { "osm_id": "way/687878140", "name": "Episcopal Church of the Redeemer", "amenity": "place_of_worship", "wheelchair": null, "emergency": null, "address": null }, "geometry": { "type": "Point", "coordinates": [ -82.591961015153885, 35.624751393424035 ] } },
{ "type": "Feature", "properties": { "osm_id": "way/687878143", "name": "New Life Community Church", "amenity": "place_of_worship", "wheelchair": null, "emergency": null, "address": null }, "geometry": { "type": "Point", "coordinates": [ -82.596852552606848, 35.627510302989045 ] } },
{ "type": "Feature", "properties": { "osm_id": "way/689399672", "name": "Asheville Fire Department Station 2", "amenity": "fire_station", "wheelchair": null, "emergency": null, "address": null }, "geometry": { "type": "Point", "coordinates": [ -82.560404535677478, 35.578123684575779 ] } },
{ "type": "Feature", "properties": { "osm_id": "way/692097251", "name": "Gashes Creek Baptist Church", "amenity": "place_of_worship", "wheelchair": null, "emergency": null, "address": "308 Gashes Creek Road" }, "geometry": { "type": "Point", "coordinates": [ -82.494691052066372, 35.566715249993706 ] } },
{ "type": "Feature", "properties": { "osm_id": "way/692232688", "name": "New Salem Church", "amenity": "place_of_worship", "wheelchair": null, "emergency": null, "address": null }, "geometry": { "type": "Point", "coordinates": [ -82.521646249959915, 35.485722750028451 ] } },
{ "type": "Feature", "properties": { "osm_id": "way/694054775", "name": "Bethel Baptist Church", "amenity": "place_of_worship", "wheelchair": null, "emergency": null, "address": null }, "geometry": { "type": "Point", "coordinates": [ -82.621299751328891, 35.612003999998677 ] } },
{ "type": "Feature", "properties": { "osm_id": "way/694054777", "name": "Bethesda United Methodist Church", "amenity": "place_of_worship", "wheelchair": null, "emergency": null, "address": null }, "geometry": { "type": "Point", "coordinates": [ -82.505660367418912, 35.597037399095989 ] } },
{ "type": "Feature", "properties": { "osm_id": "way/694072350", "name": "Bethel United Methodist Church", "amenity": "place_of_worship", "wheelchair": null, "emergency": null, "address": null }, "geometry": { "type": "Point", "coordinates": [ -82.47630957426658, 35.618565430674025 ] } },
{ "type": "Feature", "properties": { "osm_id": "way/694072353", "name": "Riverview Church", "amenity": "place_of_worship", "wheelchair": null, "emergency": null, "address": null }, "geometry": { "type": "Point", "coordinates": [ -82.600642583110485, 35.618141700920518 ] } },
{ "type": "Feature", "properties": { "osm_id": "way/694072362", "name": "Mount Zion Church", "amenity": "place_of_worship", "wheelchair": null, "emergency": null, "address": "283 Overlook Road" }, "geometry": { "type": "Point", "coordinates": [ -82.5380785522037, 35.487715768192501 ] } },
{ "type": "Feature", "properties": { "osm_id": "way/694072365", "name": "Living Savior Lutheran Church and Preschool", "amenity": "place_of_worship", "wheelchair": null, "emergency": null, "address": null }, "geometry": { "type": "Point", "coordinates": [ -82.539013078117236, 35.485562304052891 ] } },
{ "type": "Feature", "properties": { "osm_id": "way/694274499", "name": "Bent Creek Church", "amenity": "place_of_worship", "wheelchair": null, "emergency": null, "address": "1554 Brevard Road" }, "geometry": { "type": "Point", "coordinates": [ -82.595990555701931, 35.507041825491108 ] } },
{ "type": "Feature", "properties": { "osm_id": "way/694274517", "name": "Reeves Chapel Methodist Church", "amenity": "place_of_worship", "wheelchair": null, "emergency": null, "address": "225 Sardis Road" }, "geometry": { "type": "Point", "coordinates": [ -82.626256353420516, 35.538462950002476 ] } },
{ "type": "Feature", "properties": { "osm_id": "way/694274520", "name": "Inanda Church", "amenity": "place_of_worship", "wheelchair": null, "emergency": null, "address": null }, "geometry": { "type": "Point", "coordinates": [ -82.599787616553286, 35.552803082363447 ] } },
{ "type": "Feature", "properties": { "osm_id": "way/694274524", "name": "Oak Forest Presbyterian Church", "amenity": "place_of_worship", "wheelchair": null, "emergency": null, "address": null }, "geometry": { "type": "Point", "coordinates": [ -82.629401198140513, 35.552157613625901 ] } },
{ "type": "Feature", "properties": { "osm_id": "way/694314174", "name": "Chapel Hill Church", "amenity": "place_of_worship", "wheelchair": null, "emergency": null, "address": null }, "geometry": { "type": "Point", "coordinates": [ -82.499479201580229, 35.496269900078616 ] } },
{ "type": "Feature", "properties": { "osm_id": "way/694581818", "name": "St Johns A Baptist Church", "amenity": "place_of_worship", "wheelchair": null, "emergency": null, "address": "20 Dalton Street" }, "geometry": { "type": "Point", "coordinates": [ -82.538242300004725, 35.581177350056549 ] } },
{ "type": "Feature", "properties": { "osm_id": "way/696377530", "name": "St. Giles Chapel", "amenity": "place_of_worship", "wheelchair": null, "emergency": null, "address": null }, "geometry": { "type": "Point", "coordinates": [ -82.52871732122928, 35.512553095325977 ] } },
{ "type": "Feature", "properties": { "osm_id": "way/696377537", "name": "Abernethy United Methodist Church", "amenity": "place_of_worship", "wheelchair": null, "emergency": null, "address": null }, "geometry": { "type": "Point", "coordinates": [ -82.607239970717913, 35.580472888032851 ] } },
{ "type": "Feature", "properties": { "osm_id": "way/696377541", "name": "Biltmore Church of God", "amenity": "place_of_worship", "wheelchair": null, "emergency": null, "address": null }, "geometry": { "type": "Point", "coordinates": [ -82.517935716284654, 35.534570708543683 ] } },
{ "type": "Feature", "properties": { "osm_id": "way/696377545", "name": "Unitarian Universalist Congregation of Asheville", "amenity": "place_of_worship", "wheelchair": "yes", "emergency": null, "address": "1 Edwin Place" }, "geometry": { "type": "Point", "coordinates": [ -82.546420652529036, 35.609203536607403 ] } },
{ "type": "Feature", "properties": { "osm_id": "way/696377547", "name": "Riceville Presbyterian Church", "amenity": "place_of_worship", "wheelchair": null, "emergency": null, "address": "Riceville Road" }, "geometry": { "type": "Point", "coordinates": [ -82.467013424256933, 35.629721917068309 ] } },
{ "type": "Feature", "properties": { "osm_id": "way/696377552", "name": "Pleasant Hill Baptist Church", "amenity": "place_of_worship", "wheelchair": null, "emergency": null, "address": null }, "geometry": { "type": "Point", "coordinates": [ -82.465123032277674, 35.484636097239346 ] } },
{ "type": "Feature", "properties": { "osm_id": "way/696673999", "name": "Saint Marys Episcopal Church", "amenity": "place_of_worship", "wheelchair": null, "emergency": null, "address": null }, "geometry": { "type": "Point", "coordinates": [ -82.545175003820802, 35.611964719957413 ] } },
{ "type": "Feature", "properties": { "osm_id": "way/696674003", "name": "Shiloh AME Zion Church", "amenity": "place_of_worship", "wheelchair": null, "emergency": null, "address": null }, "geometry": { "type": "Point", "coordinates": [ -82.530163616188815, 35.548425610106243 ] } },
{ "type": "Feature", "properties": { "osm_id": "way/696787320", "name": "Emmanuel Lutheran Church", "amenity": "place_of_worship", "wheelchair": null, "emergency": null, "address": null }, "geometry": { "type": "Point", "coordinates": [ -82.602520923135771, 35.585919050544661 ] } },
{ "type": "Feature", "properties": { "osm_id": "way/696787324", "name": "New Hope Presbyterian Church", "amenity": "place_of_worship", "wheelchair": null, "emergency": null, "address": null }, "geometry": { "type": "Point", "coordinates": [ -82.51813168126624, 35.504437219291049 ] } },
{ "type": "Feature", "properties": { "osm_id": "way/699666577", "name": "Happy Valley Church", "amenity": "place_of_worship", "wheelchair": null, "emergency": null, "address": null }, "geometry": { "type": "Point", "coordinates": [ -82.626654947567374, 35.595308652529077 ] } },
{ "type": "Feature", "properties": { "osm_id": "way/723030643", "name": "All Saints Anglican Church", "amenity": "place_of_worship", "wheelchair": null, "emergency": null, "address": "15 McDowell Road" }, "geometry": { "type": "Point", "coordinates": [ -82.575622552081214, 35.418718660745945 ] } },
{ "type": "Feature", "properties": { "osm_id": "way/726965760", "name": "Grace Community Church", "amenity": "place_of_worship", "wheelchair": null, "emergency": null, "address": "495 Cardinal Road" }, "geometry": { "type": "Point", "coordinates": [ -82.564416449935365, 35.4059063505022 ] } },
{ "type": "Feature", "properties": { "osm_id": "way/726967898", "name": "Fanning Chapel", "amenity": "place_of_worship", "wheelchair": null, "emergency": null, "address": "5490 Old Haywood Road" }, "geometry": { "type": "Point", "coordinates": [ -82.573775941865648, 35.420400050170834 ] } },
{ "type": "Feature", "properties": { "osm_id": "way/743141689", "name": "Biltmore Church West Asheville Campus", "amenity": "place_of_worship", "wheelchair": null, "emergency": null, "address": "220 Johnston Boulevard" }, "geometry": { "type": "Point", "coordinates": [ -82.621661816961378, 35.58776968979808 ] } },
{ "type": "Feature", "properties": { "osm_id": "way/743141690", "name": "Cedar Hill Free Will Baptist Church", "amenity": "place_of_worship", "wheelchair": null, "emergency": null, "address": "234 Johnston Boulevard" }, "geometry": { "type": "Point", "coordinates": [ -82.620675886375608, 35.587291350211181 ] } },
{ "type": "Feature", "properties": { "osm_id": "way/743141691", "name": "Sunrise Church", "amenity": "place_of_worship", "wheelchair": null, "emergency": null, "address": null }, "geometry": { "type": "Point", "coordinates": [ -82.625379683089022, 35.582656612518285 ] } },
{ "type": "Feature", "properties": { "osm_id": "way/743152765", "name": "Freedom Baptist Church", "amenity": "place_of_worship", "wheelchair": null, "emergency": null, "address": null }, "geometry": { "type": "Point", "coordinates": [ -82.640124143726581, 35.595441541228816 ] } },
{ "type": "Feature", "properties": { "osm_id": "way/743338372", "name": "Emma United Methodist Church", "amenity": "place_of_worship", "wheelchair": null, "emergency": null, "address": null }, "geometry": { "type": "Point", "coordinates": [ -82.590736867822145, 35.606665841690536 ] } },
{ "type": "Feature", "properties": { "osm_id": "way/759892051", "name": "Lucy S. Herring", "amenity": "school", "wheelchair": null, "emergency": null, "address": null }, "geometry": { "type": "Point", "coordinates": [ -82.600805999595593, 35.577274636019858 ] } },
{ "type": "Feature", "properties": { "osm_id": "way/764138943", "name": "Reynolds Fire Department", "amenity": "fire_station", "wheelchair": null, "emergency": null, "address": "1 Charles A Lytle Lane" }, "geometry": { "type": "Point", "coordinates": [ -82.476784920534058, 35.551759366462257 ] } },
{ "type": "Feature", "properties": { "osm_id": "way/808611267", "name": "Covenant Community Church", "amenity": "place_of_worship", "wheelchair": null, "emergency": null, "address": null }, "geometry": { "type": "Point", "coordinates": [ -82.473862357643739, 35.54888938780072 ] } },
{ "type": "Feature", "properties": { "osm_id": "way/827069378", "name": "Glen Arden Elementary School", "amenity": "school", "wheelchair": null, "emergency": null, "address": "50 Pinehurst Circle" }, "geometry": { "type": "Point", "coordinates": [ -82.49714529032407, 35.469368923052471 ] } },
{ "type": "Feature", "properties": { "osm_id": "way/867149578", "name": "Gospel Tabernacle Church", "amenity": "place_of_worship", "wheelchair": null, "emergency": null, "address": null }, "geometry": { "type": "Point", "coordinates": [ -82.600952586338664, 35.6045757502513 ] } },
{ "type": "Feature", "properties": { "osm_id": "way/867149579", "name": "Emanuel Moldavian Church", "amenity": "place_of_worship", "wheelchair": null, "emergency": null, "address": null }, "geometry": { "type": "Point", "coordinates": [ -82.597104079594232, 35.601849995272161 ] } },
{ "type": "Feature", "properties": { "osm_id": "way/867547670", "name": "Saint Barnabas Catholic Church", "amenity": "place_of_worship", "wheelchair": null, "emergency": null, "address": null }, "geometry": { "type": "Point", "coordinates": [ -82.512302001522457, 35.451446917359476 ] } },
{ "type": "Feature", "properties": { "osm_id": "way/868494097", "name": "Sunnyview Church", "amenity": "place_of_worship", "wheelchair": null, "emergency": null, "address": null }, "geometry": { "type": "Point", "coordinates": [ -82.488145588871035, 35.491059450168756 ] } },
{ "type": "Feature", "properties": { "osm_id": "way/872288917", "name": "St Marks Evangelical Lutheran Church", "amenity": "place_of_worship", "wheelchair": null, "emergency": null, "address": "10 North Liberty Street" }, "geometry": { "type": "Point", "coordinates": [ -82.552132920571424, 35.603530551522006 ] } },
{ "type": "Feature", "properties": { "osm_id": "way/872288918", "name": "Church of Christ", "amenity": "place_of_worship", "wheelchair": null, "emergency": null, "address": "127 East Chestnut Street" }, "geometry": { "type": "Point", "coordinates": [ -82.552059830991411, 35.602919692823285 ] } },
{ "type": "Feature", "properties": { "osm_id": "way/882032204", "name": "Fellowship Asheville Church", "amenity": "place_of_worship", "wheelchair": null, "emergency": null, "address": null }, "geometry": { "type": "Point", "coordinates": [ -82.512421305723535, 35.565146688688237 ] } },
{ "type": "Feature", "properties": { "osm_id": "way/882032205", "name": "Oakley Baptist Church", "amenity": "place_of_worship", "wheelchair": null, "emergency": null, "address": null }, "geometry": { "type": "Point", "coordinates": [ -82.514602174239613, 35.566462089874548 ] } },
{ "type": "Feature", "properties": { "osm_id": "way/912211575", "name": "Mount Carmel Church", "amenity": "place_of_worship", "wheelchair": null, "emergency": null, "address": null }, "geometry": { "type": "Point", "coordinates": [ -82.634629505869029, 35.627621435147447 ] } },
{ "type": "Feature", "properties": { "osm_id": "way/923115678", "name": "Johnston Elementary School", "amenity": "school", "wheelchair": null, "emergency": null, "address": null }, "geometry": { "type": "Point", "coordinates": [ -82.619551157703143, 35.586632761828561 ] } },
{ "type": "Feature", "properties": { "osm_id": "way/945609002", "name": "Islamic Center Of Asheville", "amenity": "place_of_worship", "wheelchair": null, "emergency": null, "address": "941 Old Fairview Road" }, "geometry": { "type": "Point", "coordinates": [ -82.503868892409713, 35.564582650153888 ] } },
{ "type": "Feature", "properties": { "osm_id": "way/945670261", "name": "Oakley Free Will Baptist Church", "amenity": "place_of_worship", "wheelchair": null, "emergency": null, "address": null }, "geometry": { "type": "Point", "coordinates": [ -82.517500426176071, 35.565768850328446 ] } },
{ "type": "Feature", "properties": { "osm_id": "way/956049282", "name": "Skyland South Buncombe Library", "amenity": "library", "wheelchair": "yes", "emergency": null, "address": "260 Overlook Road" }, "geometry": { "type": "Point", "coordinates": [ -82.537144448911178, 35.488104595983273 ] } },
{ "type": "Feature", "properties": { "osm_id": "way/967457191", "name": "Asheville-Buncombe Technical Community College", "amenity": "college", "wheelchair": null, "emergency": null, "address": "524 Victoria Road" }, "geometry": { "type": "Point", "coordinates": [ -82.557002099369257, 35.570339428319457 ] } },
{ "type": "Feature", "properties": { "osm_id": "way/992379524", "name": "Malvern Hills Presbyterian Church", "amenity": "place_of_worship", "wheelchair": null, "emergency": null, "address": "2 Bear Creek Road" }, "geometry": { "type": "Point", "coordinates": [ -82.61330184183835, 35.575002059033359 ] } },
{ "type": "Feature", "properties": { "osm_id": "way/1081315542", "name": "Feed & Seed Church;Hurley", "amenity": "place_of_worship", "wheelchair": null, "emergency": null, "address": null }, "geometry": { "type": "Point", "coordinates": [ -82.501696772440695, 35.430998073678225 ] } },
{ "type": "Feature", "properties": { "osm_id": "way/1082335146", "name": "Beulah Chapel", "amenity": "place_of_worship", "wheelchair": null, "emergency": null, "address": "102 South French Broad Avenue" }, "geometry": { "type": "Point", "coordinates": [ -82.558836077701201, 35.589970200335372 ] } },
{ "type": "Feature", "properties": { "osm_id": "way/1082709526", "name": "St. Paul's United Methodist Church", "amenity": "place_of_worship", "wheelchair": null, "emergency": null, "address": "223 Hillside Street" }, "geometry": { "type": "Point", "coordinates": [ -82.552427854641024, 35.607060195852867 ] } },
{ "type": "Feature", "properties": { "osm_id": "way/1082724879", "name": "Holy Trinity Greek Orthodox Church", "amenity": "place_of_worship", "wheelchair": null, "emergency": null, "address": "227 Cumberland Avenue" }, "geometry": { "type": "Point", "coordinates": [ -82.563171635531447, 35.604807278785472 ] } },
{ "type": "Feature", "properties": { "osm_id": "way/1082756613", "name": "Burton Street Community Center", "amenity": "community_centre", "wheelchair": null, "emergency": null, "address": "134 Burton Street" }, "geometry": { "type": "Point", "coordinates": [ -82.584415840351852, 35.583026850157573 ] } },
{ "type": "Feature", "properties": { "osm_id": "way/1082756617", "name": "Community Baptist", "amenity": "place_of_worship", "wheelchair": null, "emergency": null, "address": "103 Burton Street" }, "geometry": { "type": "Point", "coordinates": [ -82.583508350005459, 35.581899000054321 ] } },
{ "type": "Feature", "properties": { "osm_id": "way/1084449308", "name": "Calvary Baptist Church", "amenity": "place_of_worship", "wheelchair": null, "emergency": null, "address": null }, "geometry": { "type": "Point", "coordinates": [ -82.585229927477315, 35.578960853821584 ] } },
{ "type": "Feature", "properties": { "osm_id": "way/1085455455", "name": "Urban Dharma", "amenity": "place_of_worship", "wheelchair": null, "emergency": null, "address": null }, "geometry": { "type": "Point", "coordinates": [ -82.591619625573259, 35.577839997050575 ] } },
{ "type": "Feature", "properties": { "osm_id": "way/1086470530", "name": "Covenant Reformed Presbyterian Church", "amenity": "place_of_worship", "wheelchair": null, "emergency": null, "address": "281 Edgewood Road" }, "geometry": { "type": "Point", "coordinates": [ -82.562659333276457, 35.620521499673607 ] } },
{ "type": "Feature", "properties": { "osm_id": "way/1135267007", "name": "Asheville High School", "amenity": "school", "wheelchair": null, "emergency": null, "address": "419 McDowell Street" }, "geometry": { "type": "Point", "coordinates": [ -82.552603798101359, 35.572069253453577 ] } },
{ "type": "Feature", "properties": { "osm_id": "way/1178714141", "name": "Saint Johns Church", "amenity": "place_of_worship", "wheelchair": null, "emergency": null, "address": null }, "geometry": { "type": "Point", "coordinates": [ -82.508788914314991, 35.435787949865109 ] } },
{ "type": "Feature", "properties": { "osm_id": "way/1195617751", "name": "Trinity Baptist Church", "amenity": "place_of_worship", "wheelchair": null, "emergency": null, "address": "216 Shelburne Road" }, "geometry": { "type": "Point", "coordinates": [ -82.60297958592497, 35.570081955266858 ] } },
{ "type": "Feature", "properties": { "osm_id": "way/1215653700", "name": "South Asheville Baptist Church", "amenity": "place_of_worship", "wheelchair": null, "emergency": null, "address": "32 Le An Hurst Road" }, "geometry": { "type": "Point", "coordinates": [ -82.525919924387978, 35.533675838519827 ] } },
{ "type": "Feature", "properties": { "osm_id": "way/1216275844", "name": "North Asheville Public Library", "amenity": "library", "wheelchair": null, "emergency": null, "address": "1030 Merrimon Avenue" }, "geometry": { "type": "Point", "coordinates": [ -82.555550052856034, 35.632636300107677 ] } },
{ "type": "Feature", "properties": { "osm_id": "way/1234627659", "name": "Avery's Creek Elementary School", "amenity": "school", "wheelchair": null, "emergency": null, "address": null }, "geometry": { "type": "Point", "coordinates": [ -82.578645761542461, 35.476820074635121 ] } },
{ "type": "Feature", "properties": { "osm_id": "way/1278185176", "name": "East Asheville Library", "amenity": "library", "wheelchair": "yes", "emergency": null, "address": "3 Avon Road" }, "geometry": { "type": "Point", "coordinates": [ -82.503404329623393, 35.588144995672295 ] } },
{ "type": "Feature", "properties": { "osm_id": "way/1293696737", "name": "West Asheville Library", "amenity": "library", "wheelchair": null, "emergency": null, "address": "942 Haywood Road" }, "geometry": { "type": "Point", "coordinates": [ -82.601779257048051, 35.580830883148813 ] } },
{ "type": "Feature", "properties": { "osm_id": "way/1295538016", "name": "Centra Care", "amenity": "hospital", "wheelchair": null, "emergency": null, "address": "436 Airport Road" }, "geometry": { "type": "Point", "coordinates": [ -82.534500964057329, 35.444530149927289 ] } },
{ "type": "Feature", "properties": { "osm_id": "way/1298545897", "name": "Asheville Fire Station 13", "amenity": "fire_station", "wheelchair": null, "emergency": null, "address": "316 Broadway Street" }, "geometry": { "type": "Point", "coordinates": [ -82.558057139715359, 35.604148685172248 ] } },
{ "type": "Feature", "properties": { "osm_id": "way/1319917659", "name": "Fletcher Branch Library", "amenity": "library", "wheelchair": null, "emergency": null, "address": "120 Library Road" }, "geometry": { "type": "Point", "coordinates": [ -82.503804074553301, 35.434467587089678 ] } },
{ "type": "Feature", "properties": { "osm_id": "way/1321724480", "name": "Agape Faith Family Church", "amenity": "place_of_worship", "wheelchair": null, "emergency": null, "address": null }, "geometry": { "type": "Point", "coordinates": [ -82.487865749999145, 35.448072000055838 ] } },
{ "type": "Feature", "properties": { "osm_id": "way/1327356280", "name": "Land of Sky Regional Council", "amenity": "townhall", "wheelchair": null, "emergency": null, "address": "339 New Leicester Hwy." }, "geometry": { "type": "Point", "coordinates": [ -82.6217553823776, 35.601455550976532 ] } },
{ "type": "Feature", "properties": { "osm_id": "way/1354741300", "name": "Bethel Church", "amenity": "place_of_worship", "wheelchair": null, "emergency": null, "address": null }, "geometry": { "type": "Point", "coordinates": [ -82.573982553725955, 35.428509707337788 ] } },
{ "type": "Feature", "properties": { "osm_id": "way/1382859533", "name": "Laurels of GreenTree Ridge", "amenity": "social_facility", "wheelchair": null, "emergency": null, "address": "70 Sweeten Creek Road" }, "geometry": { "type": "Point", "coordinates": [ -82.529779394989362, 35.559549150794332 ] } },
{ "type": "Feature", "properties": { "osm_id": "way/1448506314", "name": "Starnes Cove Church", "amenity": "place_of_worship", "wheelchair": null, "emergency": null, "address": null }, "geometry": { "type": "Point", "coordinates": [ -82.639727229676396, 35.570412320106577 ] } }
]
}
