{
"type": "FeatureCollection",
"name": "rivers",
"crs": { "type": "name", "properties": { "name": "urn:ogc:def:crs:OGC:1.3:CRS84" } },
"features": [
{ "type": "Feature", "properties": { "name": "Swannanoa River" }, "geometry": { "type": "LineString", "coordinates": [ [ -82.5417708, 35.5694643 ], [ -82.542058, 35.569397 ], [ -82.542315, 35.5692308 ], [ -82.5427609, 35.5690461 ], [ -82.5431605, 35.5688852 ], [ -82.5440229, 35.5687621 ], [ -82.5447717, 35.5686081 ], [ -82.545148, 35.56853 ], [ -82.54531, 35.568419 ] ] } },
{ "type": "Feature", "properties": { "name": "French Broad River" }, "geometry": { "type": "LineString", "coordinates": [ [ -82.559694, 35.530692 ], [ -82.559835, 35.531157 ], [ -82.560215, 35.531759 ], [ -82.560798, 35.532262 ] ] } },
{ "type": "Feature", "properties": { "name": "French Broad River" }, "geometry": { "type": "LineString", "coordinates": [ [ -82.565288, 35.3399295 ], [ -82.5635692, 35.3416697 ], [ -82.562803, 35.3423522 ], [ -82.5622485, 35.3429648 ], [ -82.5614067, 35.3437707 ], [ -82.560036, 35.3449912 ], [ -82.5583319, 35.3463258 ], [ -82.5576852, 35.3467917 ], [ -82.5555686, 35.3481345 ], [ -82.5549009, 35.3485215 ], [ -82.554283, 35.348773 ], [ -82.5532253, 35.3490987 ], [ -82.5528667, 35.3492832 ], [ -82.5525395, 35.3495671 ], [ -82.5519489, 35.3502175 ], [ -82.5514318, 35.3509744 ], [ -82.5511357, 35.351504 ], [ -82.5505829, 35.3523152 ], [ -82.5500223, 35.352768 ], [ -82.5496522, 35.35303 ], [ -82.5493202, 35.3532164 ], [ -82.5488004, 35.3533784 ], [ -82.548335, 35.3535627 ], [ -82.5477798, 35.3539178 ], [ -82.54729, 35.3543884 ], [ -82.5464953, 35.3553206 ], [ -82.546185, 35.3558 ], [ -82.545984, 35.356377 ], [ -82.545869, 35.357058 ], [ -82.5457632, 35.3583524 ], [ -82.5460315, 35.3606177 ], [ -82.546056, 35.3613146 ], [ -82.54601, 35.362041 ], [ -82.545814, 35.362588 ], [ -82.545407, 35.363358 ], [ -82.54478, 35.364134 ], [ -82.5435169, 35.3652841 ], [ -82.543127, 35.365724 ], [ -82.5422457, 35.3669966 ], [ -82.541845, 35.367539 ], [ -82.541522, 35.368198 ], [ -82.5413025, 35.3686286 ], [ -82.541032, 35.369078 ], [ -82.5405002, 35.3698712 ], [ -82.540034, 35.370442 ], [ -82.539372, 35.371436 ], [ -82.539176, 35.371983 ], [ -82.539144, 35.372312 ], [ -82.539163, 35.372705 ], [ -82.539273, 35.373207 ], [ -82.53927, 35.37381 ], [ -82.539234, 35.374326 ], [ -82.539122, 35.374798 ], [ -82.5388899, 35.3751613 ], [ -82.5385898, 35.3754251 ], [ -82.5381727, 35.3756539 ], [ -82.537553, 35.3758287 ], [ -82.5366137, 35.3759781 ], [ -82.5357679, 35.376191 ], [ -82.5345012, 35.3766359 ], [ -82.5333787, 35.3771285 ], [ -82.5328953, 35.3773033 ], [ -82.5323497, 35.3774082 ], [ -82.5318274, 35.3774463 ], [ -82.5311414, 35.3774463 ], [ -82.5304788, 35.377351 ], [ -82.5297967, 35.377227 ], [ -82.5293173, 35.377173 ], [ -82.5289315, 35.377208 ], [ -82.5287366, 35.3772842 ], [ -82.528569, 35.3774145 ], [ -82.5284988, 35.3775957 ], [ -82.5285105, 35.3777705 ], [ -82.5286002, 35.3779294 ], [ -82.5289588, 35.3782948 ], [ -82.5292667, 35.3784982 ], [ -82.5297773, 35.3788033 ], [ -82.5307791, 35.3792206 ], [ -82.5317127, 35.3797441 ], [ -82.5321509, 35.3800792 ], [ -82.5325641, 35.3804573 ], [ -82.5328759, 35.3808673 ], [ -82.5330779, 35.3812166 ], [ -82.533261, 35.3815895 ], [ -82.5333567, 35.3819274 ], [ -82.5333521, 35.3822151 ], [ -82.533277, 35.3826198 ], [ -82.5330675, 35.3830839 ], [ -82.532767, 35.383862 ], [ -82.5324606, 35.3848874 ], [ -82.5321732, 35.3861295 ], [ -82.5321066, 35.3865851 ], [ -82.5320952, 35.3870715 ], [ -82.5321384, 35.3875298 ], [ -82.5321583, 35.3879241 ], [ -82.531958, 35.388896 ], [ -82.531828, 35.389148 ], [ -82.531675, 35.389369 ], [ -82.531346, 35.389687 ], [ -82.530822, 35.390052 ], [ -82.530443, 35.390416 ], [ -82.5300486, 35.3907489 ], [ -82.5297003, 35.3912769 ], [ -82.5295064, 35.39181 ], [ -82.5293349, 35.3920363 ], [ -82.5288723, 35.3924046 ], [ -82.528296, 35.392715 ], [ -82.5279524, 35.3929459 ], [ -82.5278191, 35.3931833 ], [ -82.527751, 35.3935449 ], [ -82.5277293, 35.3940752 ], [ -82.5276422, 35.394825 ], [ -82.5276204, 35.3956702 ], [ -82.527717, 35.3965375 ], [ -82.528133, 35.397085 ], [ -82.528463, 35.397581 ], [ -82.528833, 35.398003 ], [ -82.529201, 35.398359 ], [ -82.529882, 35.398802 ], [ -82.5307061, 35.3991518 ], [ -82.5311343, 35.3992258 ], [ -82.5325438, 35.3991587 ], [ -82.5330741, 35.3992281 ], [ -82.533476, 35.399383 ], [ -82.5337557, 35.3995388 ], [ -82.534023, 35.3998 ], [ -82.534348, 35.400188 ], [ -82.534544, 35.400503 ], [ -82.534692, 35.400877 ], [ -82.5348175, 35.401474 ], [ -82.5348345, 35.4018785 ], [ -82.5347608, 35.4022322 ], [ -82.5345708, 35.4025511 ], [ -82.5341256, 35.4029672 ], [ -82.533652, 35.4032377 ], [ -82.532787, 35.4036006 ], [ -82.5314712, 35.4041854 ], [ -82.5310543, 35.4044581 ], [ -82.5307594, 35.4047055 ], [ -82.5305836, 35.4049597 ], [ -82.5305013, 35.4052186 ], [ -82.5305013, 35.4054729 ], [ -82.5305665, 35.4057872 ], [ -82.5307792, 35.4063003 ], [ -82.531583, 35.40752 ], [ -82.531934, 35.407839 ], [ -82.532678, 35.40839 ], [ -82.534127, 35.409286 ] ] } },
{ "type": "Feature", "properties": { "name": "French Broad River" }, "geometry": { "type": "LineString", "coordinates": [ [ -82.56508, 35.515352 ], [ -82.564805, 35.515677 ], [ -82.564393, 35.516338 ], [ -82.564188, 35.516705 ], [ -82.563985, 35.517108 ], [ -82.563835, 35.517552 ], [ -82.563632, 35.51797 ], [ -82.563214, 35.518646 ], [ -82.562859, 35.519117 ] ] } },
{ "type": "Feature", "properties": { "name": "French Broad River" }, "geometry": { "type": "LineString", "coordinates": [ [ -82.5868382, 35.565506 ], [ -82.585989, 35.565637 ], [ -82.5849739, 35.5656632 ], [ -82.584215, 35.5656021 ], [ -82.5835135, 35.5654091 ], [ -82.5826062, 35.5648985 ], [ -82.5820587, 35.5647142 ], [ -82.5813073, 35.5645838 ] ] } },
{ "type": "Feature", "properties": { "name": "French Broad River" }, "geometry": { "type": "LineString", "coordinates": [ [ -82.561654, 35.5375477 ], [ -82.561854, 35.537916 ], [ -82.5619089, 35.5380789 ] ] } },
{ "type": "Feature", "properties": { "name": "French Broad River" }, "geometry": { "type": "LineString", "coordinates": [ [ -82.562859, 35.519117 ], [ -82.562292, 35.519756 ], [ -82.562023, 35.520029 ], [ -82.561697, 35.520278 ], [ -82.561225, 35.520581 ], [ -82.560709, 35.520884 ], [ -82.560265, 35.521116 ], [ -82.559892, 35.521377 ] ] } },
{ "type": "Feature", "properties": { "name": "French Broad River" }, "geometry": { "type": "LineString", "coordinates": [ [ -82.591057, 35.563922 ], [ -82.591036, 35.563936 ], [ -82.590269, 35.564309 ], [ -82.5888444, 35.564862 ], [ -82.5878483, 35.5652275 ], [ -82.5868382, 35.565506 ] ] } },
{ "type": "Feature", "properties": { "name": "French Broad River" }, "geometry": { "type": "LineString", "coordinates": [ [ -82.599507, 35.642323 ], [ -82.599739, 35.642982 ], [ -82.600008, 35.6438377 ], [ -82.6000696, 35.6442017 ], [ -82.600252, 35.645587 ], [ -82.600292, 35.646881 ], [ -82.60027, 35.647939 ], [ -82.600294, 35.649082 ], [ -82.600471, 35.649882 ], [ -82.600853, 35.650725 ], [ -82.60115, 35.651438 ], [ -82.601177, 35.652051 ], [ -82.601359, 35.653164 ], [ -82.601501, 35.653376 ], [ -82.602018, 35.654046 ], [ -82.602195, 35.654463 ], [ -82.602278, 35.65494 ], [ -82.602904, 35.656076 ], [ -82.60314, 35.65643 ], [ -82.603586, 35.65686 ], [ -82.604145, 35.657158 ], [ -82.60526, 35.657377 ], [ -82.606724, 35.657478 ], [ -82.608295, 35.657522 ], [ -82.610325, 35.657639 ], [ -82.612217, 35.657748 ], [ -82.6156326, 35.6582735 ], [ -82.6172519, 35.6587433 ], [ -82.6204169, 35.6597545 ], [ -82.6216614, 35.6601642 ], [ -82.6225841, 35.6605391 ], [ -82.6234746, 35.6611318 ], [ -82.6240969, 35.661803 ], [ -82.6245797, 35.6624132 ], [ -82.6247943, 35.6632413 ], [ -82.6248586, 35.663895 ], [ -82.62463, 35.664674 ] ] } },
{ "type": "Feature", "properties": { "name": "French Broad River" }, "geometry": { "type": "LineString", "coordinates": [ [ -82.5908532, 35.5554317 ], [ -82.591616, 35.5564876 ], [ -82.592737, 35.558805 ], [ -82.592939, 35.55988 ], [ -82.592917, 35.560871 ], [ -82.592754, 35.561571 ] ] } },
{ "type": "Feature", "properties": { "name": "French Broad River" }, "geometry": { "type": "LineString", "coordinates": [ [ -82.570844, 35.544616 ], [ -82.5709519, 35.5446536 ] ] } },
{ "type": "Feature", "properties": { "name": "French Broad River" }, "geometry": { "type": "LineString", "coordinates": [ [ -82.571709, 35.589293 ], [ -82.572478, 35.590713 ], [ -82.572777, 35.591498 ], [ -82.572894, 35.592144 ], [ -82.5730708, 35.5934362 ], [ -82.573109, 35.593718 ], [ -82.573269, 35.594256 ], [ -82.5734663, 35.5945515 ], [ -82.573496, 35.594595 ], [ -82.574503, 35.59556 ], [ -82.5747628, 35.5959092 ], [ -82.5749396, 35.5961577 ], [ -82.5751082, 35.5963813 ], [ -82.575695, 35.597172 ], [ -82.575865, 35.597612 ], [ -82.5759249, 35.5981181 ], [ -82.575944, 35.5981333 ], [ -82.5760274, 35.5994966 ], [ -82.576082, 35.600312 ], [ -82.576233, 35.600741 ], [ -82.57652, 35.601238 ], [ -82.5768235, 35.6015413 ], [ -82.578374, 35.603106 ], [ -82.578894, 35.603836 ], [ -82.579276, 35.60462 ], [ -82.579381, 35.604836 ], [ -82.579467, 35.604939 ], [ -82.5797355, 35.6053415 ], [ -82.579845, 35.605505 ], [ -82.580236, 35.60636 ], [ -82.580365, 35.606835 ], [ -82.580276, 35.60739 ], [ -82.579991, 35.60781 ], [ -82.578592, 35.60915 ], [ -82.5780543, 35.6099134 ], [ -82.577811, 35.610472 ], [ -82.577372, 35.611674 ], [ -82.5773119, 35.611952 ], [ -82.5769916, 35.6134321 ], [ -82.576861, 35.614085 ], [ -82.576778, 35.614718 ], [ -82.576826, 35.615593 ], [ -82.576923, 35.616379 ], [ -82.577658, 35.618017 ], [ -82.578717, 35.61997 ], [ -82.579207, 35.621074 ], [ -82.579449, 35.621536 ] ] } },
{ "type": "Feature", "properties": { "name": "French Broad River" }, "geometry": { "type": "LineString", "coordinates": [ [ -82.579449, 35.621536 ], [ -82.5796475, 35.6218138 ], [ -82.58005, 35.622377 ], [ -82.580527, 35.62307 ], [ -82.580941, 35.623551 ], [ -82.581547, 35.624133 ], [ -82.582277, 35.624596 ], [ -82.582996, 35.62491 ], [ -82.583723, 35.625219 ], [ -82.585446, 35.625512 ], [ -82.586303, 35.625611 ], [ -82.587186, 35.625585 ], [ -82.588281, 35.625373 ], [ -82.588956, 35.625001 ], [ -82.5898548, 35.6244395 ], [ -82.590396, 35.624064 ], [ -82.59178, 35.623589 ], [ -82.59283, 35.623219 ], [ -82.593989, 35.623045 ], [ -82.595341, 35.622966 ], [ -82.5960336, 35.6229499 ], [ -82.597586, 35.622985 ], [ -82.598222, 35.62306 ], [ -82.598884, 35.623256 ], [ -82.599469, 35.623455 ], [ -82.60001, 35.623731 ], [ -82.600715, 35.62418 ], [ -82.600848, 35.624295 ], [ -82.601376, 35.624749 ], [ -82.601711, 35.625231 ], [ -82.601886, 35.625683 ], [ -82.601952, 35.626738 ], [ -82.602083, 35.627724 ], [ -82.602116, 35.628243 ], [ -82.602157, 35.628879 ], [ -82.60201, 35.630018 ], [ -82.601687, 35.630713 ], [ -82.601481, 35.631082 ], [ -82.6010599, 35.6318175 ] ] } },
{ "type": "Feature", "properties": { "name": "French Broad River" }, "geometry": { "type": "LineString", "coordinates": [ [ -82.5386905, 35.412208 ], [ -82.5388498, 35.4123571 ], [ -82.5392656, 35.4126233 ], [ -82.5396515, 35.4131425 ], [ -82.5400463, 35.4138703 ], [ -82.5402168, 35.4144261 ], [ -82.5404039, 35.4152682 ], [ -82.5405399, 35.4166238 ], [ -82.5406745, 35.4174356 ] ] } },
{ "type": "Feature", "properties": { "name": "French Broad River" }, "geometry": { "type": "LineString", "coordinates": [ [ -82.563351, 35.539857 ], [ -82.563986, 35.540125 ], [ -82.564607, 35.540448 ], [ -82.564695, 35.540504 ] ] } },
{ "type": "Feature", "properties": { "name": "French Broad River" }, "geometry": { "type": "LineString", "coordinates": [ [ -82.565862, 35.541244 ], [ -82.566932, 35.542157 ] ] } },
{ "type": "Feature", "properties": { "name": "French Broad River" }, "geometry": { "type": "LineString", "coordinates": [ [ -82.561448, 35.536967 ], [ -82.561565, 35.537384 ], [ -82.561654, 35.5375477 ] ] } },
{ "type": "Feature", "properties": { "name": "French Broad River" }, "geometry": { "type": "LineString", "coordinates": [ [ -82.560903, 35.532352 ], [ -82.561184, 35.5326 ], [ -82.561344, 35.532929 ], [ -82.561362, 35.533055 ] ] } },
{ "type": "Feature", "properties": { "name": "French Broad River" }, "geometry": { "type": "LineString", "coordinates": [ [ -82.592754, 35.561571 ], [ -82.592562, 35.562314 ], [ -82.592151, 35.562993 ], [ -82.591624, 35.563549 ], [ -82.591057, 35.563922 ] ] } },
{ "type": "Feature", "properties": { "name": "French Broad River" }, "geometry": { "type": "LineString", "coordinates": [ [ -82.568048, 35.5431082 ], [ -82.568545, 35.543532 ] ] } },
{ "type": "Feature", "properties": { "name": "French Broad River" }, "geometry": { "type": "LineString", "coordinates": [ [ -82.5889414, 35.5537491 ], [ -82.5897264, 35.5543112 ] ] } },
{ "type": "Feature", "properties": { "name": "French Broad River" }, "geometry": { "type": "LineString", "coordinates": [ [ -82.5761083, 35.5649417 ], [ -82.575646, 35.564934 ], [ -82.574836, 35.565034 ], [ -82.5734302, 35.5652637 ] ] } },
{ "type": "Feature", "properties": { "name": "French Broad River" }, "geometry": { "type": "LineString", "coordinates": [ [ -82.5709519, 35.5446536 ], [ -82.571464, 35.544834 ] ] } },
{ "type": "Feature", "properties": { "name": "French Broad River" }, "geometry": { "type": "LineString", "coordinates": [ [ -82.5614205, 35.534359 ], [ -82.561404, 35.534719 ], [ -82.561275, 35.535805 ], [ -82.561304, 35.536453 ], [ -82.561349, 35.536613 ] ] } },
{ "type": "Feature", "properties": { "name": "French Broad River" }, "geometry": { "type": "LineString", "coordinates": [ [ -82.5695794, 35.5441034 ], [ -82.57035, 35.544414 ], [ -82.570844, 35.544616 ] ] } },
{ "type": "Feature", "properties": { "name": "French Broad River" }, "geometry": { "type": "LineString", "coordinates": [ [ -82.5680749, 35.5850587 ], [ -82.568222, 35.585447 ], [ -82.5684558, 35.5857691 ], [ -82.568471, 35.58579 ], [ -82.568779, 35.586132 ], [ -82.5703439, 35.587493 ] ] } },
{ "type": "Feature", "properties": { "name": "French Broad River" }, "geometry": { "type": "LineString", "coordinates": [ [ -82.5675884, 35.5427163 ], [ -82.568048, 35.5431082 ] ] } },
{ "type": "Feature", "properties": { "name": "French Broad River" }, "geometry": { "type": "LineString", "coordinates": [ [ -82.5384734, 35.4120491 ], [ -82.5386905, 35.412208 ] ] } },
{ "type": "Feature", "properties": { "name": "French Broad River" }, "geometry": { "type": "LineString", "coordinates": [ [ -82.563139, 35.539766 ], [ -82.563351, 35.539857 ] ] } },
{ "type": "Feature", "properties": { "name": "Swannanoa River" }, "geometry": { "type": "LineString", "coordinates": [ [ -82.5483575, 35.5657984 ], [ -82.5493841, 35.5652409 ], [ -82.549935, 35.564946 ], [ -82.5504273, 35.5646763 ], [ -82.5507344, 35.564423 ], [ -82.5509406, 35.5641527 ], [ -82.551142, 35.563849 ], [ -82.5513781, 35.5636154 ], [ -82.5516683, 35.5635812 ], [ -82.5520764, 35.563636 ], [ -82.5524171, 35.563677 ], [ -82.553127, 35.563957 ], [ -82.553574, 35.564048 ], [ -82.554221, 35.564133 ], [ -82.554927, 35.564182 ], [ -82.555498, 35.56419 ], [ -82.555884, 35.564159 ], [ -82.556257, 35.564069 ], [ -82.556682, 35.563937 ], [ -82.5573451, 35.5636535 ] ] } },
{ "type": "Feature", "properties": { "name": "French Broad River" }, "geometry": { "type": "LineString", "coordinates": [ [ -82.5638197, 35.5684873 ], [ -82.563696, 35.569134 ], [ -82.563611, 35.56985 ], [ -82.563646, 35.570415 ], [ -82.563687, 35.570866 ], [ -82.5638079, 35.5712907 ] ] } },
{ "type": "Feature", "properties": { "name": "French Broad River" }, "geometry": { "type": "LineString", "coordinates": [ [ -82.568545, 35.543532 ], [ -82.56884, 35.543739 ], [ -82.569089, 35.543888 ] ] } },
{ "type": "Feature", "properties": { "name": "Swannanoa River" }, "geometry": { "type": "LineString", "coordinates": [ [ -82.5246861, 35.5765115 ], [ -82.525011, 35.576505 ], [ -82.525213, 35.576436 ], [ -82.525384, 35.576287 ], [ -82.525598, 35.575879 ], [ -82.5259692, 35.5752298 ], [ -82.526182, 35.57466 ], [ -82.526593, 35.574188 ], [ -82.52689, 35.57394 ], [ -82.527331, 35.57364 ], [ -82.528081, 35.57323 ], [ -82.528435, 35.572993 ], [ -82.52992, 35.572165 ], [ -82.530165, 35.572041 ], [ -82.530362, 35.571957 ], [ -82.530672, 35.571912 ], [ -82.531172, 35.571885 ], [ -82.531902, 35.571887 ], [ -82.53259, 35.571925 ], [ -82.5334973, 35.5719336 ] ] } },
{ "type": "Feature", "properties": { "name": "French Broad River" }, "geometry": { "type": "LineString", "coordinates": [ [ -82.549717, 35.464503 ], [ -82.550075, 35.464944 ], [ -82.550274, 35.465337 ], [ -82.55042, 35.465782 ], [ -82.550534, 35.46603 ], [ -82.550636, 35.466352 ], [ -82.55093, 35.467029 ], [ -82.551261, 35.467524 ], [ -82.552142, 35.468509 ], [ -82.55271, 35.469394 ], [ -82.5531, 35.470248 ], [ -82.553355, 35.471035 ], [ -82.553507, 35.471383 ], [ -82.553792, 35.47196 ], [ -82.554098, 35.472889 ], [ -82.554293, 35.473316 ], [ -82.554744, 35.473942 ], [ -82.555792, 35.475422 ], [ -82.555989, 35.475792 ], [ -82.556287, 35.476411 ], [ -82.556389, 35.476863 ], [ -82.556479, 35.478917 ], [ -82.556592, 35.479491 ], [ -82.556885, 35.480132 ], [ -82.557318, 35.480949 ], [ -82.557648, 35.481444 ], [ -82.558315, 35.48199 ], [ -82.558886, 35.482417 ], [ -82.559607, 35.482866 ], [ -82.560193, 35.483137 ], [ -82.5621065, 35.4839106 ], [ -82.56318, 35.484854 ], [ -82.563831, 35.485628 ], [ -82.564462, 35.486945 ], [ -82.564522, 35.487304 ], [ -82.564617, 35.487445 ], [ -82.56474, 35.488236 ], [ -82.564913, 35.488895 ], [ -82.565043, 35.489323 ], [ -82.565151, 35.489558 ], [ -82.565573, 35.490123 ], [ -82.566578, 35.490924 ], [ -82.567168, 35.491303 ], [ -82.568298, 35.491919 ], [ -82.569192, 35.492182 ], [ -82.569863, 35.492351 ], [ -82.570933, 35.492481 ], [ -82.572307, 35.492682 ], [ -82.572743, 35.492773 ], [ -82.5734147, 35.4929941 ], [ -82.57422, 35.493152 ], [ -82.575079, 35.493182 ], [ -82.575806, 35.493105 ], [ -82.576722, 35.492862 ], [ -82.577075, 35.492852 ], [ -82.5773, 35.492953 ], [ -82.577604, 35.492924 ], [ -82.577825, 35.492866 ], [ -82.578385, 35.492421 ], [ -82.57876, 35.492044 ], [ -82.579047, 35.491567 ], [ -82.579399, 35.49131 ], [ -82.579735, 35.49115 ], [ -82.580303, 35.491025 ], [ -82.580911, 35.490868 ], [ -82.581568, 35.490699 ], [ -82.581969, 35.490682 ], [ -82.5828631, 35.4907625 ], [ -82.583919, 35.49099 ], [ -82.584552, 35.491173 ], [ -82.585224, 35.491392 ], [ -82.585721, 35.49159 ], [ -82.5861, 35.491772 ], [ -82.586311, 35.491936 ], [ -82.58675, 35.492169 ], [ -82.587549, 35.492747 ], [ -82.587942, 35.49318 ], [ -82.5883908, 35.4936787 ], [ -82.5891096, 35.4947095 ], [ -82.5893778, 35.495155 ], [ -82.5901932, 35.4958101 ], [ -82.5907618, 35.4961857 ], [ -82.5918991, 35.4972422 ], [ -82.5922531, 35.4977313 ], [ -82.5924999, 35.4982554 ], [ -82.5925857, 35.4986223 ], [ -82.59253, 35.498987 ], [ -82.5923604, 35.4995045 ], [ -82.5921995, 35.4998713 ], [ -82.5921244, 35.5004303 ], [ -82.5923832, 35.5014665 ] ] } },
{ "type": "Feature", "properties": { "name": "French Broad River" }, "geometry": { "type": "LineString", "coordinates": [ [ -82.579003, 35.564692 ], [ -82.57835, 35.56474 ], [ -82.5773171, 35.5648647 ], [ -82.5761083, 35.5649417 ] ] } },
{ "type": "Feature", "properties": { "name": "French Broad River" }, "geometry": { "type": "LineString", "coordinates": [ [ -82.62463, 35.664674 ], [ -82.623432, 35.666326 ], [ -82.622805, 35.667125 ], [ -82.622265, 35.66798 ], [ -82.621594, 35.668726 ] ] } },
{ "type": "Feature", "properties": { "name": "French Broad River" }, "geometry": { "type": "LineString", "coordinates": [ [ -82.569089, 35.543888 ], [ -82.569181, 35.543943 ], [ -82.5695794, 35.5441034 ] ] } },
{ "type": "Feature", "properties": { "name": "French Broad River" }, "geometry": { "type": "LineString", "coordinates": [ [ -82.566932, 35.542157 ], [ -82.5675884, 35.5427163 ] ] } },
{ "type": "Feature", "properties": { "name": "French Broad River" }, "geometry": { "type": "LineString", "coordinates": [ [ -82.561362, 35.533055 ], [ -82.561429, 35.533521 ], [ -82.561436, 35.533987 ] ] } },
{ "type": "Feature", "properties": { "name": "French Broad River" }, "geometry": { "type": "LineString", "coordinates": [ [ -82.534127, 35.409286 ], [ -82.5346288, 35.4095719 ], [ -82.535573, 35.41011 ], [ -82.536925, 35.4112223 ], [ -82.5375432, 35.4115593 ], [ -82.5380431, 35.4118014 ], [ -82.5384734, 35.4120491 ] ] } },
{ "type": "Feature", "properties": { "name": "French Broad River" }, "geometry": { "type": "LineString", "coordinates": [ [ -82.5558149, 35.4512985 ], [ -82.554745, 35.451403 ], [ -82.552997, 35.451778 ], [ -82.551563, 35.452253 ], [ -82.550021, 35.452952 ], [ -82.54936, 35.453292 ], [ -82.548675, 35.453781 ], [ -82.5465111, 35.4558903 ], [ -82.5455266, 35.4567561 ], [ -82.5450583, 35.4572795 ], [ -82.544746, 35.457721 ], [ -82.544542, 35.458087 ], [ -82.544386, 35.458561 ], [ -82.544378, 35.458861 ], [ -82.544456, 35.459136 ], [ -82.544597, 35.459348 ], [ -82.544825, 35.459522 ], [ -82.545288, 35.459744 ], [ -82.545593, 35.459933 ], [ -82.546783, 35.460839 ], [ -82.547235, 35.461184 ], [ -82.547973, 35.46192 ], [ -82.548359, 35.462402 ], [ -82.549094, 35.463533 ], [ -82.549434, 35.464003 ], [ -82.549717, 35.464503 ] ] } },
{ "type": "Feature", "properties": { "name": "Swannanoa River" }, "geometry": { "type": "LineString", "coordinates": [ [ -82.54531, 35.568419 ], [ -82.545976, 35.567497 ], [ -82.546184, 35.567286 ], [ -82.546793, 35.566733 ], [ -82.5471759, 35.5663736 ], [ -82.5473799, 35.5662042 ], [ -82.5483575, 35.5657984 ] ] } },
{ "type": "Feature", "properties": { "name": "French Broad River" }, "geometry": { "type": "LineString", "coordinates": [ [ -82.561349, 35.536613 ], [ -82.561448, 35.536967 ] ] } },
{ "type": "Feature", "properties": { "name": "French Broad River" }, "geometry": { "type": "LineString", "coordinates": [ [ -82.558842, 35.523088 ], [ -82.558586, 35.524807 ], [ -82.558405, 35.526725 ], [ -82.558443, 35.52759 ], [ -82.558547, 35.527947 ], [ -82.558848, 35.528768 ], [ -82.559042, 35.529159 ], [ -82.559369, 35.529749 ], [ -82.559629, 35.530477 ], [ -82.559694, 35.530692 ] ] } },
{ "type": "Feature", "properties": { "name": "Swannanoa River" }, "geometry": { "type": "LineString", "coordinates": [ [ -82.5334973, 35.5719336 ], [ -82.533897, 35.571998 ], [ -82.5343095, 35.5720025 ], [ -82.534906, 35.571861 ], [ -82.536776, 35.571193 ], [ -82.537279, 35.570956 ], [ -82.538023, 35.570558 ], [ -82.538457, 35.570358 ], [ -82.5391515, 35.569946 ], [ -82.5397657, 35.5697304 ], [ -82.5402495, 35.5696244 ], [ -82.5409141, 35.569532 ], [ -82.541289, 35.569547 ], [ -82.541583, 35.569482 ], [ -82.5417708, 35.5694643 ] ] } },
{ "type": "Feature", "properties": { "name": "French Broad River" }, "geometry": { "type": "LineString", "coordinates": [ [ -82.562758, 35.53951 ], [ -82.563036, 35.539722 ], [ -82.563139, 35.539766 ] ] } },
{ "type": "Feature", "properties": { "name": "French Broad River" }, "geometry": { "type": "LineString", "coordinates": [ [ -82.5682299, 35.5800097 ], [ -82.5680119, 35.5808297 ], [ -82.5678309, 35.5819697 ], [ -82.5677309, 35.5828687 ], [ -82.5677549, 35.5836547 ], [ -82.5678784, 35.5841966 ], [ -82.5680749, 35.5850587 ] ] } },
{ "type": "Feature", "properties": { "name": "French Broad River" }, "geometry": { "type": "LineString", "coordinates": [ [ -82.5638079, 35.5712907 ], [ -82.5639269, 35.5715517 ], [ -82.5647589, 35.5723937 ], [ -82.5676499, 35.5748707 ], [ -82.5681019, 35.5753107 ], [ -82.5684559, 35.5758907 ], [ -82.5686559, 35.5764577 ], [ -82.5687119, 35.5772247 ], [ -82.5685599, 35.5782027 ], [ -82.5684519, 35.5790317 ], [ -82.5682299, 35.5800097 ] ] } },
{ "type": "Feature", "properties": { "name": "French Broad River" }, "geometry": { "type": "LineString", "coordinates": [ [ -82.571464, 35.544834 ], [ -82.571564, 35.544869 ], [ -82.572125, 35.545004 ], [ -82.572698, 35.5451 ], [ -82.573392, 35.545247 ], [ -82.574167, 35.545407 ] ] } },
{ "type": "Feature", "properties": { "name": "French Broad River" }, "geometry": { "type": "LineString", "coordinates": [ [ -82.561436, 35.533987 ], [ -82.561436, 35.53402 ], [ -82.5614205, 35.534359 ] ] } },
{ "type": "Feature", "properties": { "name": "French Broad River" }, "geometry": { "type": "LineString", "coordinates": [ [ -82.5469542, 35.4251658 ], [ -82.5472053, 35.4253375 ], [ -82.5481597, 35.4260366 ], [ -82.5494901, 35.4267468 ], [ -82.5515891, 35.4282005 ], [ -82.5516774, 35.4282616 ], [ -82.5524844, 35.4287193 ], [ -82.5528423, 35.4289223 ], [ -82.5540019, 35.4292214 ], [ -82.55765, 35.4298328 ], [ -82.559015, 35.430134 ], [ -82.559553, 35.430335 ], [ -82.560234, 35.430784 ], [ -82.5604812, 35.4311197 ], [ -82.5605884, 35.4315199 ], [ -82.5605535, 35.4319257 ], [ -82.5603383, 35.4323355 ], [ -82.5598521, 35.4328646 ], [ -82.5592918, 35.4340013 ], [ -82.558465, 35.435671 ], [ -82.55787, 35.436193 ], [ -82.557142, 35.436684 ], [ -82.55676, 35.43702 ], [ -82.556468, 35.437389 ], [ -82.556332, 35.437808 ] ] } },
{ "type": "Feature", "properties": { "name": "Swannanoa River" }, "geometry": { "type": "LineString", "coordinates": [ [ -82.5573451, 35.5636535 ], [ -82.558294, 35.5633074 ], [ -82.5587567, 35.5632732 ], [ -82.5594298, 35.5632766 ], [ -82.560794, 35.563405 ], [ -82.5616383, 35.5632903 ], [ -82.5624082, 35.5633485 ], [ -82.5634977, 35.5636462 ], [ -82.5642129, 35.5639748 ], [ -82.5645494, 35.5641527 ], [ -82.5647387, 35.5644162 ] ] } },
{ "type": "Feature", "properties": { "name": "French Broad River" }, "geometry": { "type": "LineString", "coordinates": [ [ -82.564695, 35.540504 ], [ -82.565862, 35.541244 ] ] } },
{ "type": "Feature", "properties": { "name": "French Broad River" }, "geometry": { "type": "LineString", "coordinates": [ [ -82.5619089, 35.5380789 ], [ -82.562158, 35.53881 ], [ -82.562488, 35.539305 ], [ -82.562758, 35.53951 ] ] } },
{ "type": "Feature", "properties": { "name": "French Broad River" }, "geometry": { "type": "LineString", "coordinates": [ [ -82.5862908, 35.5519852 ], [ -82.587264, 35.552538 ], [ -82.587998, 35.553045 ], [ -82.5889414, 35.5537491 ] ] } },
{ "type": "Feature", "properties": { "name": "French Broad River" }, "geometry": { "type": "LineString", "coordinates": [ [ -82.5690443, 35.5667988 ], [ -82.5683803, 35.5671115 ], [ -82.566687, 35.5675691 ], [ -82.56561, 35.567607 ], [ -82.564914, 35.567758 ], [ -82.5644555, 35.5678863 ], [ -82.5641018, 35.5681343 ], [ -82.5638197, 35.5684873 ] ] } },
{ "type": "Feature", "properties": { "name": "Swannanoa River" }, "geometry": { "type": "LineString", "coordinates": [ [ -82.5647387, 35.5644162 ], [ -82.5647808, 35.5645907 ], [ -82.5646882, 35.5647139 ], [ -82.564524, 35.564775 ], [ -82.5640614, 35.5651348 ], [ -82.5638048, 35.5653059 ], [ -82.5636197, 35.5655694 ], [ -82.563555, 35.565841 ], [ -82.5634071, 35.566184 ], [ -82.5633294, 35.5666588 ], [ -82.563311, 35.567319 ], [ -82.563365, 35.5679097 ], [ -82.5634086, 35.5681122 ], [ -82.5635484, 35.5682707 ], [ -82.5638197, 35.5684873 ] ] } },
{ "type": "Feature", "properties": { "name": "French Broad River" }, "geometry": { "type": "LineString", "coordinates": [ [ -82.559892, 35.521377 ], [ -82.559217, 35.522083 ], [ -82.558935, 35.522704 ], [ -82.558842, 35.523088 ] ] } },
{ "type": "Feature", "properties": { "name": "French Broad River" }, "geometry": { "type": "LineString", "coordinates": [ [ -82.560798, 35.532262 ], [ -82.560903, 35.532352 ] ] } },
{ "type": "Feature", "properties": { "name": "French Broad River" }, "geometry": { "type": "LineString", "coordinates": [ [ -82.574167, 35.545407 ], [ -82.574462, 35.545556 ], [ -82.575092, 35.545826 ], [ -82.576377, 35.5462295 ], [ -82.576553, 35.546282 ], [ -82.577402, 35.546439 ], [ -82.578657, 35.546587 ], [ -82.579331, 35.546855 ], [ -82.579761, 35.547094 ], [ -82.580107, 35.547446 ], [ -82.581086, 35.548608 ], [ -82.582419, 35.549795 ], [ -82.583332, 35.55049 ], [ -82.584426, 35.551146 ], [ -82.585458, 35.551614 ], [ -82.5862908, 35.5519852 ] ] } },
{ "type": "Feature", "properties": { "name": "French Broad River" }, "geometry": { "type": "LineString", "coordinates": [ [ -82.5406745, 35.4174356 ], [ -82.5409791, 35.418578 ], [ -82.5413737, 35.4194257 ], [ -82.5415694, 35.4204645 ], [ -82.5417104, 35.4208727 ], [ -82.5421349, 35.4217831 ] ] } },
{ "type": "Feature", "properties": { "name": "Swannanoa River" }, "geometry": { "type": "LineString", "coordinates": [ [ -82.3696719, 35.6045476 ], [ -82.3697518, 35.6045442 ], [ -82.3698092, 35.6045184 ], [ -82.3701095, 35.6044463 ], [ -82.3704679, 35.604247 ], [ -82.3705624, 35.6041338 ], [ -82.3705771, 35.603965 ], [ -82.3706181, 35.6039221 ], [ -82.3707513, 35.603844 ], [ -82.3707599, 35.6036927 ], [ -82.3710412, 35.6034772 ], [ -82.3710688, 35.6032045 ], [ -82.3710481, 35.6031254 ], [ -82.3711091, 35.6030224 ], [ -82.3710892, 35.6029511 ], [ -82.3711374, 35.6028691 ], [ -82.3712763, 35.6027641 ], [ -82.3718091, 35.6025645 ], [ -82.3719955, 35.6024947 ], [ -82.3723667, 35.6024625 ], [ -82.3726171, 35.6025363 ], [ -82.3727992, 35.6026731 ], [ -82.3731013, 35.6027939 ], [ -82.3733641, 35.6029593 ], [ -82.3735214, 35.6029911 ], [ -82.3738791, 35.6029662 ], [ -82.3740108, 35.6028713 ], [ -82.3740275, 35.6027528 ], [ -82.3745862, 35.6020609 ], [ -82.3746247, 35.601864 ], [ -82.3748352, 35.6015912 ], [ -82.3752806, 35.6013224 ], [ -82.3755207, 35.6012311 ], [ -82.3759159, 35.6010978 ], [ -82.376026, 35.6010787 ], [ -82.3764595, 35.6010824 ], [ -82.3770191, 35.6011951 ], [ -82.3773566, 35.6011138 ], [ -82.377603, 35.6009984 ], [ -82.3779346, 35.6009595 ], [ -82.3782165, 35.6009495 ], [ -82.3787123, 35.600912 ], [ -82.378817, 35.6009605 ], [ -82.3788621, 35.6010517 ], [ -82.3788972, 35.6011228 ], [ -82.3790016, 35.6012068 ], [ -82.3792327, 35.6012176 ], [ -82.3793907, 35.6012905 ], [ -82.3798034, 35.6013748 ], [ -82.3799002, 35.6013345 ], [ -82.3800074, 35.6013447 ], [ -82.3801279, 35.6014683 ], [ -82.3803042, 35.6015119 ], [ -82.3804207, 35.6015083 ], [ -82.3805428, 35.6013088 ], [ -82.3806526, 35.6012546 ], [ -82.3807474, 35.6012462 ], [ -82.3811321, 35.6014141 ], [ -82.3813252, 35.6013999 ], [ -82.381636, 35.6014598 ], [ -82.3826928, 35.6016633 ], [ -82.382981, 35.6017617 ], [ -82.3831088, 35.6017701 ], [ -82.384406, 35.6022718 ], [ -82.3852457, 35.6030119 ], [ -82.3855466, 35.6031664 ], [ -82.386576, 35.603208 ], [ -82.3867691, 35.6031709 ], [ -82.3869743, 35.6030815 ], [ -82.3872533, 35.6030205 ], [ -82.387378, 35.6029965 ], [ -82.3876107, 35.6029152 ], [ -82.3878427, 35.602912 ], [ -82.388379, 35.60301 ], [ -82.389037, 35.6032933 ], [ -82.3894284, 35.6034005 ], [ -82.3899753, 35.6034082 ], [ -82.3900736, 35.6034915 ], [ -82.3901509, 35.6035145 ], [ -82.3911166, 35.6035545 ], [ -82.3914408, 35.60364 ], [ -82.3921604, 35.6036284 ], [ -82.3928877, 35.6035496 ], [ -82.3934171, 35.6034392 ], [ -82.3938563, 35.603457 ], [ -82.394484, 35.6033609 ], [ -82.394958, 35.6033578 ], [ -82.3951329, 35.6033063 ], [ -82.3953772, 35.6033008 ], [ -82.3956986, 35.6032014 ], [ -82.3961845, 35.6029608 ], [ -82.3966007, 35.6028307 ], [ -82.3970948, 35.6025508 ], [ -82.3974791, 35.6024151 ], [ -82.3978108, 35.6023613 ], [ -82.3980677, 35.6023161 ], [ -82.3984578, 35.6021832 ], [ -82.39943, 35.6018674 ], [ -82.4004272, 35.6015007 ], [ -82.4011814, 35.6011747 ], [ -82.401688, 35.600993 ], [ -82.4019845, 35.6008809 ], [ -82.403044, 35.6005781 ], [ -82.403767, 35.600509 ], [ -82.4043881, 35.6004299 ], [ -82.4054216, 35.6000875 ], [ -82.4058816, 35.5998349 ], [ -82.4065208, 35.5998179 ], [ -82.406897, 35.599923 ], [ -82.4070704, 35.599932 ], [ -82.4078142, 35.6005295 ], [ -82.408307, 35.6009497 ], [ -82.4088268, 35.6012605 ], [ -82.4097348, 35.6018046 ], [ -82.4100693, 35.6020231 ], [ -82.4104636, 35.602045 ], [ -82.4107436, 35.6019913 ], [ -82.4109827, 35.6020169 ], [ -82.4111865, 35.6021251 ], [ -82.4114672, 35.6023 ], [ -82.4120348, 35.6025307 ], [ -82.4131777, 35.6028283 ], [ -82.4134566, 35.602895 ], [ -82.4142759, 35.6032256 ], [ -82.4150721, 35.603557 ], [ -82.4152622, 35.603715 ], [ -82.4153193, 35.6039967 ], [ -82.4156424, 35.6053172 ], [ -82.4162211, 35.6062153 ], [ -82.4165464, 35.6066567 ], [ -82.4170744, 35.6069829 ], [ -82.4176827, 35.6072594 ], [ -82.4183311, 35.6074397 ], [ -82.4193027, 35.6076338 ], [ -82.41944, 35.6077334 ], [ -82.4195371, 35.6080819 ], [ -82.4194189, 35.6086366 ], [ -82.419666, 35.609636 ], [ -82.4198835, 35.6101425 ], [ -82.4198265, 35.6103383 ], [ -82.4198497, 35.6104447 ], [ -82.4200863, 35.6106268 ], [ -82.4203102, 35.6107418 ], [ -82.4209438, 35.6109067 ], [ -82.421859, 35.611133 ], [ -82.4223272, 35.6112707 ], [ -82.4226685, 35.6113083 ], [ -82.4229252, 35.6112414 ], [ -82.4231679, 35.6110612 ], [ -82.4248522, 35.610581 ], [ -82.4249146, 35.6105134 ], [ -82.4253032, 35.6100344 ], [ -82.4259955, 35.6096478 ], [ -82.4265662, 35.60932 ], [ -82.4272527, 35.6088839 ], [ -82.4277068, 35.6086194 ], [ -82.4284692, 35.6084803 ], [ -82.4293521, 35.6084031 ], [ -82.4296985, 35.6084923 ], [ -82.430087, 35.60828 ], [ -82.4305053, 35.6081884 ], [ -82.4315043, 35.6079343 ], [ -82.4317705, 35.6077986 ], [ -82.4325921, 35.6066223 ], [ -82.4326428, 35.60643 ], [ -82.4325013, 35.6063544 ], [ -82.4324463, 35.6062428 ], [ -82.4325139, 35.6059097 ], [ -82.4325857, 35.6056624 ], [ -82.4331792, 35.6054014 ], [ -82.4334161, 35.6053746 ], [ -82.4338023, 35.605331 ], [ -82.4340579, 35.6054031 ], [ -82.4342944, 35.6054605 ], [ -82.4345063, 35.605512 ], [ -82.4345807, 35.6056076 ], [ -82.4348035, 35.6056289 ], [ -82.4348483, 35.6056249 ], [ -82.4351402, 35.6055993 ], [ -82.435314, 35.605584 ], [ -82.4355955, 35.6055971 ], [ -82.4366663, 35.6057534 ], [ -82.4381469, 35.6057929 ], [ -82.43862, 35.6059114 ], [ -82.439241, 35.6063338 ], [ -82.4398451, 35.6065948 ], [ -82.4402907, 35.6068593 ], [ -82.4404998, 35.6073178 ], [ -82.4406962, 35.6077471 ], [ -82.4410342, 35.6080133 ], [ -82.4411625, 35.6081011 ], [ -82.4418748, 35.6083344 ], [ -82.4422001, 35.6083893 ], [ -82.4425, 35.608209 ], [ -82.4429104, 35.6079346 ], [ -82.4433139, 35.607854 ], [ -82.4435281, 35.6078641 ], [ -82.4438285, 35.6078896 ], [ -82.4454062, 35.6081094 ], [ -82.4462997, 35.6084305 ], [ -82.4472923, 35.6087654 ], [ -82.4475057, 35.6088375 ], [ -82.4479865, 35.6087688 ], [ -82.4484551, 35.6086167 ], [ -82.4487284, 35.6085319 ], [ -82.4489911, 35.6085541 ], [ -82.4494319, 35.6086383 ], [ -82.4507731, 35.6087929 ], [ -82.4509907, 35.6087911 ], [ -82.4511913, 35.6086933 ], [ -82.4513582, 35.6085061 ], [ -82.452279, 35.6080184 ], [ -82.4527775, 35.6075788 ], [ -82.4530626, 35.6072766 ], [ -82.4532337, 35.6069263 ], [ -82.4534238, 35.6054495 ], [ -82.4532168, 35.6051919 ], [ -82.4531788, 35.60479 ], [ -82.4532738, 35.6045118 ], [ -82.4539138, 35.6041873 ], [ -82.4543172, 35.6036103 ], [ -82.4546066, 35.6035227 ], [ -82.4549952, 35.6034214 ], [ -82.4552254, 35.6033887 ], [ -82.4554303, 35.6034488 ], [ -82.4554641, 35.6035708 ], [ -82.455274, 35.6041134 ], [ -82.455331, 35.6045101 ], [ -82.4558929, 35.6054872 ], [ -82.4559908, 35.6057859 ], [ -82.4563313, 35.6063448 ], [ -82.4567554, 35.6068645 ], [ -82.4568183, 35.60701 ], [ -82.4568373, 35.6071753 ], [ -82.456848, 35.6073526 ], [ -82.4569854, 35.6074182 ], [ -82.4580323, 35.6076403 ], [ -82.4585924, 35.6077849 ], [ -82.4587947, 35.6076417 ], [ -82.4588134, 35.6075639 ], [ -82.4582877, 35.60617 ], [ -82.4580876, 35.605779 ], [ -82.457998, 35.6054875 ], [ -82.4580846, 35.6052884 ], [ -82.4616869, 35.6047468 ], [ -82.4623261, 35.6046837 ], [ -82.4627682, 35.6047201 ], [ -82.4630938, 35.6049557 ], [ -82.4632013, 35.6055847 ], [ -82.4631505, 35.6057814 ], [ -82.4631446, 35.6059222 ], [ -82.4635418, 35.6063424 ], [ -82.4650084, 35.6073648 ], [ -82.4652832, 35.6074498 ], [ -82.465561, 35.6074158 ], [ -82.466669, 35.607119 ], [ -82.4677385, 35.6067819 ], [ -82.4682164, 35.6066629 ], [ -82.4691424, 35.6069908 ], [ -82.4697159, 35.6069689 ], [ -82.4700504, 35.6068305 ], [ -82.4713199, 35.6067892 ], [ -82.4714812, 35.6066435 ], [ -82.4716126, 35.6061602 ], [ -82.4716037, 35.6057887 ], [ -82.4713617, 35.6054171 ], [ -82.4705791, 35.6051985 ], [ -82.4695158, 35.6052034 ], [ -82.4689632, 35.6051233 ], [ -82.4686197, 35.6049387 ], [ -82.4684733, 35.6045914 ], [ -82.4685181, 35.6041567 ], [ -82.4683359, 35.6034427 ], [ -82.4683777, 35.6027432 ], [ -82.467849, 35.6019491 ], [ -82.4674966, 35.6017572 ], [ -82.466484, 35.6014949 ], [ -82.4657193, 35.6011039 ], [ -82.465107, 35.60098 ], [ -82.4642467, 35.6002976 ], [ -82.4641691, 35.5999284 ], [ -82.4640257, 35.5989132 ], [ -82.4636016, 35.5983935 ], [ -82.4628608, 35.5980219 ], [ -82.4620692, 35.5976867 ], [ -82.461468, 35.597253 ], [ -82.460973, 35.5967492 ], [ -82.4608386, 35.5962464 ], [ -82.4609193, 35.5958845 ], [ -82.460976, 35.5957801 ], [ -82.4613255, 35.5956343 ], [ -82.4619796, 35.5954886 ], [ -82.4641213, 35.5950466 ], [ -82.4648083, 35.5949591 ], [ -82.4658179, 35.5957072 ], [ -82.4673233, 35.5965864 ], [ -82.4681627, 35.5968585 ], [ -82.468545, 35.5968876 ], [ -82.4690558, 35.5967273 ], [ -82.4692828, 35.5965233 ], [ -82.4693336, 35.596125 ], [ -82.4691245, 35.5951874 ], [ -82.4686585, 35.5938588 ], [ -82.4683867, 35.5934216 ], [ -82.4669201, 35.5928265 ], [ -82.4661405, 35.5925278 ], [ -82.4657014, 35.5922606 ], [ -82.4654057, 35.5919691 ], [ -82.4652743, 35.5914348 ], [ -82.4653609, 35.5912453 ], [ -82.4663944, 35.5905215 ], [ -82.4665139, 35.5901061 ], [ -82.4663944, 35.5893482 ], [ -82.4663357, 35.5892331 ], [ -82.4657562, 35.5854291 ], [ -82.4657442, 35.5844477 ], [ -82.4654754, 35.5838453 ], [ -82.4650871, 35.5830388 ], [ -82.4647884, 35.5824266 ], [ -82.4647823, 35.5821349 ], [ -82.4648721, 35.5820088 ], [ -82.4650335, 35.5819376 ], [ -82.4654575, 35.5818971 ], [ -82.4658458, 35.5817756 ], [ -82.4668494, 35.5818679 ], [ -82.4677037, 35.5820622 ], [ -82.4682533, 35.5824509 ], [ -82.4687193, 35.5825918 ], [ -82.4691554, 35.5826064 ], [ -82.469932, 35.5823246 ], [ -82.4701889, 35.5820574 ], [ -82.4704278, 35.5813043 ], [ -82.4710372, 35.5810517 ], [ -82.4717062, 35.5808816 ], [ -82.4723932, 35.5808865 ], [ -82.472755, 35.580848 ], [ -82.473588, 35.5805367 ], [ -82.4741974, 35.5800265 ], [ -82.4746753, 35.5791762 ], [ -82.4747649, 35.578977 ], [ -82.4747768, 35.5788167 ], [ -82.4745558, 35.5786709 ], [ -82.4744124, 35.5783746 ], [ -82.4745379, 35.5776457 ], [ -82.4747291, 35.5774951 ], [ -82.4756371, 35.5769801 ], [ -82.4763719, 35.5766643 ], [ -82.477275, 35.576529 ], [ -82.478088, 35.576435 ], [ -82.4786255, 35.5763959 ], [ -82.4791857, 35.5762589 ], [ -82.4799324, 35.5760763 ], [ -82.4815752, 35.5755856 ], [ -82.4825012, 35.5754933 ], [ -82.4837019, 35.5751386 ], [ -82.4851076, 35.5744346 ], [ -82.4853687, 35.5743757 ], [ -82.4858107, 35.5746089 ], [ -82.486362, 35.574755 ], [ -82.4867353, 35.5748182 ], [ -82.4874185, 35.5743793 ], [ -82.4895029, 35.5730598 ], [ -82.4900346, 35.5730549 ], [ -82.4906977, 35.5730792 ], [ -82.4912742, 35.572999 ], [ -82.4915138, 35.5730476 ], [ -82.4916774, 35.5732493 ], [ -82.491782, 35.5736088 ], [ -82.4915639, 35.5738907 ], [ -82.49131, 35.5742308 ], [ -82.4914743, 35.5747677 ], [ -82.4919731, 35.5754747 ], [ -82.492693, 35.575997 ], [ -82.4928394, 35.5763201 ], [ -82.4928155, 35.5767088 ], [ -82.4933561, 35.5778288 ], [ -82.4934308, 35.5782442 ], [ -82.4935533, 35.5786596 ], [ -82.4932546, 35.5791722 ], [ -82.4924511, 35.5799302 ], [ -82.4910412, 35.5807974 ], [ -82.4909426, 35.5810258 ], [ -82.4913638, 35.581842 ], [ -82.4914594, 35.5818955 ], [ -82.4921494, 35.5819975 ], [ -82.4930962, 35.5820072 ], [ -82.4937355, 35.581808 ], [ -82.4940883, 35.5817079 ], [ -82.4941817, 35.5816741 ], [ -82.4945743, 35.5815376 ], [ -82.4947851, 35.5813772 ], [ -82.4954052, 35.5807051 ], [ -82.4960892, 35.5798257 ], [ -82.4977231, 35.5782223 ], [ -82.4978127, 35.5780013 ], [ -82.4977111, 35.5776466 ], [ -82.4973676, 35.5769372 ], [ -82.4974453, 35.5766117 ], [ -82.4982428, 35.5761549 ], [ -82.4986938, 35.5759994 ], [ -82.4995212, 35.5758488 ], [ -82.500262, 35.5755524 ], [ -82.5017107, 35.5745685 ], [ -82.502195, 35.574143 ], [ -82.5024544, 35.5739976 ], [ -82.5027621, 35.5739854 ], [ -82.5038643, 35.5740583 ], [ -82.5051696, 35.573915 ], [ -82.5057969, 35.5742381 ], [ -82.5065406, 35.5745442 ], [ -82.5072575, 35.5747507 ], [ -82.5081267, 35.575188 ], [ -82.5105402, 35.575635 ], [ -82.5107821, 35.5757711 ], [ -82.5111226, 35.5764149 ], [ -82.511906, 35.576936 ], [ -82.5130582, 35.5777899 ], [ -82.5136317, 35.5782952 ], [ -82.5141101, 35.5791304 ], [ -82.51439, 35.5794229 ], [ -82.5146681, 35.5795785 ], [ -82.515391, 35.5797947 ], [ -82.5156851, 35.5797918 ], [ -82.5159012, 35.579714 ], [ -82.5160989, 35.5794807 ], [ -82.5163596, 35.5792235 ], [ -82.5166788, 35.5789854 ], [ -82.5169836, 35.5788301 ], [ -82.5173859, 35.578649 ], [ -82.5180615, 35.5784921 ], [ -82.5185716, 35.5784073 ], [ -82.5187752, 35.5783292 ], [ -82.5189452, 35.5782336 ], [ -82.5190727, 35.5781159 ], [ -82.5195798, 35.5774683 ], [ -82.5196573, 35.577378 ], [ -82.5197426, 35.5773049 ], [ -82.5199265, 35.5771764 ], [ -82.5203251, 35.5769859 ], [ -82.5207379, 35.5768392 ], [ -82.5214062, 35.5766431 ], [ -82.5223058, 35.5764265 ], [ -82.522818, 35.5763091 ], [ -82.522952, 35.5762984 ], [ -82.5231097, 35.5763162 ], [ -82.5240293, 35.5763906 ], [ -82.5246861, 35.5765115 ] ] } },
{ "type": "Feature", "properties": { "name": "French Broad River" }, "geometry": { "type": "LineString", "coordinates": [ [ -82.5421876, 35.4218659 ], [ -82.542493, 35.422247 ], [ -82.54377, 35.42322 ], [ -82.5443773, 35.4235385 ] ] } },
{ "type": "Feature", "properties": { "name": "French Broad River" }, "geometry": { "type": "LineString", "coordinates": [ [ -82.5443773, 35.4235385 ], [ -82.5447222, 35.4237501 ], [ -82.5455123, 35.424228 ], [ -82.5460635, 35.4245703 ], [ -82.5469542, 35.4251658 ] ] } },
{ "type": "Feature", "properties": { "name": "French Broad River" }, "geometry": { "type": "LineString", "coordinates": [ [ -82.5813073, 35.5645838 ], [ -82.5796288, 35.5646359 ], [ -82.579003, 35.564692 ] ] } },
{ "type": "Feature", "properties": { "name": "French Broad River" }, "geometry": { "type": "LineString", "coordinates": [ [ -82.6010599, 35.6318175 ], [ -82.600621, 35.632584 ], [ -82.600465, 35.633506 ], [ -82.600271, 35.634651 ], [ -82.600169, 35.63534 ], [ -82.599699, 35.636689 ], [ -82.599142, 35.638076 ], [ -82.599047, 35.639097 ], [ -82.5990435, 35.6406997 ], [ -82.5990596, 35.640772 ], [ -82.5990907, 35.6409109 ] ] } },
{ "type": "Feature", "properties": { "name": "French Broad River" }, "geometry": { "type": "LineString", "coordinates": [ [ -82.5703439, 35.587493 ], [ -82.570539, 35.587812 ], [ -82.571283, 35.588656 ], [ -82.571709, 35.589293 ] ] } },
{ "type": "Feature", "properties": { "name": "French Broad River" }, "geometry": { "type": "LineString", "coordinates": [ [ -82.5734302, 35.5652637 ], [ -82.571763, 35.5657163 ], [ -82.5700371, 35.5663312 ], [ -82.5690443, 35.5667988 ] ] } },
{ "type": "Feature", "properties": { "name": "French Broad River" }, "geometry": { "type": "LineString", "coordinates": [ [ -82.5897264, 35.5543112 ], [ -82.5900267, 35.5548049 ], [ -82.5908532, 35.5554317 ] ] } },
{ "type": "Feature", "properties": { "name": "French Broad River" }, "geometry": { "type": "LineString", "coordinates": [ [ -82.5923832, 35.5014665 ], [ -82.5924286, 35.5019104 ], [ -82.592388, 35.502777 ], [ -82.592433, 35.503292 ], [ -82.592457, 35.50383 ], [ -82.592368, 35.504703 ], [ -82.592333, 35.505365 ], [ -82.5924362, 35.5059304 ], [ -82.592499, 35.506273 ], [ -82.592786, 35.506952 ], [ -82.592938, 35.507487 ], [ -82.592967, 35.507883 ], [ -82.592635, 35.508362 ], [ -82.592291, 35.508741 ], [ -82.59153, 35.509297 ], [ -82.591146, 35.5095161 ], [ -82.591035, 35.50958 ], [ -82.590408, 35.509871 ], [ -82.588915, 35.510701 ], [ -82.588326, 35.510944 ], [ -82.587728, 35.511141 ], [ -82.587015, 35.511418 ], [ -82.586382, 35.51174 ], [ -82.585595, 35.512304 ], [ -82.584545, 35.513003 ], [ -82.5843481, 35.5131652 ], [ -82.5841349, 35.5133407 ], [ -82.583864, 35.513564 ], [ -82.5832665, 35.5137798 ], [ -82.5827131, 35.5138732 ], [ -82.5820501, 35.5138853 ], [ -82.5810531, 35.5138488 ], [ -82.5806543, 35.5138082 ], [ -82.5800611, 35.513723 ], [ -82.579448, 35.513581 ], [ -82.5772396, 35.5126721 ], [ -82.5767511, 35.5125301 ], [ -82.5762077, 35.5122907 ], [ -82.5758737, 35.512173 ], [ -82.5753852, 35.5118889 ], [ -82.5750278, 35.5116214 ], [ -82.574995, 35.511589 ], [ -82.574852, 35.51134 ], [ -82.574392, 35.510921 ], [ -82.5733441, 35.5100965 ], [ -82.572209, 35.509352 ], [ -82.571622, 35.50919 ], [ -82.571264, 35.50917 ], [ -82.571113, 35.509162 ], [ -82.570724, 35.509258 ], [ -82.570423, 35.509487 ], [ -82.5690306, 35.5106282 ], [ -82.567313, 35.512013 ], [ -82.566317, 35.512927 ], [ -82.565991, 35.513549 ], [ -82.565807, 35.514385 ], [ -82.565519, 35.514862 ], [ -82.56508, 35.515352 ] ] } },
{ "type": "Feature", "properties": { "name": "French Broad River" }, "geometry": { "type": "LineString", "coordinates": [ [ -82.556332, 35.437808 ], [ -82.55631, 35.438324 ], [ -82.556312, 35.438668 ], [ -82.556408, 35.43905 ], [ -82.556709, 35.439734 ], [ -82.556904, 35.440299 ], [ -82.557505, 35.442234 ], [ -82.557794, 35.443085 ], [ -82.558263, 35.444155 ], [ -82.559278, 35.446182 ], [ -82.559575, 35.446931 ], [ -82.559841, 35.44797 ], [ -82.559923, 35.448514 ], [ -82.559886, 35.448979 ], [ -82.559769, 35.449343 ], [ -82.559513, 35.449778 ], [ -82.5593218, 35.4499913 ], [ -82.5586454, 35.4505478 ], [ -82.5576612, 35.4510102 ], [ -82.5570734, 35.4511881 ], [ -82.5562942, 35.4512866 ], [ -82.5560854, 35.4512918 ], [ -82.5558149, 35.4512985 ] ] } },
{ "type": "Feature", "properties": { "name": "French Broad River" }, "geometry": { "type": "LineString", "coordinates": [ [ -82.5421349, 35.4217831 ], [ -82.5421876, 35.4218659 ] ] } },
{ "type": "Feature", "properties": { "name": "French Broad River" }, "geometry": { "type": "LineString", "coordinates": [ [ -82.5990907, 35.6409109 ], [ -82.5992363, 35.6414189 ], [ -82.599331, 35.641749 ], [ -82.5993736, 35.6418997 ], [ -82.599507, 35.642323 ] ] } }
]
}
